{
  "type": "FeatureCollection",
  "features": [
    {
      "type": "Feature",
      "geometry": {
        "type": "Point",
        "coordinates": [
          -57.03013888887173,
          -25.62902777779338
        ]
      },
      "properties": {
        "zone_id": "B1",
        "centroid_lon": "-57.03013888887173",
        "centroid_lat": "-25.62902777779338",
        "area_m2": "5472000.0",
        "area_ha": "547.2",
        "elevation_m": "135.0",
        "avg_slope_pct": "0.3",
        "aspect_deg": "72.0",
        "avg_tree_cover_pct": "0.0",
        "recommendation": ""
      }
    },
    {
      "type": "Feature",
      "geometry": {
        "type": "Point",
        "coordinates": [
          -57.02986111109396,
          -25.624027777793376
        ]
      },
      "properties": {
        "zone_id": "B2",
        "centroid_lon": "-57.02986111109396",
        "centroid_lat": "-25.624027777793376",
        "area_m2": "8100.0",
        "area_ha": "0.81",
        "elevation_m": "140.0",
        "avg_slope_pct": "0.3",
        "aspect_deg": "342.0",
        "avg_tree_cover_pct": "0.0",
        "recommendation": ""
      }
    },
    {
      "type": "Feature",
      "geometry": {
        "type": "Point",
        "coordinates": [
          -57.03013888887173,
          -25.6312500000156
        ]
      },
      "properties": {
        "zone_id": "B8",
        "centroid_lon": "-57.03013888887173",
        "centroid_lat": "-25.6312500000156",
        "area_m2": "5400.0",
        "area_ha": "0.54",
        "elevation_m": "138.0",
        "avg_slope_pct": "0.4",
        "aspect_deg": "278.0",
        "avg_tree_cover_pct": "0.0",
        "recommendation": ""
      }
    }
  ]
}