{
  "type": "FeatureCollection",
  "name": "client_gps_walking_path",
  "metadata": {
    "source": "Wesley van de Camp GPS walk via Guru Maps GPX",
    "source_url": "https://shared.gurumaps.app/5f349095-4c7b-49cd-8d8d-0e0acb7e3f8e.gpx",
    "category": "walking_path",
    "points": 20,
    "sessions": {
      "2026-06-22": 5,
      "2026-06-28": 15
    },
    "start": "2026-06-22T15:37:23.526Z",
    "end": "2026-06-28T14:18:30.622Z",
    "total_session_minutes": 8561.1,
    "note": "Chronologically ordered \u2014 shows the exact route Wes walked (multi-segment across the two sessions)."
  },
  "features": [
    {
      "type": "Feature",
      "properties": {
        "name": "Wesley's walking path",
        "category": "walking_path",
        "category_per_point": [
          118,
          26,
          118,
          118,
          118,
          28,
          118,
          118,
          118,
          72,
          118,
          118,
          118,
          118,
          118,
          118,
          118,
          118,
          118,
          118
        ],
        "timestamps": [
          "2026-06-22T15:37:23.526Z",
          "2026-06-22T15:47:02.305Z",
          "2026-06-22T16:01:25.771Z",
          "2026-06-22T16:08:42.620Z",
          "2026-06-22T16:13:43.648Z",
          "2026-06-28T12:05:12.295Z",
          "2026-06-28T12:31:21.887Z",
          "2026-06-28T12:32:31.305Z",
          "2026-06-28T12:36:37.303Z",
          "2026-06-28T12:41:42.762Z",
          "2026-06-28T12:48:14.770Z",
          "2026-06-28T12:54:03.950Z",
          "2026-06-28T13:01:30.760Z",
          "2026-06-28T13:11:25.453Z",
          "2026-06-28T13:21:18.145Z",
          "2026-06-28T13:24:53.440Z",
          "2026-06-28T13:40:04.726Z",
          "2026-06-28T13:44:45.350Z",
          "2026-06-28T13:49:49.209Z",
          "2026-06-28T14:18:30.622Z"
        ],
        "polyline_style": "dashed-by-session"
      },
      "geometry": {
        "type": "LineString",
        "coordinates": [
          [
            -57.0300967,
            -25.6156994
          ],
          [
            -57.029212,
            -25.6143749
          ],
          [
            -57.0276911,
            -25.6120103
          ],
          [
            -57.0281265,
            -25.6120102
          ],
          [
            -57.0287129,
            -25.6118537
          ],
          [
            -57.033588,
            -25.6113051
          ],
          [
            -57.0261261,
            -25.6099914
          ],
          [
            -57.0261813,
            -25.6099145
          ],
          [
            -57.0255732,
            -25.608754
          ],
          [
            -57.0263979,
            -25.6074104
          ],
          [
            -57.0274267,
            -25.6066623
          ],
          [
            -57.0274567,
            -25.6081121
          ],
          [
            -57.0296353,
            -25.6073985
          ],
          [
            -57.0294132,
            -25.6044545
          ],
          [
            -57.0327786,
            -25.6027899
          ],
          [
            -57.0335105,
            -25.6033469
          ],
          [
            -57.0329011,
            -25.6066678
          ],
          [
            -57.0341386,
            -25.606805
          ],
          [
            -57.0344871,
            -25.6051039
          ],
          [
            -57.0363034,
            -25.6082958
          ]
        ]
      }
    }
  ]
}