{
  "type": "FeatureCollection",
  "name": "client_gps_polygon",
  "metadata": {
    "source": "Wesley van de Camp GPS walk via Guru Maps iOS",
    "source_url": "https://shared.gurumaps.app/5f349095-4c7b-49cd-8d8d-0e0acb7e3f8e.html",
    "received_utc": "2026-06-28",
    "walk_dates": [
      "2026-06-22",
      "2026-06-28"
    ],
    "method": "17 handheld GPS points captured while walking the property perimeter",
    "accuracy_note": "Handheld iPhone GPS accuracy \u00b13-5 m per point. Survey-grade boundary NOT done.",
    "area_m2": 713695.0,
    "area_ha": 71.37,
    "perimeter_m": 4262.0,
    "perimeter_km": 4.262,
    "centroid_lon": -57.030381,
    "centroid_lat": -25.608231
  },
  "features": [
    {
      "type": "Feature",
      "properties": {
        "name": "La Quebrada Viva \u2014 client GPS perimeter",
        "source": "client GPS walk",
        "category": "perimeter",
        "vertex_count": 17,
        "captured_by": "Wesley van de Camp",
        "captured_with": "Guru Maps iOS app",
        "captured_dates": "2026-06-22 + 2026-06-28",
        "source_url": "https://shared.gurumaps.app/5f349095-4c7b-49cd-8d8d-0e0acb7e3f8e.html",
        "area_m2": 713695.0,
        "area_ha": 71.37,
        "perimeter_m": 4262.0,
        "perimeter_km": 4.262,
        "centroid_lon": -57.030381,
        "centroid_lat": -25.608231
      },
      "geometry": {
        "type": "Polygon",
        "coordinates": [
          [
            [
              -57.0363034,
              -25.6082958
            ],
            [
              -57.0300967,
              -25.6156994
            ],
            [
              -57.0287129,
              -25.6118537
            ],
            [
              -57.0281265,
              -25.6120102
            ],
            [
              -57.0276911,
              -25.6120103
            ],
            [
              -57.0261261,
              -25.6099914
            ],
            [
              -57.0261813,
              -25.6099145
            ],
            [
              -57.0255732,
              -25.608754
            ],
            [
              -57.0274567,
              -25.6081121
            ],
            [
              -57.0274267,
              -25.6066623
            ],
            [
              -57.0296353,
              -25.6073985
            ],
            [
              -57.0294132,
              -25.6044545
            ],
            [
              -57.0327786,
              -25.6027899
            ],
            [
              -57.0335105,
              -25.6033469
            ],
            [
              -57.0344871,
              -25.6051039
            ],
            [
              -57.0329011,
              -25.6066678
            ],
            [
              -57.0341386,
              -25.606805
            ],
            [
              -57.0363034,
              -25.6082958
            ]
          ]
        ]
      }
    }
  ]
}