{"type":"FeatureCollection","features":[{"type":"Feature","geometry":{"type":"Point","coordinates":[-57.140477,-25.3856888]},"properties":{"capital":"4","name":"Caacup\u00e9","place":"town","population":"47251","osm_id":313910428}},{"type":"Feature","geometry":{"type":"Point","coordinates":[-57.3846579,-25.3129299]},"properties":{"capital":"4","name":"Aregu\u00e1","place":"town","population":"75858","osm_id":313911833}},{"type":"Feature","geometry":{"type":"Point","coordinates":[-57.1475978,-25.6207309]},"properties":{"capital":"4","name":"Paraguar\u00ed","place":"town","population":"22154","osm_id":313921866}},{"type":"Feature","geometry":{"type":"Point","coordinates":[-57.4558665,-25.4920858]},"properties":{"capital":"8","name":"Guarambar\u00e9","place":"town","population":"26744","osm_id":380642634}},{"type":"Feature","geometry":{"type":"Point","coordinates":[-56.6192144,-25.7592199]},"properties":{"capital":"8","name":"Coronel Mart\u00ednez","place":"town","osm_id":760314814}},{"type":"Feature","geometry":{"type":"Point","coordinates":[-56.955103,-25.6649017]},"properties":{"name":"Sapuca\u00ed","place":"town","population":"6546","osm_id":830392631}},{"type":"Feature","geometry":{"type":"Point","coordinates":[-56.8616212,-25.6913743]},"properties":{"name":"General Bernardino Caballero","place":"town","osm_id":830392841}},{"type":"Feature","geometry":{"type":"Point","coordinates":[-56.8404292,-25.8856298]},"properties":{"name":"La Colmena","place":"town","osm_id":830476705}},{"type":"Feature","geometry":{"type":"Point","coordinates":[-57.2425331,-25.767636]},"properties":{"name":"Carapegu\u00e1","place":"town","osm_id":842305567}},{"type":"Feature","geometry":{"type":"Point","coordinates":[-57.2891135,-25.8814105]},"properties":{"capital":"6","name":"San Roque Gonz\u00e1lez de Santa Cruz","place":"town","osm_id":842306928}},{"type":"Feature","geometry":{"type":"Point","coordinates":[-57.2324307,-25.9757816]},"properties":{"name":"Quiindy","place":"town","osm_id":849635027}},{"type":"Feature","geometry":{"type":"Point","coordinates":[-57.1942453,-25.3432502]},"properties":{"name":"San Vicente","place":"hamlet","osm_id":1307816006}},{"type":"Feature","geometry":{"type":"Point","coordinates":[-57.1707831,-25.2796362]},"properties":{"capital":"6","name":"Atyr\u00e1","place":"town","population":"13310","osm_id":1307816098}},{"type":"Feature","geometry":{"type":"Point","coordinates":[-57.1782054,-25.3708817]},"properties":{"name":"Caba\u00f1as","place":"village","osm_id":1307922055}},{"type":"Feature","geometry":{"type":"Point","coordinates":[-57.0824109,-25.2602337]},"properties":{"capital":"8","name":"Tobat\u00ed","place":"town","population":"32526","osm_id":1309185944}},{"type":"Feature","geometry":{"type":"Point","coordinates":[-57.1385668,-25.3237787]},"properties":{"name":"Candia Loma","place":"hamlet","osm_id":1309379316}},{"type":"Feature","geometry":{"type":"Point","coordinates":[-57.1461575,-25.3135761]},"properties":{"name":"Caacupe-mi","place":"hamlet","osm_id":1309379324}},{"type":"Feature","geometry":{"type":"Point","coordinates":[-57.1594398,-25.3268383]},"properties":{"name":"Candia","place":"village","osm_id":1309379454}},{"type":"Feature","geometry":{"type":"Point","coordinates":[-57.1125231,-25.3131688]},"properties":{"name":"Almada","place":"hamlet","osm_id":1309386484}},{"type":"Feature","geometry":{"type":"Point","coordinates":[-57.2958319,-25.3087796]},"properties":{"name":"San Bernardino","place":"town","population":"24000","osm_id":1317869054}},{"type":"Feature","geometry":{"type":"Point","coordinates":[-57.2492898,-25.2617324]},"properties":{"capital":"8","name":"Altos","place":"town","osm_id":1317880460}},{"type":"Feature","geometry":{"type":"Point","coordinates":[-57.2857757,-25.4046805]},"properties":{"name":"Ypacara\u00ed","place":"town","population":"18780","osm_id":1317896249}},{"type":"Feature","geometry":{"type":"Point","coordinates":[-57.349522,-25.1250628]},"properties":{"name":"Emboscada","place":"town","osm_id":1318825422}},{"type":"Feature","geometry":{"type":"Point","coordinates":[-57.2335766,-25.1777335]},"properties":{"name":"Loma Grande","place":"village","population":"6403","osm_id":1319032286}},{"type":"Feature","geometry":{"type":"Point","coordinates":[-57.305443,-25.1879075]},"properties":{"name":"Nueva Colombia","place":"village","osm_id":1319033048}},{"type":"Feature","geometry":{"type":"Point","coordinates":[-57.509397,-25.3425224]},"properties":{"capital":"8","name":"San Lorenzo","place":"city","population":"489000","osm_id":1437475089}},{"type":"Feature","geometry":{"type":"Point","coordinates":[-57.4926928,-25.2665417]},"properties":{"capital":"8","name":"Luque","place":"city","population":"224000","osm_id":1438326327}},{"type":"Feature","geometry":{"type":"Point","coordinates":[-57.4778284,-25.1728768]},"properties":{"capital":"8","name":"Limpio","place":"city","osm_id":1466688614}},{"type":"Feature","geometry":{"type":"Point","coordinates":[-57.5346458,-25.2118123]},"properties":{"capital":"8","name":"Mariano Roque Alonso","place":"city","osm_id":1466688615}},{"type":"Feature","geometry":{"type":"Point","coordinates":[-56.5470579,-25.4737775]},"properties":{"name":"Nueva Australia","place":"village","osm_id":1748377649}},{"type":"Feature","geometry":{"type":"Point","coordinates":[-56.5498473,-25.4044721]},"properties":{"name":"Nueva Londres","place":"town","population":"4568","osm_id":1748859515}},{"type":"Feature","geometry":{"type":"Point","coordinates":[-56.7317808,-25.5322822]},"properties":{"capital":"8","name":"San Jos\u00e9 de los Arroyos","place":"town","osm_id":1748959904}},{"type":"Feature","geometry":{"type":"Point","coordinates":[-56.8694529,-25.4616368]},"properties":{"name":"Sol Naciente","place":"suburb","osm_id":1756951565}},{"type":"Feature","geometry":{"type":"Point","coordinates":[-56.8402578,-25.8906618]},"properties":{"name":"San Jos\u00e9","place":"suburb","osm_id":1757229096}},{"type":"Feature","geometry":{"type":"Point","coordinates":[-56.8431364,-25.8819713]},"properties":{"name":"Santa Catalina","place":"suburb","osm_id":1757229099}},{"type":"Feature","geometry":{"type":"Point","coordinates":[-56.844753,-25.8867959]},"properties":{"name":"San Francisco","place":"suburb","osm_id":1757229105}},{"type":"Feature","geometry":{"type":"Point","coordinates":[-56.8672532,-25.8670614]},"properties":{"name":"Cerrito","place":"hamlet","osm_id":1757247410}},{"type":"Feature","geometry":{"type":"Point","coordinates":[-56.8726883,-25.6748227]},"properties":{"name":"Zorilla Cu\u00e9","place":"hamlet","osm_id":1758141000}},{"type":"Feature","geometry":{"type":"Point","coordinates":[-56.8627564,-25.6714391]},"properties":{"name":"Horqueta","place":"hamlet","osm_id":1758142546}},{"type":"Feature","geometry":{"type":"Point","coordinates":[-56.8621899,-25.6526334]},"properties":{"name":"Cerro","place":"hamlet","osm_id":1758146146}},{"type":"Feature","geometry":{"type":"Point","coordinates":[-56.9161203,-25.6759925]},"properties":{"name":"Vicinia  Mbokaja","place":"hamlet","population":"10","osm_id":1758195405}},{"type":"Feature","geometry":{"type":"Point","coordinates":[-57.2211453,-25.3742145]},"properties":{"name":"Jhugua Jhu","place":"town","osm_id":1761250955}},{"type":"Feature","geometry":{"type":"Point","coordinates":[-57.1768741,-25.3909928]},"properties":{"name":"Potrero Poi","place":"village","osm_id":1761965725}},{"type":"Feature","geometry":{"type":"Point","coordinates":[-57.2458703,-25.3402869]},"properties":{"name":"Villa Real","place":"village","osm_id":1762056257}},{"type":"Feature","geometry":{"type":"Point","coordinates":[-57.1814882,-25.3101554]},"properties":{"name":"Comandante Ojeda","place":"village","osm_id":1762064714}},{"type":"Feature","geometry":{"type":"Point","coordinates":[-57.1760626,-25.2882217]},"properties":{"name":"Villa Conavi","place":"suburb","osm_id":1762068014}},{"type":"Feature","geometry":{"type":"Point","coordinates":[-57.1706765,-25.2849043]},"properties":{"name":"San Antonio","place":"suburb","osm_id":1762078128}},{"type":"Feature","geometry":{"type":"Point","coordinates":[-57.1730208,-25.2746305]},"properties":{"name":"Maria Auxiliadora","place":"suburb","osm_id":1762079105}},{"type":"Feature","geometry":{"type":"Point","coordinates":[-57.1767705,-25.2802962]},"properties":{"name":"San Blas","place":"suburb","osm_id":1762079106}},{"type":"Feature","geometry":{"type":"Point","coordinates":[-57.1676402,-25.277119]},"properties":{"name":"Las Mercedes","place":"suburb","osm_id":1762079679}},{"type":"Feature","geometry":{"type":"Point","coordinates":[-57.2502934,-25.2567643]},"properties":{"name":"Coraz\u00f3n de Jes\u00fas","place":"suburb","osm_id":1762857223}},{"type":"Feature","geometry":{"type":"Point","coordinates":[-57.2518591,-25.2869811]},"properties":{"name":"San Miguel","place":"hamlet","osm_id":1762943263}},{"type":"Feature","geometry":{"type":"Point","coordinates":[-57.2103632,-25.2941847]},"properties":{"name":"Tucangua","place":"hamlet","osm_id":1762943291}},{"type":"Feature","geometry":{"type":"Point","coordinates":[-57.1889452,-25.3321977]},"properties":{"name":"San Vicente","place":"village","osm_id":1762943295}},{"type":"Feature","geometry":{"type":"Point","coordinates":[-57.2433619,-25.2912105]},"properties":{"name":"Tayu Ca\u00f1ada","place":"hamlet","osm_id":1762943322}},{"type":"Feature","geometry":{"type":"Point","coordinates":[-57.3806476,-25.2915765]},"properties":{"name":"Isla Valle","place":"hamlet","osm_id":1763149707}},{"type":"Feature","geometry":{"type":"Point","coordinates":[-57.3814708,-25.3394028]},"properties":{"name":"Copaco","place":"village","osm_id":1763421513}},{"type":"Feature","geometry":{"type":"Point","coordinates":[-57.3386881,-25.3525388]},"properties":{"name":"Pati\u00f1o","place":"village","osm_id":1763470016}},{"type":"Feature","geometry":{"type":"Point","coordinates":[-57.3532892,-25.3947318]},"properties":{"capital":"8","name":"Itaugu\u00e1","place":"town","population":"99395","osm_id":1763575232}},{"type":"Feature","geometry":{"type":"Point","coordinates":[-57.4816278,-25.502615]},"properties":{"name":"Rinc\u00f3n Loma-I","place":"village","osm_id":1783489208}},{"type":"Feature","geometry":{"type":"Point","coordinates":[-57.4676865,-25.6120904]},"properties":{"name":"Nueva Italia","place":"village","osm_id":1783518179}},{"type":"Feature","geometry":{"type":"Point","coordinates":[-56.8362031,-25.8756344]},"properties":{"name":"Barrio San Ram\u00f3n","place":"suburb","osm_id":1784391348}},{"type":"Feature","geometry":{"type":"Point","coordinates":[-56.8553251,-25.9564276]},"properties":{"name":"C\u00e9sar Barrientos","place":"village","osm_id":1784408598}},{"type":"Feature","geometry":{"type":"Point","coordinates":[-57.1142066,-25.9139897]},"properties":{"capital":"6","name":"Acahay","place":"town","osm_id":1784445386}},{"type":"Feature","geometry":{"type":"Point","coordinates":[-57.308168,-25.767805]},"properties":{"name":"Tajy Loma","place":"village","osm_id":1785786083}},{"type":"Feature","geometry":{"type":"Point","coordinates":[-57.3336115,-25.7844056]},"properties":{"name":"Beni Loma","place":"village","osm_id":1785803634}},{"type":"Feature","geometry":{"type":"Point","coordinates":[-57.2968239,-25.7786578]},"properties":{"name":"Itape","place":"village","osm_id":1785815924}},{"type":"Feature","geometry":{"type":"Point","coordinates":[-57.3336147,-25.7436678]},"properties":{"name":"Ndavaru","place":"village","osm_id":1785818740}},{"type":"Feature","geometry":{"type":"Point","coordinates":[-57.2926991,-25.8777007]},"properties":{"place":"suburb","osm_id":1787127956}},{"type":"Feature","geometry":{"type":"Point","coordinates":[-57.2926561,-25.8832607]},"properties":{"place":"suburb","osm_id":1787128376}},{"type":"Feature","geometry":{"type":"Point","coordinates":[-57.2866909,-25.8793408]},"properties":{"place":"suburb","osm_id":1787129333}},{"type":"Feature","geometry":{"type":"Point","coordinates":[-57.2592007,-25.9286736]},"properties":{"name":"Comandante Peralta","place":"village","osm_id":1787181858}},{"type":"Feature","geometry":{"type":"Point","coordinates":[-57.2553619,-25.9424089]},"properties":{"name":"Mendieta Cu\u00e9","place":"village","osm_id":1787181859}},{"type":"Feature","geometry":{"type":"Point","coordinates":[-57.0178207,-26.0186949]},"properties":{"capital":"6","name":"Ybycu\u00ed","place":"town","osm_id":1787224039}},{"type":"Feature","geometry":{"type":"Point","coordinates":[-57.148112,-25.9992839]},"properties":{"name":"Costa Irala","place":"village","osm_id":1787242806}},{"type":"Feature","geometry":{"type":"Point","coordinates":[-56.988545,-25.6499986]},"properties":{"name":"Ciudad de Arroyo Pora - Sub Urbano (Sapuc\u00e1i)","place":"village","osm_id":1787718637}},{"type":"Feature","geometry":{"type":"Point","coordinates":[-56.8056935,-25.7466572]},"properties":{"name":"Estaci\u00f3n","place":"suburb","osm_id":1787791758}},{"type":"Feature","geometry":{"type":"Point","coordinates":[-56.8045777,-25.7550248]},"properties":{"name":"F\u00e1tima Ybytym\u00ed","place":"suburb","osm_id":1787796776}},{"type":"Feature","geometry":{"type":"Point","coordinates":[-56.8084616,-25.7581555]},"properties":{"name":"Cerro Guy","place":"suburb","osm_id":1787796780}},{"type":"Feature","geometry":{"type":"Point","coordinates":[-56.7976877,-25.7626979]},"properties":{"name":"San Roque","place":"suburb","osm_id":1787796784}},{"type":"Feature","geometry":{"type":"Point","coordinates":[-56.7686318,-25.7943265]},"properties":{"name":"Ca\u00f1ada","place":"village","osm_id":1787800471}},{"type":"Feature","geometry":{"type":"Point","coordinates":[-56.7808434,-25.773671]},"properties":{"name":"Barrio Potrerito","place":"hamlet","osm_id":1787804697}},{"type":"Feature","geometry":{"type":"Point","coordinates":[-56.7258908,-25.8091167]},"properties":{"name":"Colonia H\u00e9ctor L. Vera","place":"hamlet","osm_id":1787806662}},{"type":"Feature","geometry":{"type":"Point","coordinates":[-56.6147051,-25.8520504]},"properties":{"name":"Itap\u00e9","place":"town","osm_id":1788539887}},{"type":"Feature","geometry":{"type":"Point","coordinates":[-56.5933118,-25.8265379]},"properties":{"name":"Potrero Sosa","place":"hamlet","osm_id":1788541142}},{"type":"Feature","geometry":{"type":"Point","coordinates":[-56.5735407,-25.8158092]},"properties":{"name":"Isla Vega","place":"village","osm_id":1788549301}},{"type":"Feature","geometry":{"type":"Point","coordinates":[-56.9622692,-25.3826238]},"properties":{"capital":"8","name":"Eusebio Ayala","place":"town","osm_id":1868313575}},{"type":"Feature","geometry":{"type":"Point","coordinates":[-57.0422264,-25.4644144]},"properties":{"capital":"8","name":"Piribebuy","place":"town","population":"28000","osm_id":1868313590}},{"type":"Feature","geometry":{"type":"Point","coordinates":[-56.8994355,-25.3084188]},"properties":{"name":"Isla Puc\u00fa","place":"town","osm_id":1873262156}},{"type":"Feature","geometry":{"type":"Point","coordinates":[-57.3631906,-25.5074747]},"properties":{"name":"It\u00e1","place":"town","population":"81084","osm_id":2211962256}},{"type":"Feature","geometry":{"type":"Point","coordinates":[-57.2856971,-25.5630557]},"properties":{"capital":"8","name":"Yaguar\u00f3n","place":"town","osm_id":2402062425}},{"type":"Feature","geometry":{"type":"Point","coordinates":[-56.5541223,-25.9453386]},"properties":{"name":"Boquer\u00f3n","place":"village","osm_id":2639674648}},{"type":"Feature","geometry":{"type":"Point","coordinates":[-56.5969926,-25.8856153]},"properties":{"name":"Potrero Reducci\u00f3n","place":"village","osm_id":2639738021}},{"type":"Feature","geometry":{"type":"Point","coordinates":[-56.5778631,-25.8907889]},"properties":{"name":"Costa Jhu","place":"village","osm_id":2639741055}},{"type":"Feature","geometry":{"type":"Point","coordinates":[-56.5861361,-25.9326864]},"properties":{"name":"Itap\u00e9 Jhugua","place":"village","osm_id":2639742174}},{"type":"Feature","geometry":{"type":"Point","coordinates":[-56.5693452,-25.9813194]},"properties":{"name":"San Pedro","place":"hamlet","osm_id":2639749548}},{"type":"Feature","geometry":{"type":"Point","coordinates":[-56.5799228,-25.9914694]},"properties":{"name":"Colonia Tacuar\u00e9","place":"village","osm_id":2639754300}},{"type":"Feature","geometry":{"type":"Point","coordinates":[-56.5780627,-26.0071575]},"properties":{"name":"Valle Pe","place":"village","osm_id":2639775161}},{"type":"Feature","geometry":{"type":"Point","coordinates":[-56.6806963,-26.0833229]},"properties":{"name":"Cordillera","place":"village","osm_id":2639784835}},{"type":"Feature","geometry":{"type":"Point","coordinates":[-57.5092575,-25.4573519]},"properties":{"capital":"8","name":"Ypan\u00e9","place":"town","population":"34943","osm_id":2645505667}},{"type":"Feature","geometry":{"type":"Point","coordinates":[-57.4430461,-25.4439]},"properties":{"capital":"8","name":"Juli\u00e1n Augusto Sald\u00edvar","place":"town","population":"37374","osm_id":2645613508}},{"type":"Feature","geometry":{"type":"Point","coordinates":[-57.4427315,-25.3548171]},"properties":{"capital":"8","name":"Capiat\u00e1","place":"city","population":"232257","osm_id":2645687271}},{"type":"Feature","geometry":{"type":"Point","coordinates":[-57.0284607,-25.3373597]},"properties":{"name":"Aguaity","place":"village","osm_id":2726696748}},{"type":"Feature","geometry":{"type":"Point","coordinates":[-57.0444816,-25.3909568]},"properties":{"name":"Guaz\u00fa Rocai","place":"village","osm_id":2726700054}},{"type":"Feature","geometry":{"type":"Point","coordinates":[-56.9701492,-25.2378551]},"properties":{"name":"Mompox","place":"village","osm_id":2726904218}},{"type":"Feature","geometry":{"type":"Point","coordinates":[-56.9280309,-25.1530253]},"properties":{"capital":"8","name":"Primero de Marzo","place":"town","osm_id":2728666988}},{"type":"Feature","geometry":{"type":"Point","coordinates":[-56.9142535,-25.1771752]},"properties":{"name":"San Jos\u00e9 Obrero","place":"town","osm_id":2728763799}},{"type":"Feature","geometry":{"type":"Point","coordinates":[-56.9061594,-25.1822625]},"properties":{"name":"Alfonso Central","place":"village","osm_id":2728774854}},{"type":"Feature","geometry":{"type":"Point","coordinates":[-56.9244877,-25.1655232]},"properties":{"name":"Alfonso Tranquera","place":"village","osm_id":2728774856}},{"type":"Feature","geometry":{"type":"Point","coordinates":[-56.8840875,-25.2022282]},"properties":{"name":"Alfonso Loma","place":"village","osm_id":2728824185}},{"type":"Feature","geometry":{"type":"Point","coordinates":[-56.8716294,-25.2259005]},"properties":{"name":"Inmaculada","place":"village","osm_id":2728836862}},{"type":"Feature","geometry":{"type":"Point","coordinates":[-56.8566356,-25.2293219]},"properties":{"name":"Jhugua Poi","place":"village","osm_id":2728861062}},{"type":"Feature","geometry":{"type":"Point","coordinates":[-56.8297759,-25.2274396]},"properties":{"name":"Rol\u00f3n","place":"village","osm_id":2728916634}},{"type":"Feature","geometry":{"type":"Point","coordinates":[-56.8252913,-25.2395075]},"properties":{"capital":"8","name":"Caraguatay","place":"town","osm_id":2728933317}},{"type":"Feature","geometry":{"type":"Point","coordinates":[-56.797215,-25.4144566]},"properties":{"capital":"8","name":"Santa Elena","place":"town","osm_id":2728973649}},{"type":"Feature","geometry":{"type":"Point","coordinates":[-56.8027607,-25.3939947]},"properties":{"name":"Paso Cabral","place":"village","osm_id":2728987364}},{"type":"Feature","geometry":{"type":"Point","coordinates":[-56.8027017,-25.3681765]},"properties":{"name":"Paso Tranquera","place":"village","osm_id":2729000887}},{"type":"Feature","geometry":{"type":"Point","coordinates":[-56.8058828,-25.3380914]},"properties":{"name":"San Roque","place":"village","osm_id":2729006813}},{"type":"Feature","geometry":{"type":"Point","coordinates":[-56.8084202,-25.322595]},"properties":{"name":"Tacuary","place":"village","osm_id":2729020274}},{"type":"Feature","geometry":{"type":"Point","coordinates":[-56.8158392,-25.2955396]},"properties":{"name":"Capellan\u00eda","place":"village","osm_id":2729028756}},{"type":"Feature","geometry":{"type":"Point","coordinates":[-56.8383421,-25.2753277]},"properties":{"name":"Teniente Gonz\u00e1lez","place":"village","osm_id":2729039104}},{"type":"Feature","geometry":{"type":"Point","coordinates":[-56.8367328,-25.2592157]},"properties":{"name":"Costa Ybate","place":"village","osm_id":2729040828}},{"type":"Feature","geometry":{"type":"Point","coordinates":[-56.7263211,-25.3418119]},"properties":{"capital":"8","name":"Mbocayaty del Yhaguy","place":"town","osm_id":2729611492}},{"type":"Feature","geometry":{"type":"Point","coordinates":[-56.847988,-25.4631759]},"properties":{"name":"Itacurub\u00ed de la Cordillera","place":"town","osm_id":2729949191}},{"type":"Feature","geometry":{"type":"Point","coordinates":[-56.6472343,-25.7789491]},"properties":{"name":"Tebicuary-m\u00ed","place":"town","osm_id":2730739991}},{"type":"Feature","geometry":{"type":"Point","coordinates":[-56.5440617,-25.8497178]},"properties":{"name":"Loma Jhovy","place":"village","osm_id":2730917475}},{"type":"Feature","geometry":{"type":"Point","coordinates":[-56.7548445,-25.5869408]},"properties":{"name":"Jhugua Guaz\u00fa","place":"village","osm_id":2730941368}},{"type":"Feature","geometry":{"type":"Point","coordinates":[-56.6969517,-25.6456058]},"properties":{"name":"Yhaca","place":"village","osm_id":2730945555}},{"type":"Feature","geometry":{"type":"Point","coordinates":[-56.6652442,-25.8456059]},"properties":{"name":"Loma Pindo","place":"village","osm_id":2731005126}},{"type":"Feature","geometry":{"type":"Point","coordinates":[-57.3450939,-25.3704553]},"properties":{"name":"Ca\u00f1adita","place":"village","osm_id":2841427491}},{"type":"Feature","geometry":{"type":"Point","coordinates":[-57.3367945,-25.4258344]},"properties":{"name":"Potrerito","place":"village","osm_id":2841893472}},{"type":"Feature","geometry":{"type":"Point","coordinates":[-57.3584238,-25.3351749]},"properties":{"name":"Estanzuela","place":"village","osm_id":2841895904}},{"type":"Feature","geometry":{"type":"Point","coordinates":[-57.3201734,-25.3939629]},"properties":{"name":"Ybyraty","place":"village","osm_id":2841902812}},{"type":"Feature","geometry":{"type":"Point","coordinates":[-57.3115903,-25.4170708]},"properties":{"name":"Guaz\u00fa Vir\u00e1","place":"village","osm_id":2841907110}},{"type":"Feature","geometry":{"type":"Point","coordinates":[-57.3605653,-25.4314892]},"properties":{"name":"\u00d1u Po\u00ed","place":"village","osm_id":2841909361}},{"type":"Feature","geometry":{"type":"Point","coordinates":[-57.3174826,-25.4491648]},"properties":{"name":"Potrero Guaz\u00fa","place":"village","osm_id":2841910691}},{"type":"Feature","geometry":{"type":"Point","coordinates":[-57.1505142,-25.6203507]},"properties":{"name":"Paraguar\u00ed","place":"town","population":"22154","osm_id":4337615367}},{"type":"Feature","geometry":{"type":"Point","coordinates":[-56.8627081,-26.0997725]},"properties":{"name":"Minas Cu\u00e9","place":"village","osm_id":5651684210}},{"type":"Feature","geometry":{"type":"Point","coordinates":[-56.9700234,-26.0688644]},"properties":{"place":"village","osm_id":5651684211}},{"type":"Feature","geometry":{"type":"Point","coordinates":[-57.2012776,-25.2461564]},"properties":{"name":"Comunidad Yakare","place":"village","osm_id":5663506436}},{"type":"Feature","geometry":{"type":"Point","coordinates":[-57.2372304,-25.4835339]},"properties":{"name":"Piray\u00fa","place":"town","osm_id":5729097022}},{"type":"Feature","geometry":{"type":"Point","coordinates":[-56.5383271,-25.2469599]},"properties":{"name":"La Pastora","place":"village","osm_id":5798490426}},{"type":"Feature","geometry":{"type":"Point","coordinates":[-57.5211432,-25.1617814]},"properties":{"name":"Arza","place":"suburb","osm_id":5810434564}},{"type":"Feature","geometry":{"type":"Point","coordinates":[-57.4850121,-25.2750755]},"properties":{"name":"Tercer Barrio","place":"suburb","osm_id":5993813734}},{"type":"Feature","geometry":{"type":"Point","coordinates":[-57.1784467,-25.884642]},"properties":{"name":"Colonia Virgen de Fatima","place":"hamlet","osm_id":6010020170}},{"type":"Feature","geometry":{"type":"Point","coordinates":[-56.6739492,-25.915112]},"properties":{"name":"Tebicuary-m\u00ed","place":"town","osm_id":6685025375}},{"type":"Feature","geometry":{"type":"Point","coordinates":[-56.8707045,-25.5947053]},"properties":{"name":"Valenzuela","place":"town","osm_id":7064916759}},{"type":"Feature","geometry":{"type":"Point","coordinates":[-57.5076482,-25.2339296]},"properties":{"name":"Z\u00e1rate Isla","place":"suburb","osm_id":7678706871}},{"type":"Feature","geometry":{"type":"Point","coordinates":[-57.5310654,-25.2753543]},"properties":{"name":"Campo Grande","place":"suburb","osm_id":7678706872}},{"type":"Feature","geometry":{"type":"Point","coordinates":[-57.5087536,-25.2965771]},"properties":{"name":"Laurelty","place":"suburb","osm_id":7678776312}},{"type":"Feature","geometry":{"type":"Point","coordinates":[-57.5064773,-25.2718078]},"properties":{"name":"Cuarto Barrio","place":"suburb","osm_id":7678776314}},{"type":"Feature","geometry":{"type":"Point","coordinates":[-57.5013434,-25.2457933]},"properties":{"name":"Loma Merlo","place":"suburb","osm_id":7678823338}},{"type":"Feature","geometry":{"type":"Point","coordinates":[-57.5024306,-25.2587413]},"properties":{"name":"Primer Barrio","place":"suburb","osm_id":7678823339}},{"type":"Feature","geometry":{"type":"Point","coordinates":[-57.4862343,-25.2303404]},"properties":{"name":"Ykua Karanda'y","place":"suburb","osm_id":7682169214}},{"type":"Feature","geometry":{"type":"Point","coordinates":[-57.4743122,-25.2326428]},"properties":{"name":"Mora Kue","place":"suburb","osm_id":7682169221}},{"type":"Feature","geometry":{"type":"Point","coordinates":[-57.477286,-25.2500606]},"properties":{"name":"Yka\u00b4a","place":"suburb","osm_id":7682169231}},{"type":"Feature","geometry":{"type":"Point","coordinates":[-57.4841079,-25.2634636]},"properties":{"name":"Segundo Barrio","place":"suburb","osm_id":7682169232}},{"type":"Feature","geometry":{"type":"Point","coordinates":[-57.481593,-25.3112586]},"properties":{"name":"Isla Bogado","place":"suburb","osm_id":7683131434}},{"type":"Feature","geometry":{"type":"Point","coordinates":[-57.4863128,-25.2872649]},"properties":{"name":"Maka\u00b4i","place":"suburb","osm_id":7683131435}},{"type":"Feature","geometry":{"type":"Point","coordinates":[-57.4661197,-25.3039218]},"properties":{"name":"Ca\u00f1ada San Rafael","place":"suburb","osm_id":7683131446}},{"type":"Feature","geometry":{"type":"Point","coordinates":[-57.4525001,-25.2986137]},"properties":{"name":"Costa Sosa","place":"suburb","osm_id":7683131452}},{"type":"Feature","geometry":{"type":"Point","coordinates":[-57.4705145,-25.2877941]},"properties":{"name":"Ycu\u00e1 Dur\u00e9","place":"suburb","osm_id":7683289188}},{"type":"Feature","geometry":{"type":"Point","coordinates":[-57.4641925,-25.2797044]},"properties":{"name":"Yaguaret\u00e9 Cor\u00e1","place":"suburb","osm_id":7683289190}},{"type":"Feature","geometry":{"type":"Point","coordinates":[-57.4356828,-25.2708329]},"properties":{"name":"Yukyry","place":"suburb","osm_id":7683289194}},{"type":"Feature","geometry":{"type":"Point","coordinates":[-57.454649,-25.2594621]},"properties":{"name":"Ca\u00f1ada Garay","place":"suburb","osm_id":7683289216}},{"type":"Feature","geometry":{"type":"Point","coordinates":[-57.4633133,-25.2696226]},"properties":{"name":"Marambur\u00e9","place":"suburb","osm_id":7683289217}},{"type":"Feature","geometry":{"type":"Point","coordinates":[-57.4507293,-25.238625]},"properties":{"name":"Mar\u00edn Ka\u00b4aguy","place":"suburb","osm_id":7683324767}},{"type":"Feature","geometry":{"type":"Point","coordinates":[-57.4558282,-25.2250037]},"properties":{"name":"Itupam\u00ed I","place":"suburb","osm_id":7683324770}},{"type":"Feature","geometry":{"type":"Point","coordinates":[-57.4178455,-25.2234681]},"properties":{"name":"Tarumandy del R\u00edo Salado","place":"suburb","osm_id":7683378445}},{"type":"Feature","geometry":{"type":"Point","coordinates":[-57.437043,-25.2299556]},"properties":{"name":"Tarumandy","place":"suburb","osm_id":7683378447}},{"type":"Feature","geometry":{"type":"Point","coordinates":[-57.4425219,-25.2143736]},"properties":{"name":"Itupam\u00ed II","place":"suburb","osm_id":7683378448}},{"type":"Feature","geometry":{"type":"Point","coordinates":[-57.3924233,-25.2303216]},"properties":{"name":"Nueva Asunci\u00f3n","place":"suburb","osm_id":7683378449}},{"type":"Feature","geometry":{"type":"Point","coordinates":[-57.5276919,-25.4085433]},"properties":{"name":"Caaguaz\u00fa","place":"suburb","osm_id":7685290154}},{"type":"Feature","geometry":{"type":"Point","coordinates":[-57.5282586,-25.4269155]},"properties":{"name":"Ca\u00f1adita","place":"suburb","osm_id":7685290155}},{"type":"Feature","geometry":{"type":"Point","coordinates":[-57.5250515,-25.3921246]},"properties":{"name":"Rinc\u00f3n","place":"suburb","osm_id":7685290162}},{"type":"Feature","geometry":{"type":"Point","coordinates":[-57.4342668,-25.2845191]},"properties":{"name":"Valle Puc\u00fa","place":"suburb","osm_id":7689333650}},{"type":"Feature","geometry":{"type":"Point","coordinates":[-57.0358175,-25.6435188]},"properties":{"name":"Ciudad de Escobar","place":"village","osm_id":9029009312}},{"type":"Feature","geometry":{"type":"Point","coordinates":[-56.7403979,-25.8180633]},"properties":{"name":"H\u00e9ctor L. Vera","place":"village","osm_id":9672798757}}]}