{"type":"FeatureCollection","features":[{"type":"Feature","geometry":{"type":"LineString","coordinates":[[-57.520627,-25.2631522],[-57.5205532,-25.263185],[-57.5203374,-25.2646659],[-57.5212661,-25.2649804],[-57.5228289,-25.266325],[-57.5230166,-25.2665821],[-57.5230923,-25.2667202],[-57.5231846,-25.2669845],[-57.5232097,-25.2671007],[-57.5232185,-25.2672465],[-57.5232035,-25.2675766],[-57.5232421,-25.2676619],[-57.523202,-25.2681393],[-57.5231851,-25.2683114],[-57.5231768,-25.2683881],[-57.5231132,-25.2690674],[-57.5230711,-25.2691607],[-57.5229552,-25.270637],[-57.5228662,-25.2706338],[-57.5228002,-25.2716258],[-57.5228766,-25.2716379],[-57.5228355,-25.2721889],[-57.5227724,-25.2729472],[-57.5227374,-25.2735053],[-57.5227543,-25.273968],[-57.5229745,-25.2750844],[-57.5231051,-25.2757136],[-57.5232516,-25.2763311],[-57.5238028,-25.2777636],[-57.5243386,-25.2790566],[-57.5245737,-25.2793994],[-57.5247803,-25.2795966],[-57.5249778,-25.2797461],[-57.5253124,-25.2799668],[-57.5255432,-25.2801015],[-57.5256619,-25.2801553],[-57.5259231,-25.2802292],[-57.526177,-25.2802805],[-57.5264732,-25.2803057],[-57.5266854,-25.2802833],[-57.5270034,-25.2802173],[-57.5272688,-25.2801729],[-57.5275312,-25.2801116],[-57.5276718,-25.2800844],[-57.5289654,-25.2797655],[-57.5291944,-25.2797371],[-57.5293746,-25.279728],[-57.529788,-25.2797754],[-57.5300684,-25.2798203],[-57.5364518,-25.2808247],[-57.5367036,-25.2808409],[-57.5368793,-25.2808278],[-57.5371562,-25.2807727],[-57.5373338,-25.2807062],[-57.5374676,-25.2806213],[-57.5376108,-25.2804945],[-57.5377943,-25.2803015],[-57.5379332,-25.2800918],[-57.538638,-25.2786172],[-57.5399978,-25.2757435],[-57.5407885,-25.2737922],[-57.5407896,-25.2737044],[-57.5407541,-25.2736377],[-57.5389412,-25.2721172],[-57.5372782,-25.269585],[-57.5346742,-25.2654942],[-57.5337504,-25.2639977],[-57.5334141,-25.2635398],[-57.5331124,-25.2632546],[-57.5328359,-25.2630506],[-57.5325933,-25.2628905],[-57.53234,-25.2627571],[-57.5319738,-25.2626031],[-57.5316353,-25.2624864],[-57.5310956,-25.2623722],[-57.530827,-25.2623348],[-57.5300778,-25.2623866],[-57.5291978,-25.2625064],[-57.5278215,-25.2626595],[-57.5277383,-25.2626699],[-57.5276469,-25.2626985],[-57.5269773,-25.2627976],[-57.5261861,-25.262915],[-57.5260016,-25.2627587],[-57.5257727,-25.2627947],[-57.5257171,-25.2629175],[-57.523096,-25.2631872],[-57.5228912,-25.263206],[-57.5220402,-25.2632886],[-57.5217687,-25.2633198],[-57.5216892,-25.263356],[-57.5210133,-25.2632687],[-57.520627,-25.2631522]]},"properties":{"boundary":"protected_area","name":"Campo Grande","osm_id":219822929,"osm_type":"way"}},{"type":"Feature","geometry":{"type":"LineString","coordinates":[[-57.404691,-25.3133408],[-57.4044308,-25.3130147],[-57.4041143,-25.312725],[-57.4031514,-25.3124073],[-57.4022394,-25.3126207],[-57.4016064,-25.3131832],[-57.4013114,-25.3136124],[-57.4013114,-25.3140755],[-57.4015448,-25.3145241],[-57.4019578,-25.3149193],[-57.402221,-25.3151136],[-57.4025306,-25.3152029],[-57.4031809,-25.315169],[-57.4036806,-25.3150737],[-57.4040243,-25.3149336],[-57.4042503,-25.3147846],[-57.4046829,-25.3142453],[-57.4047889,-25.3138185],[-57.404691,-25.3133408]]},"properties":{"boundary":"protected_area","name":"Monumento Natural Cerro Choror\u00ee","osm_id":605280651,"osm_type":"way"}},{"type":"Feature","geometry":{"type":"LineString","coordinates":[[-57.3981249,-25.3278347],[-57.4009681,-25.3245738],[-57.4013221,-25.3247193],[-57.4021268,-25.323061],[-57.4021,-25.3220281],[-57.4013007,-25.3218293],[-57.4009144,-25.3217517],[-57.400555,-25.321359],[-57.3998094,-25.3214414],[-57.3991227,-25.3218633],[-57.3984575,-25.3225858],[-57.3979211,-25.3231967],[-57.3968589,-25.3225276],[-57.3960865,-25.3237689],[-57.396301,-25.3239047],[-57.3950431,-25.3254006],[-57.3981249,-25.3278347]]},"properties":{"boundary":"protected_area","name":"Monumento Natural Cerro Koi","osm_id":605280682,"osm_type":"way"}},{"type":"Feature","geometry":{"type":"LineString","coordinates":[[-57.4962484,-25.2664791],[-57.4962106,-25.2663478],[-57.495851,-25.2651005],[-57.4955808,-25.2641977],[-57.495093,-25.2643155],[-57.4941935,-25.2645307],[-57.4934669,-25.2647048],[-57.4927635,-25.2648736],[-57.4917685,-25.2651057],[-57.4914064,-25.2638153],[-57.4913855,-25.2637397],[-57.4910807,-25.2625579],[-57.4896536,-25.2627203],[-57.4897819,-25.2632292],[-57.4900064,-25.2641478],[-57.489927,-25.2641664],[-57.4890052,-25.2643826],[-57.4893694,-25.2656774],[-57.4896395,-25.2665679],[-57.4900445,-25.2679574],[-57.4904199,-25.26924],[-57.4914027,-25.2690053],[-57.4920623,-25.2688534],[-57.492352,-25.2687867],[-57.4928016,-25.2686831],[-57.4937873,-25.268447],[-57.4943471,-25.2683129],[-57.4944984,-25.2682766],[-57.4952174,-25.2681044],[-57.4966465,-25.2677683],[-57.4962484,-25.2664791]]},"properties":{"boundary":"protected_area","name":"Centro Hist\u00f3rico de Luque","protection_title":"Zona Urbana Protegida","osm_id":1074984428,"osm_type":"way"}},{"type":"Feature","geometry":{"type":"LineString","coordinates":[[-57.0723403,-25.6069716],[-57.070467,-25.6063191],[-57.0681077,-25.6069526],[-57.0646041,-25.6057862],[-57.0644021,-25.6022122],[-57.0681445,-25.5990002],[-57.0696563,-25.5966351],[-57.0716037,-25.5950852],[-57.0747069,-25.5943102],[-57.0779677,-25.595759],[-57.0776233,-25.5974774],[-57.0793513,-25.5995831],[-57.0798369,-25.6027165],[-57.0799547,-25.6066023],[-57.0787433,-25.6084272],[-57.0778083,-25.6093552],[-57.0744612,-25.6094664],[-57.0732726,-25.6082784],[-57.0723403,-25.6069716]]},"properties":{"boundary":"protected_area","name":"Noche Con. Bosques Embrujados","osm_id":1100731296,"osm_type":"way"}},{"type":"Feature","geometry":{"type":"LineString","coordinates":[[-57.0723403,-25.6069716],[-57.0732726,-25.6082784],[-57.0744612,-25.6094664],[-57.0778083,-25.6093552],[-57.0787433,-25.6084272],[-57.0799547,-25.6066023],[-57.0798369,-25.6027165],[-57.0793513,-25.5995831],[-57.0776233,-25.5974774],[-57.0779677,-25.595759],[-57.0747069,-25.5943102],[-57.0716037,-25.5950852],[-57.0696563,-25.5966351],[-57.0681445,-25.5990002],[-57.0644021,-25.6022122],[-57.0646041,-25.6057862],[-57.0681077,-25.6069526],[-57.070467,-25.6063191],[-57.0723403,-25.6069716]]},"properties":{"osm_id":1100731295,"osm_type":"way"}}]}