{"type":"FeatureCollection","features":[{"type":"Feature","geometry":{"type":"Polygon","coordinates":[[[-57.3293018,-25.2466063],[-57.3292774,-25.2465482],[-57.3292446,-25.24647],[-57.3290789,-25.2465219],[-57.3290301,-25.2466786],[-57.3288074,-25.2469819],[-57.3287404,-25.2470595],[-57.3286546,-25.2471348],[-57.328596,-25.2471745],[-57.3285156,-25.2472036],[-57.3284317,-25.247214],[-57.328362,-25.2472372],[-57.328299,-25.2472809],[-57.3282718,-25.2473168],[-57.3282543,-25.24734],[-57.3284829,-25.2473237],[-57.3288274,-25.2472991],[-57.328959,-25.2472748],[-57.3289899,-25.2471469],[-57.3291454,-25.2468048],[-57.3291647,-25.246682],[-57.3292178,-25.246635],[-57.3292714,-25.2466301],[-57.3293018,-25.2466063]]]},"properties":{"name":"R\u00edo Salado","natural":"water","water":"river","osm_id":164683594}},{"type":"Feature","geometry":{"type":"Polygon","coordinates":[[[-57.4737173,-25.3353507],[-57.4735617,-25.335467],[-57.4735349,-25.3355834],[-57.4735671,-25.3359276],[-57.4736743,-25.336107],[-57.4738567,-25.3363058],[-57.4740177,-25.3363737],[-57.4741571,-25.3363688],[-57.4742537,-25.3362719],[-57.4742698,-25.3360392],[-57.4742483,-25.3358258],[-57.4741893,-25.3356513],[-57.4739318,-25.335404],[-57.4738406,-25.3353701],[-57.4737763,-25.3353507],[-57.4737173,-25.3353507]]]},"properties":{"name":"Laguna Aratiri","natural":"water","water":"lake","osm_id":164807736}},{"type":"Feature","geometry":{"type":"Polygon","coordinates":[[[-57.4181449,-25.858036],[-57.4189131,-25.8578791],[-57.4196041,-25.8575147],[-57.4201727,-25.8570513],[-57.4203873,-25.8566361],[-57.4204624,-25.8561823],[-57.4203551,-25.8557092],[-57.4201577,-25.8553496],[-57.4199259,-25.8551782],[-57.4196684,-25.8551493],[-57.419132,-25.8553134],[-57.4188166,-25.8555524],[-57.4184303,-25.8561316],[-57.4181986,-25.8565782],[-57.4179904,-25.8570102],[-57.4179089,-25.857254],[-57.4178188,-25.8576088],[-57.4178231,-25.8578236],[-57.4178724,-25.8579371],[-57.4179797,-25.8580047],[-57.4181449,-25.858036]]]},"properties":{"name":"Laguna Mocito","natural":"water","water":"lake","osm_id":167190015}},{"type":"Feature","geometry":{"type":"Polygon","coordinates":[[[-57.4325967,-25.8791199],[-57.4316955,-25.8788689],[-57.4305689,-25.8786565],[-57.4296462,-25.878589],[-57.4288523,-25.8784924],[-57.4279361,-25.8783645],[-57.4268782,-25.8783187],[-57.4262345,-25.8782801],[-57.4256337,-25.8782994],[-57.4253719,-25.8782873],[-57.425168,-25.8781715],[-57.4249792,-25.8781932],[-57.4246852,-25.8783066],[-57.4243205,-25.8782584],[-57.4238956,-25.8782125],[-57.4232948,-25.8782511],[-57.4228442,-25.878367],[-57.4221897,-25.8785214],[-57.421546,-25.878589],[-57.4212027,-25.8786083],[-57.4205053,-25.8786565],[-57.4203336,-25.8787434],[-57.4201941,-25.8788206],[-57.4199903,-25.8787917],[-57.4196749,-25.8787217],[-57.4193573,-25.8787048],[-57.4187243,-25.8788979],[-57.4181943,-25.8791078],[-57.4177909,-25.8792164],[-57.417351,-25.879284],[-57.4170399,-25.879255],[-57.4167073,-25.879284],[-57.4164498,-25.8793998],[-57.4162352,-25.8793709],[-57.4159992,-25.8795253],[-57.4157739,-25.8795446],[-57.4153404,-25.879658],[-57.4148683,-25.8797932],[-57.4146581,-25.8797859],[-57.4144006,-25.8797666],[-57.4141817,-25.8798318],[-57.4139714,-25.8798052],[-57.4138105,-25.8796701],[-57.4137568,-25.8794867],[-57.4135852,-25.8792164],[-57.4133277,-25.8790523],[-57.4129844,-25.8790137],[-57.4127119,-25.878992],[-57.4121904,-25.8791199],[-57.4115258,-25.8794577],[-57.410845,-25.8798125],[-57.4107592,-25.8799187],[-57.4107377,-25.8800441],[-57.4106197,-25.8801214],[-57.4104744,-25.8800562],[-57.4101418,-25.8798052],[-57.4098414,-25.8796122],[-57.4096482,-25.8795736],[-57.4094873,-25.8795929],[-57.4092513,-25.8797859],[-57.4093215,-25.8799766],[-57.4094444,-25.8801141],[-57.4094015,-25.8802975],[-57.4092513,-25.8803265],[-57.4092572,-25.8806137],[-57.4094015,-25.8810118],[-57.4095683,-25.8813376],[-57.4096112,-25.8816079],[-57.4095946,-25.8818709],[-57.4096268,-25.8823343],[-57.4097185,-25.8828338],[-57.4097019,-25.8831258],[-57.4095731,-25.8834829],[-57.4093752,-25.8837508],[-57.4091118,-25.8839269],[-57.4088436,-25.8839655],[-57.4082749,-25.8839173],[-57.4078136,-25.8839462],[-57.4072772,-25.8840235],[-57.4069982,-25.8839945],[-57.4066763,-25.8839269],[-57.4062901,-25.8839849],[-57.40606,-25.8841176],[-57.4057274,-25.8842624],[-57.4054162,-25.8843492],[-57.405185,-25.884342],[-57.4050456,-25.8844289],[-57.4048632,-25.884535],[-57.4047022,-25.8845447],[-57.4044877,-25.8846026],[-57.4040692,-25.884786],[-57.403683,-25.8849501],[-57.4033504,-25.8850273],[-57.403131,-25.8851118],[-57.4030344,-25.885218],[-57.4028783,-25.8852879],[-57.4025887,-25.8855292],[-57.4023526,-25.8856354],[-57.4021654,-25.8857585],[-57.4018269,-25.885896],[-57.4015431,-25.8860191],[-57.4013607,-25.8860674],[-57.4010759,-25.8860119],[-57.4011295,-25.886147],[-57.4009579,-25.8862435],[-57.4007492,-25.886299],[-57.4006253,-25.8862918],[-57.4003463,-25.8861953],[-57.4001425,-25.8862339],[-57.3999816,-25.8863014],[-57.399767,-25.8865524],[-57.3995417,-25.8862339],[-57.3992949,-25.8859346],[-57.3990326,-25.8858357],[-57.3987048,-25.8857416],[-57.3982864,-25.8856837],[-57.3979431,-25.8856837],[-57.39775,-25.8855968],[-57.3975354,-25.8856258],[-57.3972886,-25.8856837],[-57.3971921,-25.8856354],[-57.396801,-25.8857392],[-57.3964518,-25.8857802],[-57.3962586,-25.8858478],[-57.3959582,-25.8859829],[-57.3955613,-25.8862725],[-57.3953038,-25.8864752],[-57.3949712,-25.8866393],[-57.3945742,-25.8867744],[-57.3942845,-25.8868227],[-57.3940485,-25.8868999],[-57.3937481,-25.8870543],[-57.3934643,-25.8871774],[-57.3932331,-25.8872184],[-57.3930507,-25.8872184],[-57.3929005,-25.8871605],[-57.3927396,-25.8871991],[-57.3925416,-25.8873029],[-57.3922353,-25.8873246],[-57.3919135,-25.8873053],[-57.391656,-25.8871894],[-57.3916131,-25.887257],[-57.3917418,-25.8873632],[-57.3917584,-25.8874863],[-57.3915916,-25.8877203],[-57.3914092,-25.8878941],[-57.3911303,-25.8881354],[-57.3909693,-25.8882608],[-57.3909752,-25.8883839],[-57.3908787,-25.8885576],[-57.390744,-25.8884732],[-57.3908513,-25.8887145],[-57.3908191,-25.8889654],[-57.3906963,-25.8892333],[-57.3905724,-25.8894674],[-57.3904865,-25.8895542],[-57.3905911,-25.8897352],[-57.3904222,-25.8898148],[-57.3904114,-25.8899693],[-57.39039,-25.8901526],[-57.3903685,-25.8902974],[-57.3902671,-25.8904301],[-57.389993,-25.8905387],[-57.3900525,-25.8906425],[-57.3899882,-25.8907487],[-57.3898535,-25.8908186],[-57.3897033,-25.8908765],[-57.3898487,-25.890961],[-57.3899667,-25.8910865],[-57.3899023,-25.8912506],[-57.3898964,-25.8913881],[-57.3898964,-25.8915715],[-57.3899131,-25.8917718],[-57.389875,-25.8920251],[-57.3897784,-25.8921989],[-57.3896497,-25.8923919],[-57.3895805,-25.8925536],[-57.3896341,-25.8926308],[-57.3895317,-25.892749],[-57.3893922,-25.8928166],[-57.3892527,-25.8928938],[-57.3892157,-25.8930072],[-57.389323,-25.8931327],[-57.3894839,-25.8932099],[-57.3896127,-25.8932002],[-57.3897355,-25.893164],[-57.3898535,-25.8931833],[-57.3898809,-25.8932774],[-57.3899238,-25.8934319],[-57.3900311,-25.8935187],[-57.3899989,-25.8936732],[-57.3898702,-25.8938179],[-57.3897677,-25.8939844],[-57.3897414,-25.8941075],[-57.3896068,-25.8942161],[-57.3894566,-25.8942354],[-57.3892479,-25.8943295],[-57.3895054,-25.8943488],[-57.389559,-25.8945032],[-57.3896068,-25.8947662],[-57.3895639,-25.8950172],[-57.3897092,-25.8945708],[-57.3898058,-25.8943391],[-57.3899131,-25.8941847],[-57.3900847,-25.8941365],[-57.3902076,-25.8941292],[-57.3901062,-25.8940206],[-57.3902349,-25.893789],[-57.3903315,-25.8935091],[-57.3902993,-25.8932678],[-57.3902886,-25.8930555],[-57.3904173,-25.8928817],[-57.390353,-25.8926308],[-57.3903315,-25.8923509],[-57.390353,-25.8919938],[-57.390353,-25.8917621],[-57.3904281,-25.8914919],[-57.3905568,-25.8912892],[-57.3905139,-25.8911347],[-57.3905997,-25.8908259],[-57.3906641,-25.8907197],[-57.3907714,-25.8904977],[-57.3909538,-25.8904398],[-57.3911088,-25.8904615],[-57.3913663,-25.8906546],[-57.3914473,-25.8905749],[-57.3911469,-25.8903336],[-57.3911147,-25.8901695],[-57.3912649,-25.8899475],[-57.3914044,-25.8896773],[-57.3916511,-25.889185],[-57.3917906,-25.8888569],[-57.3920052,-25.8884032],[-57.3922198,-25.8881523],[-57.39237,-25.8879882],[-57.3926645,-25.8879616],[-57.3930137,-25.8878723],[-57.3932927,-25.8877951],[-57.3935335,-25.8877493],[-57.3938291,-25.8876986],[-57.3941558,-25.8876334],[-57.3945742,-25.8875852],[-57.3949605,-25.8875659],[-57.3954813,-25.8876696],[-57.3960977,-25.8878168],[-57.3965269,-25.8879713],[-57.3970799,-25.8882874],[-57.397589,-25.8886373],[-57.398303,-25.8890692],[-57.3987155,-25.8893322],[-57.3989945,-25.8894963],[-57.3996763,-25.8897738],[-57.4004214,-25.8901333],[-57.4007921,-25.8904108],[-57.4009364,-25.8906932],[-57.4010652,-25.8910985],[-57.4011939,-25.8915039],[-57.4012642,-25.8917718],[-57.4014836,-25.8920927],[-57.401747,-25.892457],[-57.4019771,-25.8929034],[-57.4020629,-25.8930193],[-57.4022239,-25.8931351],[-57.402262,-25.8932968],[-57.4024122,-25.8933933],[-57.4025672,-25.8935115],[-57.402616,-25.8937021],[-57.4026482,-25.8938952],[-57.4026316,-25.894081],[-57.4025624,-25.8943102],[-57.4025887,-25.8944863],[-57.4028354,-25.89494],[-57.4028783,-25.8952295],[-57.4028091,-25.895507],[-57.402653,-25.8956445],[-57.4025887,-25.8958665],[-57.4024765,-25.8960475],[-57.4022882,-25.896156],[-57.4021869,-25.8962598],[-57.4021273,-25.8964456],[-57.4019342,-25.8965035],[-57.4018162,-25.8966],[-57.4018055,-25.8966772],[-57.4019127,-25.8968317],[-57.4019937,-25.8970898],[-57.4021439,-25.897196],[-57.4022668,-25.8973046],[-57.402262,-25.8974276],[-57.402299,-25.897652],[-57.4024277,-25.8979416],[-57.4025624,-25.8979971],[-57.4027555,-25.8981708],[-57.4027555,-25.8983638],[-57.4026423,-25.8984917],[-57.4024492,-25.898704],[-57.4026375,-25.8990587],[-57.4028783,-25.8993796],[-57.4031525,-25.8997439],[-57.4032753,-25.9001421],[-57.4034743,-25.9003616],[-57.4035816,-25.9006608],[-57.4035387,-25.9007477],[-57.4033992,-25.9009117],[-57.4034743,-25.9011434],[-57.4035494,-25.9012978],[-57.4036138,-25.9014619],[-57.4037796,-25.9015897],[-57.4038868,-25.901831],[-57.4041336,-25.9019661],[-57.4044077,-25.9021181],[-57.4044936,-25.9020988],[-57.404713,-25.9022267],[-57.4050134,-25.9021977],[-57.4051051,-25.9023498],[-57.4053948,-25.9025235],[-57.405427,-25.9026875],[-57.4055605,-25.9027865],[-57.4055391,-25.9029312],[-57.4057059,-25.9031122],[-57.4058776,-25.9032376],[-57.4061184,-25.9032497],[-57.4062257,-25.9033752],[-57.406097,-25.9035006],[-57.4060278,-25.903643],[-57.4061029,-25.903836],[-57.4062686,-25.9040604],[-57.4064248,-25.9041255],[-57.4065691,-25.9041762],[-57.40673,-25.904321],[-57.4069338,-25.9043596],[-57.4072509,-25.9043668],[-57.4074225,-25.9044826],[-57.4074595,-25.9046201],[-57.4075025,-25.9047166],[-57.4076205,-25.9047649],[-57.4077122,-25.9049169],[-57.4079102,-25.9050641],[-57.4081462,-25.9051413],[-57.4085383,-25.9051968],[-57.4086885,-25.9052933],[-57.4089079,-25.9054211],[-57.4093645,-25.9055635],[-57.4096112,-25.9056504],[-57.4098521,-25.9056335],[-57.4100296,-25.905689],[-57.4100189,-25.9058144],[-57.4100988,-25.9059616],[-57.4102169,-25.9061063],[-57.4103622,-25.9064031],[-57.4104159,-25.9067216],[-57.4104207,-25.9068205],[-57.4106948,-25.9070787],[-57.410845,-25.9072331],[-57.4108606,-25.9074188],[-57.4107699,-25.9075998],[-57.4107855,-25.9079014],[-57.4108499,-25.9081619],[-57.4109786,-25.9083163],[-57.4111717,-25.9084707],[-57.4112527,-25.9086999],[-57.4112683,-25.9089147],[-57.4111825,-25.9090498],[-57.4110274,-25.9092597],[-57.4109738,-25.9095299],[-57.4110966,-25.9097639],[-57.4112683,-25.9099762],[-57.4113922,-25.9100993],[-57.41136,-25.9102537],[-57.4112576,-25.9103815],[-57.4112635,-25.9105818],[-57.4113171,-25.9110932],[-57.4114292,-25.9114527],[-57.4115902,-25.911665],[-57.4116926,-25.9118749],[-57.4117677,-25.9119907],[-57.4119544,-25.9121475],[-57.4119608,-25.9123478],[-57.412154,-25.9124636],[-57.4124114,-25.9124829],[-57.4125831,-25.9124732],[-57.4127591,-25.91263],[-57.4128342,-25.9128038],[-57.4127977,-25.9129557],[-57.4127054,-25.9130836],[-57.4127054,-25.913238],[-57.4124908,-25.9132766],[-57.4123685,-25.9134093],[-57.4124436,-25.913583],[-57.4125295,-25.9137663],[-57.4127054,-25.9139135],[-57.4124801,-25.9141162],[-57.4124758,-25.9143164],[-57.412287,-25.9143864],[-57.4123471,-25.9146638],[-57.4124007,-25.9148279],[-57.4123793,-25.9149823],[-57.4122333,-25.9151005],[-57.4120295,-25.9150619],[-57.4118578,-25.9151101],[-57.4117033,-25.91532],[-57.4116116,-25.9156409],[-57.4116175,-25.9158411],[-57.4115258,-25.9161234],[-57.41136,-25.9163525],[-57.411161,-25.9165769],[-57.4111825,-25.9167313],[-57.4112956,-25.916864],[-57.4114673,-25.9169315],[-57.4116282,-25.9171245],[-57.4117999,-25.9173272],[-57.4119222,-25.9173489],[-57.4121003,-25.9174719],[-57.4122012,-25.9176866],[-57.4123514,-25.9177445],[-57.4124865,-25.9179641],[-57.4126196,-25.9182463],[-57.4128771,-25.9184876],[-57.4130702,-25.9186323],[-57.4129264,-25.9190062],[-57.4130058,-25.9192499],[-57.4130337,-25.9194501],[-57.4131238,-25.9196552],[-57.4130273,-25.9198289],[-57.4131195,-25.9199229],[-57.4132483,-25.9199422],[-57.4133449,-25.9199133],[-57.4133813,-25.920128],[-57.4134457,-25.9204271],[-57.413435,-25.9206877],[-57.4135165,-25.92083],[-57.4135487,-25.9210616],[-57.4136131,-25.9212063],[-57.4136882,-25.9213221],[-57.4138706,-25.9213318],[-57.4140143,-25.9215561],[-57.4141924,-25.9219686],[-57.4143534,-25.9223739],[-57.4145079,-25.9227237],[-57.414525,-25.923088],[-57.4147074,-25.9230687],[-57.4148619,-25.9233027],[-57.4148834,-25.9234088],[-57.4149864,-25.9234643],[-57.4150186,-25.9235801],[-57.415158,-25.923609],[-57.4151688,-25.9237345],[-57.4152481,-25.9238237],[-57.4153447,-25.9238527],[-57.4153941,-25.9240915],[-57.4153619,-25.9243231],[-57.4153662,-25.9245088],[-57.4154949,-25.9245957],[-57.4155486,-25.9248079],[-57.4156129,-25.924943],[-57.4157696,-25.9250371],[-57.4162738,-25.9251336],[-57.4165528,-25.924931],[-57.4165142,-25.9250685],[-57.4164605,-25.9252807],[-57.4165099,-25.925481],[-57.4166279,-25.9255968],[-57.4167073,-25.9257343],[-57.4169283,-25.9258573],[-57.4170356,-25.9259924],[-57.4172501,-25.9259731],[-57.4173939,-25.92585],[-57.4175334,-25.9259755],[-57.4176471,-25.9259055],[-57.4177051,-25.9261299],[-57.4178016,-25.9261878],[-57.4178767,-25.9264],[-57.4180269,-25.9264386],[-57.4181771,-25.9265158],[-57.4183488,-25.9265158],[-57.4185097,-25.9265448],[-57.4185269,-25.9263976],[-57.4186342,-25.9260599],[-57.4188208,-25.9262746],[-57.4191599,-25.9264652],[-57.4195568,-25.9266292],[-57.4196684,-25.9266316],[-57.4200075,-25.9271696],[-57.4195826,-25.9274904],[-57.4194324,-25.927722],[-57.419353,-25.9279608],[-57.4192822,-25.9280307],[-57.419132,-25.9280597],[-57.4189281,-25.9281851],[-57.4187887,-25.9282719],[-57.4184561,-25.9284456],[-57.4182737,-25.9286097],[-57.4179625,-25.9289281],[-57.4178188,-25.9291669],[-57.4177866,-25.9293213],[-57.4178188,-25.9294756],[-57.417748,-25.9296421],[-57.4178295,-25.929794],[-57.4177115,-25.9300546],[-57.4174797,-25.9303175],[-57.4175334,-25.9304912],[-57.4174476,-25.9306648],[-57.4175119,-25.9308385],[-57.4175334,-25.9310701],[-57.4175119,-25.931292],[-57.4175227,-25.9315236],[-57.4176364,-25.9315887],[-57.4176621,-25.9317358],[-57.4177802,-25.9318806],[-57.4179046,-25.9319939],[-57.4179797,-25.9321387],[-57.4178982,-25.9324691],[-57.4179733,-25.9326911],[-57.4181342,-25.9328165],[-57.4182157,-25.9329202],[-57.4183381,-25.9331252],[-57.4184239,-25.9333086],[-57.4183659,-25.9338079],[-57.4182522,-25.9338682],[-57.4178123,-25.9339936],[-57.4179411,-25.9341866],[-57.4180334,-25.9343385],[-57.4180553,-25.9344365],[-57.4179918,-25.9345554],[-57.4179516,-25.9347068],[-57.4179966,-25.9348505],[-57.4184401,-25.9356721],[-57.4184478,-25.9357751],[-57.4184044,-25.9359087],[-57.418381,-25.9362803],[-57.4183659,-25.9366059],[-57.4183659,-25.9369918],[-57.418484,-25.9373295],[-57.4187136,-25.9375345],[-57.4187672,-25.9378818],[-57.4188273,-25.9381592],[-57.4189775,-25.9384004],[-57.4192071,-25.9385765],[-57.4193573,-25.9388467],[-57.4194217,-25.9392229],[-57.4195568,-25.9397897],[-57.4196212,-25.9403686],[-57.4197929,-25.9405423],[-57.4199259,-25.9407377],[-57.4199431,-25.9409861],[-57.4200075,-25.9411501],[-57.42028,-25.941413],[-57.4206877,-25.9418375],[-57.4209301,-25.9419123],[-57.4216382,-25.9420666],[-57.4223506,-25.9421559],[-57.422915,-25.9422307],[-57.4234729,-25.9422499],[-57.4238055,-25.9423368],[-57.4243462,-25.9424067],[-57.4249213,-25.9424236],[-57.425344,-25.9424743],[-57.4255757,-25.9421921],[-57.4259126,-25.9421752],[-57.4262559,-25.9423102],[-57.4268095,-25.9421631],[-57.4273181,-25.9421366],[-57.4278653,-25.9420401],[-57.4285798,-25.941893],[-57.4293308,-25.9416807],[-57.4303865,-25.9413551],[-57.431144,-25.9410633],[-57.4316482,-25.9408221],[-57.4324357,-25.9400237],[-57.43241,-25.9395389],[-57.4324357,-25.9391361],[-57.4325387,-25.9389986],[-57.4324851,-25.9384487],[-57.432543,-25.9378722],[-57.4326675,-25.9374453],[-57.4328649,-25.9370714],[-57.4330537,-25.9368471],[-57.4332726,-25.9366855],[-57.4333649,-25.9364129],[-57.4333112,-25.9358823],[-57.4333262,-25.9354312],[-57.4331932,-25.9350236],[-57.4331503,-25.9345604],[-57.4331653,-25.9340225],[-57.4332511,-25.9337331],[-57.4332898,-25.9334219],[-57.4331396,-25.9328044],[-57.432925,-25.9322255],[-57.4328821,-25.9317141],[-57.4327855,-25.9313089],[-57.4326353,-25.9309712],[-57.4323456,-25.9305756],[-57.4319701,-25.9302958],[-57.4317448,-25.9300642],[-57.4316482,-25.9298037],[-57.4316482,-25.9295046],[-57.4318564,-25.9290824],[-57.4324679,-25.9285614],[-57.432925,-25.928202],[-57.4331932,-25.9278836],[-57.4336374,-25.9275965],[-57.4340837,-25.9274204],[-57.4346244,-25.9273746],[-57.435075,-25.9275097],[-57.4354398,-25.9277606],[-57.4356286,-25.9280766],[-57.4357359,-25.9284046],[-57.43609,-25.9289546],[-57.4363904,-25.9294274],[-57.4365728,-25.9298616],[-57.4368238,-25.9301245],[-57.4368303,-25.9303344],[-57.436841,-25.9306528],[-57.4370556,-25.9311642],[-57.4375212,-25.9317455],[-57.4380362,-25.9322472],[-57.4384761,-25.9327682],[-57.4391692,-25.9332965],[-57.4400167,-25.9339815],[-57.4405682,-25.9346497],[-57.4409287,-25.9350429],[-57.4417226,-25.9357086],[-57.4424736,-25.936355],[-57.4429028,-25.9367988],[-57.443583,-25.9372065],[-57.443965,-25.9375418],[-57.4441193,-25.9377252],[-57.4442267,-25.9378529],[-57.4446344,-25.9384897],[-57.4449198,-25.9390565],[-57.4452245,-25.9395992],[-57.4452417,-25.9399924],[-57.4453533,-25.9403131],[-57.4456,-25.9406219],[-57.4457889,-25.9408993],[-57.4459648,-25.9412104],[-57.4460399,-25.9414709],[-57.445982,-25.9416614],[-57.4460463,-25.9419026],[-57.4462438,-25.9420401],[-57.4464047,-25.9420594],[-57.4465506,-25.9421631],[-57.4467158,-25.9423681],[-57.4467866,-25.9425587],[-57.4468446,-25.9428891],[-57.4468973,-25.9435761],[-57.4470291,-25.943933],[-57.4470443,-25.9439857],[-57.4470689,-25.9440325],[-57.4470986,-25.9440837],[-57.4471656,-25.9441231],[-57.4472409,-25.9441525],[-57.4474347,-25.9442012],[-57.4474587,-25.9442074],[-57.4474817,-25.9442156],[-57.4475029,-25.9442243],[-57.447524,-25.9442363],[-57.4475392,-25.9442503],[-57.4475521,-25.9442643],[-57.4475657,-25.9442791],[-57.4475741,-25.9442977],[-57.4475764,-25.9443162],[-57.4475754,-25.9443346],[-57.4475742,-25.9443548],[-57.4475698,-25.9443753],[-57.4475244,-25.9444785],[-57.4471693,-25.9447729],[-57.4470119,-25.9450188],[-57.4469948,-25.9452045],[-57.447027,-25.9454168],[-57.4469798,-25.945617],[-57.446866,-25.945822],[-57.4467115,-25.9460704],[-57.4465828,-25.9463984],[-57.446512,-25.9467771],[-57.4463897,-25.9470351],[-57.4460936,-25.947327],[-57.4455464,-25.9476743],[-57.4450314,-25.9479444],[-57.4445593,-25.9481277],[-57.4443018,-25.9482628],[-57.4438727,-25.9482049],[-57.443171,-25.9481156],[-57.4427998,-25.948118],[-57.4423814,-25.9482145],[-57.4420338,-25.9483086],[-57.4417763,-25.9484629],[-57.4415982,-25.948803],[-57.4415402,-25.9491189],[-57.4415831,-25.9493987],[-57.4417269,-25.9498835],[-57.4418085,-25.9503538],[-57.4417055,-25.9507614],[-57.4415188,-25.9512413],[-57.4411969,-25.9520613],[-57.4410252,-25.9523893],[-57.4407463,-25.9527462],[-57.440418,-25.9530188],[-57.4401498,-25.9532696],[-57.4399137,-25.9536265],[-57.4398022,-25.9539714],[-57.4398236,-25.9545116],[-57.4399309,-25.9548203],[-57.4399846,-25.955129],[-57.4399567,-25.9554594],[-57.4400382,-25.9559682],[-57.4400854,-25.9565302],[-57.440182,-25.9569353],[-57.4402785,-25.9572344],[-57.4403429,-25.9575334],[-57.4406648,-25.9580254],[-57.4411755,-25.9583799],[-57.4418085,-25.9589201],[-57.4423277,-25.9595206],[-57.4425852,-25.9598678],[-57.442817,-25.9602513],[-57.4429285,-25.9603984],[-57.4430895,-25.960437],[-57.4433362,-25.9604755],[-57.4437075,-25.9606082],[-57.4441302,-25.9607939],[-57.4444199,-25.9607939],[-57.4447739,-25.9609386],[-57.4449735,-25.9610519],[-57.4451988,-25.9610809],[-57.4453275,-25.961187],[-57.4455142,-25.9612858],[-57.445761,-25.9613148],[-57.4459069,-25.9613317],[-57.4460893,-25.9615053],[-57.4463189,-25.9616813],[-57.4465442,-25.9618935],[-57.446615,-25.9619587],[-57.4466085,-25.9621347],[-57.4466793,-25.9622866],[-57.4467695,-25.962453],[-57.4467158,-25.9625881],[-57.4468617,-25.9626725],[-57.4469905,-25.96274],[-57.4471085,-25.962904],[-57.4471128,-25.9630414],[-57.4472094,-25.9632151],[-57.4474561,-25.9631572],[-57.4475484,-25.9632898],[-57.4476664,-25.9634731],[-57.4477844,-25.9636949],[-57.4479282,-25.9638806],[-57.4480998,-25.9639964],[-57.4480097,-25.9637914],[-57.4479024,-25.9636564],[-57.4479496,-25.9634851],[-57.4480205,-25.9632898],[-57.4481063,-25.9629329],[-57.4481428,-25.9626363],[-57.4482071,-25.9624144],[-57.44825,-25.962125],[-57.4483144,-25.9619032],[-57.4484603,-25.9615342],[-57.4483745,-25.9613509],[-57.4483316,-25.9611387],[-57.4481492,-25.9607915],[-57.4480526,-25.9604731],[-57.4479132,-25.9603574],[-57.4478638,-25.9599739],[-57.4477737,-25.9598654],[-57.4476664,-25.9595182],[-57.4475269,-25.9592673],[-57.4473767,-25.9590069],[-57.4472802,-25.9587657],[-57.447087,-25.958621],[-57.4468725,-25.9585149],[-57.4467008,-25.9583124],[-57.4465077,-25.9580712],[-57.4461,-25.9577432],[-57.4455957,-25.9574152],[-57.4451451,-25.9571065],[-57.4446945,-25.9568461],[-57.444555,-25.956711],[-57.4445486,-25.9565398],[-57.4446301,-25.9564216],[-57.4448275,-25.9563662],[-57.4450486,-25.9563638],[-57.4453275,-25.9564892],[-57.4458575,-25.9567134],[-57.446336,-25.9567786],[-57.4467587,-25.9568099],[-57.446984,-25.9569257],[-57.4474561,-25.95708],[-57.4479883,-25.9572416],[-57.4484217,-25.9573405],[-57.4488573,-25.9575213],[-57.4492371,-25.9576974],[-57.4495268,-25.9577167],[-57.4497907,-25.9576853],[-57.4502027,-25.9576974],[-57.4505782,-25.9577842],[-57.4508099,-25.9577529],[-57.4510245,-25.957695],[-57.4512498,-25.9576853],[-57.451576,-25.9576395],[-57.4518227,-25.957707],[-57.4521017,-25.9577456],[-57.4524836,-25.9576853],[-57.4528956,-25.9576395],[-57.4532239,-25.9575117],[-57.4534857,-25.957408],[-57.4538183,-25.9572537],[-57.4541788,-25.9572609],[-57.454608,-25.9572127],[-57.4548762,-25.9570776],[-57.4554706,-25.9569546],[-57.4560177,-25.9567617],[-57.4565971,-25.9565398],[-57.4569576,-25.9563831],[-57.457376,-25.9562866],[-57.4579124,-25.9561129],[-57.4587536,-25.955826],[-57.459511,-25.9555052],[-57.4604337,-25.9551483],[-57.4611998,-25.9548227],[-57.4624765,-25.9541281],[-57.4639571,-25.9532792],[-57.4651265,-25.9526425],[-57.4665706,-25.9518008],[-57.4674976,-25.9511183],[-57.468019,-25.9505371],[-57.4684203,-25.9500861],[-57.469285,-25.9492058],[-57.4703944,-25.9480505],[-57.4709093,-25.9475006],[-57.4712806,-25.9469194],[-57.4715102,-25.9463815],[-57.4716561,-25.9461862],[-57.4718857,-25.9460149],[-57.4721324,-25.9458027],[-57.4723749,-25.9452986],[-57.4728148,-25.9443531],[-57.4729543,-25.9438225],[-57.4729478,-25.943304],[-57.4728191,-25.942619],[-57.4722569,-25.9418737],[-57.4719994,-25.9417193],[-57.4719286,-25.9414323],[-57.4716453,-25.9410729],[-57.4713986,-25.940851],[-57.4711733,-25.9408607],[-57.4709158,-25.9409378],[-57.4706154,-25.9409571],[-57.4703793,-25.9408028],[-57.4703407,-25.940535],[-57.470448,-25.9400623],[-57.470727,-25.9395413],[-57.4709523,-25.9390493],[-57.471081,-25.9387791],[-57.4714522,-25.9386802],[-57.4719071,-25.9384607],[-57.4721432,-25.9384028],[-57.4723899,-25.9382099],[-57.4723577,-25.9380748],[-57.4723964,-25.937918],[-57.4725187,-25.9377757],[-57.4724758,-25.9374091],[-57.4723685,-25.9370811],[-57.4722075,-25.9366565],[-57.471993,-25.9362803],[-57.471699,-25.9359402],[-57.4715059,-25.9357375],[-57.471478,-25.9355373],[-57.4714887,-25.9353444],[-57.4714672,-25.9350163],[-57.4713278,-25.9346883],[-57.4711304,-25.9344543],[-57.4709372,-25.9343482],[-57.4707227,-25.9343482],[-57.4705188,-25.9344833],[-57.4702399,-25.9347052],[-57.4700682,-25.9348017],[-57.469918,-25.9347341],[-57.4696498,-25.9346762],[-57.4693708,-25.9346859],[-57.4691455,-25.9347148],[-57.4689095,-25.934628],[-57.4686735,-25.9345701],[-57.4684267,-25.9346569],[-57.4681907,-25.9347052],[-57.468019,-25.9346473],[-57.4677722,-25.9347148],[-57.4675469,-25.9347052],[-57.4670963,-25.9345315],[-57.4663346,-25.9343868],[-57.4657767,-25.9341552],[-57.4652295,-25.9339622],[-57.4647896,-25.9338175],[-57.4644999,-25.9337789],[-57.4640279,-25.9336245],[-57.463588,-25.9334991],[-57.463309,-25.9334895],[-57.4629013,-25.933393],[-57.4622683,-25.9332579],[-57.4615281,-25.9330456],[-57.4608307,-25.9328334],[-57.4599509,-25.9325343],[-57.4594359,-25.9324667],[-57.4590497,-25.9325922],[-57.4586527,-25.9326018],[-57.4581592,-25.9325246],[-57.4575798,-25.9324764],[-57.457097,-25.9325729],[-57.4566464,-25.9327272],[-57.4563782,-25.933007],[-57.4560242,-25.933229],[-57.4557345,-25.933393],[-57.4556916,-25.9335474],[-57.4556594,-25.93375],[-57.4555736,-25.9338754],[-57.4553697,-25.9339719],[-57.4551015,-25.9340008],[-57.4546831,-25.9339236],[-57.4545758,-25.933721],[-57.4543505,-25.9335088],[-57.4541252,-25.9334605],[-57.4541294,-25.9331928],[-57.4540286,-25.9329684],[-57.4540543,-25.9327779],[-57.4537818,-25.9326211],[-57.4534278,-25.9325246],[-57.4532561,-25.9323992],[-57.4530415,-25.9322545],[-57.4526338,-25.9320904],[-57.4522583,-25.9320036],[-57.4517755,-25.9316176],[-57.4511211,-25.9309133],[-57.4506061,-25.9305081],[-57.450413,-25.9302282],[-57.4501018,-25.9296011],[-57.4498658,-25.9290704],[-57.449795,-25.9286965],[-57.4498658,-25.9282985],[-57.4498379,-25.9280211],[-57.449662,-25.9277292],[-57.4497843,-25.9274132],[-57.4496834,-25.9271792],[-57.4497306,-25.9268728],[-57.4496984,-25.9266027],[-57.4498057,-25.9260044],[-57.4498165,-25.9256378],[-57.4498916,-25.9253483],[-57.4500911,-25.9249889],[-57.4505954,-25.9246608],[-57.4513142,-25.9243134],[-57.4516725,-25.9239878],[-57.451812,-25.9236693],[-57.4519687,-25.9233485],[-57.4520481,-25.9231],[-57.4521403,-25.9228371],[-57.4522626,-25.9226851],[-57.4524085,-25.9226634],[-57.4526231,-25.9225186],[-57.4527347,-25.9223088],[-57.4527776,-25.9220482],[-57.4526338,-25.9217756],[-57.4525738,-25.9215851],[-57.4526167,-25.9213728],[-57.4527454,-25.9210447],[-57.4530458,-25.9207359],[-57.4533741,-25.9204633],[-57.4535243,-25.9202028],[-57.4536638,-25.9198264],[-57.4538355,-25.919701],[-57.4540007,-25.9197034],[-57.4541788,-25.9197492],[-57.4545436,-25.9196238],[-57.4548547,-25.9192861],[-57.4549234,-25.9190376],[-57.4549019,-25.918806],[-57.4550049,-25.9185816],[-57.4551337,-25.9184176],[-57.4551594,-25.9181691],[-57.4550199,-25.9178603],[-57.4548118,-25.9176939],[-57.4547517,-25.9174261],[-57.4547088,-25.9172331],[-57.4546981,-25.9168857],[-57.4545479,-25.9165769],[-57.4543505,-25.9163429],[-57.4543548,-25.9161716],[-57.4547689,-25.9159569],[-57.4549513,-25.9156867],[-57.4550092,-25.915361],[-57.4550092,-25.9150619],[-57.4548333,-25.9148182],[-57.4547732,-25.9145022],[-57.4547517,-25.9141741],[-57.4546294,-25.9139401],[-57.4543183,-25.9137374],[-57.4540715,-25.9136119],[-57.453814,-25.9134865],[-57.4534385,-25.9131391],[-57.4531917,-25.9129943],[-57.4529557,-25.9129847],[-57.4526231,-25.9131294],[-57.4523334,-25.9131873],[-57.4521296,-25.9131005],[-57.4514,-25.9126759],[-57.4504237,-25.9123188],[-57.4499087,-25.91201],[-57.4496083,-25.9118653],[-57.4492865,-25.9116819],[-57.4487822,-25.9114889],[-57.4484603,-25.9113635],[-57.4481063,-25.9113442],[-57.4476771,-25.9113924],[-57.4474196,-25.9114986],[-57.4469261,-25.9114696],[-57.4464433,-25.9114214],[-57.4459391,-25.9113924],[-57.4456708,-25.911431],[-57.4454241,-25.9116144],[-57.4453704,-25.9118942],[-57.4453704,-25.9121741],[-57.4454026,-25.9124153],[-57.4453061,-25.9128013],[-57.445231,-25.9130233],[-57.4449735,-25.9133514],[-57.4446838,-25.9135154],[-57.4444156,-25.9134865],[-57.4441688,-25.9133514],[-57.4438577,-25.9130233],[-57.443568,-25.9125118],[-57.443465,-25.9121282],[-57.4434972,-25.9117229],[-57.4436152,-25.9113273],[-57.4436259,-25.9110185],[-57.4435251,-25.9107651],[-57.4435723,-25.9104684],[-57.4437718,-25.9103019],[-57.444083,-25.9102344],[-57.444209,-25.9102708],[-57.4443834,-25.9103212],[-57.4445293,-25.9103946],[-57.4446988,-25.9104008],[-57.4449735,-25.9102537],[-57.4451709,-25.9100148],[-57.4452631,-25.909665],[-57.4453382,-25.909279],[-57.4453211,-25.9088664],[-57.4454348,-25.9087482],[-57.4454605,-25.9084611],[-57.4453533,-25.9081426],[-57.4454498,-25.9078628],[-57.445482,-25.9075636],[-57.4454069,-25.9071872],[-57.4452245,-25.9066757],[-57.4451022,-25.9064514],[-57.445085,-25.9062897],[-57.4452202,-25.906046],[-57.4452417,-25.9055731],[-57.4451022,-25.9052933],[-57.4448554,-25.9049844],[-57.4445014,-25.9047046],[-57.4442975,-25.9045888],[-57.4440615,-25.9045598],[-57.4443126,-25.904321],[-57.444452,-25.9041376],[-57.4446988,-25.9041955],[-57.4450486,-25.9040194],[-57.4453962,-25.9035489],[-57.4456065,-25.9030736],[-57.4458897,-25.9023522],[-57.4458961,-25.9019927],[-57.4458468,-25.9015125],[-57.4457288,-25.9011844],[-57.4456322,-25.9009045],[-57.4456322,-25.9005667],[-57.4457352,-25.9002169],[-57.4457717,-25.8998815],[-57.4455357,-25.8994279],[-57.4452631,-25.8990684],[-57.4448984,-25.8987981],[-57.4442439,-25.8984893],[-57.4434607,-25.8982673],[-57.442656,-25.8980453],[-57.4425058,-25.898055],[-57.4422376,-25.8981901],[-57.4420552,-25.898441],[-57.4419157,-25.8986341],[-57.4417334,-25.8987885],[-57.4414222,-25.8988078],[-57.4410789,-25.8987016],[-57.4407678,-25.8985568],[-57.4404566,-25.8982094],[-57.4401777,-25.8978137],[-57.4401069,-25.8973432],[-57.4401283,-25.8969668],[-57.4402528,-25.8968003],[-57.4404073,-25.8968124],[-57.4405425,-25.8969161],[-57.4407141,-25.8970319],[-57.4409716,-25.896974],[-57.4415874,-25.8966193],[-57.4420659,-25.8961054],[-57.4423127,-25.8955552],[-57.4425101,-25.8953067],[-57.4426882,-25.8952464],[-57.4428706,-25.8951981],[-57.4430423,-25.8949954],[-57.4431925,-25.8947349],[-57.4432397,-25.8943512],[-57.4432182,-25.8935791],[-57.4429822,-25.8931737],[-57.4426989,-25.892901],[-57.4424307,-25.8927756],[-57.442184,-25.8927563],[-57.4420338,-25.8928528],[-57.4417977,-25.8930168],[-57.4416583,-25.8929975],[-57.4415724,-25.8928817],[-57.4415767,-25.8927587],[-57.4416475,-25.8926404],[-57.4416797,-25.8924763],[-57.4416089,-25.8923147],[-57.4414437,-25.8922833],[-57.4414759,-25.8920517],[-57.4413943,-25.8918224],[-57.4412184,-25.8917139],[-57.4410682,-25.8917042],[-57.4410188,-25.8914943],[-57.4409287,-25.8913471],[-57.4407678,-25.8913181],[-57.4406068,-25.8913374],[-57.4405789,-25.8911661],[-57.4404244,-25.8912313],[-57.4403171,-25.8911154],[-57.4402099,-25.8909803],[-57.4401498,-25.8908379],[-57.4402249,-25.8906642],[-57.4400704,-25.8906714],[-57.4401348,-25.8903915],[-57.4399095,-25.8901502],[-57.4398279,-25.8899113],[-57.4397957,-25.8896604],[-57.4396455,-25.8893901],[-57.4392872,-25.8890499],[-57.4387829,-25.8887314],[-57.4385362,-25.8886252],[-57.4384224,-25.8883188],[-57.438519,-25.8881161],[-57.4385834,-25.8878941],[-57.438519,-25.8877879],[-57.4383752,-25.8877758],[-57.4382036,-25.8876117],[-57.4381649,-25.8873825],[-57.4380534,-25.8871098],[-57.4378602,-25.8868975],[-57.4377251,-25.8866586],[-57.4373023,-25.8863376],[-57.436959,-25.8857971],[-57.4367444,-25.8855461],[-57.436444,-25.8853917],[-57.4361544,-25.8850732],[-57.4359076,-25.8848512],[-57.4357724,-25.8843903],[-57.4356973,-25.88412],[-57.4354784,-25.8839245],[-57.4352102,-25.8837894],[-57.4349313,-25.8836446],[-57.434839,-25.8834347],[-57.4349999,-25.8832223],[-57.4351394,-25.8829906],[-57.4351394,-25.8828265],[-57.4353175,-25.8825925],[-57.4355364,-25.8824211],[-57.4356716,-25.8821774],[-57.435708,-25.8820061],[-57.4356651,-25.8818227],[-57.4356544,-25.8815524],[-57.4356007,-25.8812532],[-57.4354505,-25.880896],[-57.4352682,-25.8805099],[-57.434957,-25.8802975],[-57.4346244,-25.8801141],[-57.4345128,-25.8801503],[-57.4341094,-25.8799018],[-57.4338477,-25.8798028],[-57.4334979,-25.8795929],[-57.4333005,-25.8794939],[-57.433161,-25.8793684],[-57.433043,-25.8793684],[-57.4328327,-25.8791971],[-57.4325967,-25.8791199]]]},"properties":{"name":"Lago Ypo\u00e1","natural":"water","osm_id":167190016}},{"type":"Feature","geometry":{"type":"Polygon","coordinates":[[[-57.5010517,-26.0264583],[-57.5027047,-26.0257776],[-57.503473,-26.0255462],[-57.5043408,-26.0256685],[-57.5048631,-26.0259154],[-57.5051012,-26.0261579],[-57.5051511,-26.0266361],[-57.5051531,-26.0272477],[-57.5053148,-26.0278766],[-57.5058447,-26.0284186],[-57.506363,-26.0286276],[-57.5066199,-26.0286536],[-57.5068884,-26.0284933],[-57.5069532,-26.0282556],[-57.5068985,-26.0279871],[-57.5068122,-26.027719],[-57.5068593,-26.0275489],[-57.5070093,-26.027349],[-57.5068886,-26.0271249],[-57.5065979,-26.0267852],[-57.5062799,-26.0264705],[-57.5063857,-26.026251],[-57.5063004,-26.0261206],[-57.5061887,-26.0260451],[-57.5060539,-26.0261351],[-57.5059115,-26.0262123],[-57.5058057,-26.0261163],[-57.5057575,-26.025948],[-57.5057303,-26.0256824],[-57.505546,-26.0256423],[-57.5050235,-26.0254919],[-57.5047531,-26.0255316],[-57.5045577,-26.0253421],[-57.5044704,-26.0250858],[-57.5045534,-26.024792],[-57.5043762,-26.0246866],[-57.5040377,-26.0248501],[-57.5037577,-26.0247147],[-57.5033598,-26.0245002],[-57.5032779,-26.0242576],[-57.5025383,-26.024207],[-57.5020322,-26.0240965],[-57.5006809,-26.0243787],[-57.5002816,-26.0243025],[-57.4999899,-26.0241196],[-57.4997626,-26.0241935],[-57.4997212,-26.0244333],[-57.4992525,-26.0247494],[-57.4990061,-26.024616],[-57.4982531,-26.0245344],[-57.4980067,-26.024639],[-57.4975969,-26.0250159],[-57.4968464,-26.0253973],[-57.4958951,-26.0257425],[-57.4958188,-26.0259843],[-57.4954821,-26.0262195],[-57.4951014,-26.0261175],[-57.4945479,-26.0257878],[-57.4932969,-26.0255914],[-57.4919729,-26.0256335],[-57.4912743,-26.0256871],[-57.4901996,-26.0259519],[-57.4891018,-26.0268582],[-57.488614,-26.0274477],[-57.4882414,-26.0282855],[-57.4881509,-26.0288336],[-57.4882676,-26.0292989],[-57.488331,-26.0296751],[-57.4886246,-26.0299478],[-57.4890954,-26.0307449],[-57.4892207,-26.0313351],[-57.4892411,-26.0323707],[-57.4895038,-26.0358346],[-57.4897791,-26.0375519],[-57.4900088,-26.0387986],[-57.4899162,-26.0394658],[-57.4897534,-26.0398631],[-57.4895915,-26.0404342],[-57.4893493,-26.0406577],[-57.4886179,-26.0409246],[-57.4879671,-26.0411294],[-57.4864189,-26.0418506],[-57.4859015,-26.0423266],[-57.4857391,-26.0429395],[-57.4853049,-26.0436016],[-57.4850235,-26.0437212],[-57.4845496,-26.0437062],[-57.4835622,-26.0442331],[-57.4832397,-26.0443043],[-57.4828431,-26.0441957],[-57.4823822,-26.044039],[-57.4817612,-26.0440276],[-57.4811083,-26.0442238],[-57.4801292,-26.0448409],[-57.4798323,-26.0452072],[-57.4798122,-26.0456306],[-57.4800917,-26.0468231],[-57.4808149,-26.0481525],[-57.4809488,-26.0485723],[-57.481211,-26.0489345],[-57.4811471,-26.0493225],[-57.4822787,-26.0517262],[-57.4837419,-26.0546298],[-57.4849066,-26.0565426],[-57.4859001,-26.0574366],[-57.4871122,-26.0589154],[-57.487761,-26.059453],[-57.4885169,-26.0598175],[-57.4892638,-26.0599707],[-57.4899893,-26.0599893],[-57.490759,-26.0598489],[-57.4916571,-26.0594779],[-57.4926621,-26.0587946],[-57.4929182,-26.0584572],[-57.4934972,-26.058123],[-57.4942794,-26.0572794],[-57.4947582,-26.0562807],[-57.4947234,-26.0559548],[-57.494924,-26.0557154],[-57.494928,-26.0552305],[-57.4947502,-26.0546687],[-57.494207,-26.053907],[-57.4936466,-26.05343],[-57.4922195,-26.0527127],[-57.4903991,-26.0520712],[-57.4886972,-26.0516927],[-57.4872413,-26.0511221],[-57.4863062,-26.0505528],[-57.4861888,-26.0503424],[-57.4862853,-26.0500166],[-57.486478,-26.0497239],[-57.4864995,-26.0491429],[-57.4863017,-26.0487589],[-57.4862644,-26.048],[-57.48634,-26.0469196],[-57.4864798,-26.0458391],[-57.486567,-26.0453669],[-57.4868683,-26.0450678],[-57.4872765,-26.044807],[-57.4877802,-26.0447728],[-57.488883,-26.0441426],[-57.4899886,-26.0437876],[-57.4907625,-26.0433581],[-57.4921446,-26.0429088],[-57.4931057,-26.0429116],[-57.4938742,-26.0429837],[-57.4949875,-26.0432662],[-57.4958185,-26.0434487],[-57.4966682,-26.0433029],[-57.4973934,-26.0433933],[-57.4978422,-26.0432768],[-57.4983022,-26.0430231],[-57.4984852,-26.0427847],[-57.4987568,-26.042576],[-57.4992242,-26.0424996],[-57.4996686,-26.0420714],[-57.5001198,-26.0414633],[-57.5002393,-26.0409715],[-57.5001788,-26.0403188],[-57.5000377,-26.0396764],[-57.4999902,-26.0391276],[-57.4995857,-26.0382374],[-57.4994247,-26.0375906],[-57.4984576,-26.0364264],[-57.4975239,-26.0351319],[-57.496802,-26.0340623],[-57.4963704,-26.0331312],[-57.4963432,-26.0323385],[-57.4969046,-26.0310432],[-57.4971772,-26.0295576],[-57.4976479,-26.0289176],[-57.4994281,-26.0274643],[-57.5010517,-26.0264583]]]},"properties":{"name":"Lago Paranami","natural":"water","water":"lake","osm_id":167222832}},{"type":"Feature","geometry":{"type":"Polygon","coordinates":[[[-56.628503,-25.8434662],[-56.6283039,-25.8435073],[-56.6281596,-25.8435145],[-56.628224,-25.8437269],[-56.628224,-25.8439587],[-56.6282026,-25.8443739],[-56.6282562,-25.8446635],[-56.6284171,-25.845127],[-56.6285244,-25.8454263],[-56.6286746,-25.8456967],[-56.6287926,-25.8459864],[-56.6288034,-25.8461215],[-56.6287712,-25.8462567],[-56.6286194,-25.8463538],[-56.6282455,-25.8463822],[-56.6278914,-25.8464305],[-56.6275374,-25.8465174],[-56.6270868,-25.8467298],[-56.626774,-25.8470103],[-56.6265396,-25.8473285],[-56.6262928,-25.8477726],[-56.6262177,-25.8480333],[-56.6262928,-25.848072],[-56.626281,-25.8482173],[-56.6261641,-25.8482361],[-56.6261104,-25.8485837],[-56.6260673,-25.8487575],[-56.626089,-25.8490182],[-56.6261641,-25.8493851],[-56.626325,-25.8497713],[-56.6263985,-25.8502835],[-56.626538,-25.850969],[-56.626604,-25.8515382],[-56.6265825,-25.8520886],[-56.6265074,-25.8526582],[-56.6263465,-25.8531699],[-56.626141,-25.8535759],[-56.6258422,-25.8539616],[-56.6254007,-25.8543869],[-56.6251663,-25.8545409],[-56.6247677,-25.8547345],[-56.6243509,-25.8549271],[-56.6240918,-25.8550917],[-56.6238987,-25.8552655],[-56.6237394,-25.855545],[-56.623675,-25.855825],[-56.6237286,-25.8561919],[-56.6238145,-25.8566071],[-56.6239845,-25.8570999],[-56.6241041,-25.8574181],[-56.6243831,-25.8579491],[-56.624662,-25.8584897],[-56.6247264,-25.8586925],[-56.6247371,-25.8589242],[-56.6246835,-25.8591752],[-56.6244995,-25.8593977],[-56.6242758,-25.8595228],[-56.6240398,-25.8595614],[-56.6236213,-25.8595614],[-56.6232657,-25.8594846],[-56.6230205,-25.8594938],[-56.6228043,-25.8595619],[-56.6226343,-25.8596772],[-56.6225377,-25.8598896],[-56.6224734,-25.8602179],[-56.6224412,-25.8606137],[-56.6224519,-25.8608261],[-56.6224626,-25.8609999],[-56.622527,-25.8614633],[-56.6225898,-25.8616376],[-56.6225576,-25.8618017],[-56.6224948,-25.8619557],[-56.6223339,-25.8620908],[-56.6221606,-25.8621975],[-56.6220227,-25.8622163],[-56.6218296,-25.8621777],[-56.6215721,-25.8620619],[-56.621313,-25.8619562],[-56.6211215,-25.8619267],[-56.6209177,-25.861975],[-56.6207246,-25.8621295],[-56.620628,-25.8623419],[-56.620628,-25.8625542],[-56.6206478,-25.8628733],[-56.6205422,-25.8632397],[-56.6204027,-25.8635969],[-56.6201881,-25.8639155],[-56.6199414,-25.8641665],[-56.6197037,-25.8644566],[-56.619598,-25.8646975],[-56.6195766,-25.8649968],[-56.6196286,-25.8652386],[-56.6198217,-25.8658468],[-56.6199934,-25.8664067],[-56.620113,-25.8671206],[-56.6201972,-25.8676328],[-56.6202418,-25.8681246],[-56.6203045,-25.8685595],[-56.620392,-25.8688776],[-56.6205958,-25.8691383],[-56.6212932,-25.8700747],[-56.6219262,-25.8709435],[-56.6225055,-25.8716386],[-56.6232566,-25.8724495],[-56.623675,-25.8729321],[-56.6237538,-25.8730466],[-56.6240934,-25.8735403],[-56.6244046,-25.8740519],[-56.6246299,-25.8744767],[-56.6248743,-25.874348],[-56.6251647,-25.8742165],[-56.6247248,-25.8735408],[-56.6241669,-25.8727492],[-56.623609,-25.8719866],[-56.6229116,-25.8712433],[-56.6224657,-25.8708017],[-56.622107,-25.8703069],[-56.6216564,-25.869718],[-56.6211306,-25.8691001],[-56.6208839,-25.8687719],[-56.6207997,-25.8685687],[-56.620746,-25.8681632],[-56.6205851,-25.8671399],[-56.6204349,-25.8663387],[-56.6202739,-25.8657884],[-56.620113,-25.8654408],[-56.6200594,-25.8652284],[-56.6200578,-25.864949],[-56.6201452,-25.8646878],[-56.6202954,-25.8644851],[-56.6206173,-25.8640796],[-56.6208318,-25.863761],[-56.6209499,-25.8634328],[-56.6210142,-25.862979],[-56.6210341,-25.8626223],[-56.6210893,-25.8624094],[-56.621195,-25.862323],[-56.6213468,-25.8623129],[-56.6215169,-25.8623906],[-56.6219997,-25.8625933],[-56.6223339,-25.8626122],[-56.622645,-25.8624963],[-56.622924,-25.8622163],[-56.6230618,-25.8619755],[-56.6230833,-25.8617631],[-56.6229776,-25.8612799],[-56.6228811,-25.8606716],[-56.6229116,-25.8602666],[-56.6229116,-25.8599867],[-56.6229653,-25.8598708],[-56.6230849,-25.8598414],[-56.6232995,-25.8598414],[-56.6239754,-25.8599089],[-56.6245011,-25.8597834],[-56.6249179,-25.8595522],[-56.6252092,-25.8592428],[-56.6253471,-25.8588571],[-56.6253272,-25.8584415],[-56.6252076,-25.8581716],[-56.6249608,-25.8578047],[-56.6246282,-25.8573317],[-56.6243386,-25.8568489],[-56.62419,-25.8564526],[-56.6241025,-25.8560958],[-56.6241025,-25.8558545],[-56.6241685,-25.855603],[-56.6243402,-25.8554002],[-56.6245869,-25.8552264],[-56.6249179,-25.8551014],[-56.6254115,-25.854918],[-56.6257333,-25.8546959],[-56.6261212,-25.8543382],[-56.6264108,-25.8539906],[-56.6266667,-25.8535276],[-56.6268062,-25.8531511],[-56.6269135,-25.8526877],[-56.6269564,-25.8520311],[-56.6269671,-25.8513166],[-56.6269349,-25.8507663],[-56.6268507,-25.8501961],[-56.6267113,-25.849723],[-56.6266361,-25.8493465],[-56.6265809,-25.8491442],[-56.6266037,-25.8487965],[-56.6266683,-25.8483037],[-56.6267971,-25.8478982],[-56.6270009,-25.8475506],[-56.6273426,-25.8471262],[-56.6277289,-25.8469234],[-56.6280953,-25.8468167],[-56.6284171,-25.8467492],[-56.6288125,-25.8467014],[-56.6291145,-25.846556],[-56.629254,-25.8463726],[-56.6293811,-25.8460737],[-56.6293811,-25.8458227],[-56.6294578,-25.8455615],[-56.6296172,-25.8451854],[-56.6297046,-25.8449339],[-56.6297368,-25.8446346],[-56.629651,-25.8444318],[-56.6295206,-25.8442681],[-56.6294256,-25.8440263],[-56.6293382,-25.843795],[-56.6292862,-25.8436593],[-56.6291773,-25.8435826],[-56.6290931,-25.8436593],[-56.6291682,-25.8438718],[-56.6293398,-25.8445863],[-56.6293935,-25.8449339],[-56.6293935,-25.8450787],[-56.6293184,-25.8452718],[-56.629254,-25.845436],[-56.6291789,-25.8455808],[-56.6291145,-25.8456001],[-56.629018,-25.8454746],[-56.6288232,-25.8451082],[-56.6286746,-25.8447118],[-56.6285872,-25.8442392],[-56.6285657,-25.8437177],[-56.628503,-25.8434662]]]},"properties":{"name":"R\u00edo Tebicuary M\u00ed","natural":"water","water":"river","osm_id":167456626}},{"type":"Feature","geometry":{"type":"Polygon","coordinates":[[[-57.3650564,-25.5076068],[-57.3648848,-25.5073098],[-57.3648432,-25.5072844],[-57.3646777,-25.507256],[-57.3644358,-25.5072374],[-57.3642971,-25.5072226],[-57.3641531,-25.5072352],[-57.3638049,-25.5073456],[-57.3636217,-25.5074528],[-57.3635729,-25.507509],[-57.3635356,-25.5075799],[-57.3633768,-25.5082181],[-57.3633674,-25.5083483],[-57.3636244,-25.5085603],[-57.3637446,-25.5085768],[-57.3640277,-25.508556],[-57.3643255,-25.5084352],[-57.3645243,-25.5083318],[-57.3647018,-25.5082188],[-57.3648545,-25.5080784],[-57.3650275,-25.5078591],[-57.3650623,-25.5076816],[-57.3650564,-25.5076068]]]},"properties":{"name":"Laguna de It\u00e1","natural":"water","water":"lake","osm_id":211182160}},{"type":"Feature","geometry":{"type":"Polygon","coordinates":[[[-57.3061979,-25.3918283],[-57.3062476,-25.3918986],[-57.3062322,-25.391971],[-57.3061953,-25.3920433],[-57.306202,-25.3921034],[-57.3062093,-25.3922086],[-57.3063245,-25.3922928],[-57.3064027,-25.3922959],[-57.3065285,-25.3924878],[-57.3066727,-25.3926344],[-57.3066549,-25.3926695],[-57.3065986,-25.3926864],[-57.306565,-25.3926537],[-57.3065262,-25.3926319],[-57.3064765,-25.3926295],[-57.3064443,-25.3926477],[-57.3063885,-25.3926538],[-57.3063223,-25.3926234],[-57.3062781,-25.3926198],[-57.3062526,-25.392644],[-57.3061372,-25.3925568],[-57.3059736,-25.3924708],[-57.3057749,-25.3924087],[-57.305692,-25.3923957],[-57.3056169,-25.3923702],[-57.3055579,-25.3923521],[-57.3054656,-25.3922796],[-57.3055257,-25.3921558],[-57.3056401,-25.3920448],[-57.305751,-25.3919341],[-57.305847,-25.3918246],[-57.3059937,-25.3917814],[-57.3061493,-25.3917499],[-57.3061979,-25.3918283]]]},"properties":{"name":"Cantera","natural":"water","water":"lake","osm_id":550871417}},{"type":"Feature","geometry":{"type":"Polygon","coordinates":[[[-57.1961969,-25.3873845],[-57.196213,-25.387433],[-57.196205,-25.3875033],[-57.1961648,-25.3875154],[-57.1961031,-25.3874887],[-57.1961031,-25.3874354],[-57.1961165,-25.3873773],[-57.1961621,-25.3873773],[-57.1961969,-25.3873845]]]},"properties":{"name":"Fuente Basilica Caacup\u00e9","natural":"water","water":"pond","osm_id":554580532}},{"type":"Feature","geometry":{"type":"Polygon","coordinates":[[[-57.5298817,-25.2836768],[-57.5298663,-25.2836838],[-57.5298848,-25.2836935],[-57.5298817,-25.2836768]]]},"properties":{"name":"tanque de agua","natural":"water","water":"reservoir","osm_id":702830909}},{"type":"Feature","geometry":{"type":"Polygon","coordinates":[[[-56.7365876,-25.5366356],[-56.7365956,-25.5365811],[-56.7366432,-25.5364753],[-56.736652,-25.5364287],[-56.7366499,-25.5363802],[-56.7366453,-25.5363434],[-56.7366311,-25.5363161],[-56.736595,-25.5362889],[-56.7365474,-25.5362701],[-56.736491,-25.5362629],[-56.7364401,-25.5362871],[-56.7364079,-25.5363306],[-56.7363918,-25.5363815],[-56.73638,-25.536419],[-56.7363703,-25.5364619],[-56.7363686,-25.536517],[-56.736371,-25.5365709],[-56.7363646,-25.5366141],[-56.7363505,-25.5366456],[-56.736319,-25.5366946],[-56.7362939,-25.5367224],[-56.7362395,-25.5367717],[-56.7362188,-25.5368005],[-56.7362088,-25.5368331],[-56.7362081,-25.5368646],[-56.7362215,-25.5368924],[-56.7362436,-25.5369142],[-56.7362717,-25.5369309],[-56.7363361,-25.5369406],[-56.7363955,-25.536942],[-56.7364591,-25.5369345],[-56.7365061,-25.5369187],[-56.7365477,-25.5368885],[-56.7365705,-25.5368578],[-56.7365785,-25.5368241],[-56.7365802,-25.5367868],[-56.7365796,-25.5367475],[-56.7365814,-25.536704],[-56.7365876,-25.5366356]]]},"properties":{"name":"Ykua Ka'aguy","natural":"water","osm_id":749924229}},{"type":"Feature","geometry":{"type":"Polygon","coordinates":[[[-57.524402,-25.3048991],[-57.5244221,-25.3048833],[-57.5244221,-25.3048591],[-57.5244328,-25.304813],[-57.5244382,-25.3047633],[-57.5244288,-25.3047414],[-57.524402,-25.3047427],[-57.5243859,-25.3047584],[-57.5243725,-25.3047778],[-57.5243229,-25.3048263],[-57.5243135,-25.3048481],[-57.5243215,-25.3048627],[-57.5243698,-25.3048724],[-57.5243913,-25.3048857],[-57.524402,-25.3048991]]]},"properties":{"name":"Oficina","natural":"water","osm_id":755211950}},{"type":"Feature","geometry":{"type":"Polygon","coordinates":[[[-57.4810067,-25.1053703],[-57.481488,-25.1051112],[-57.480737,-25.1067312],[-57.4800933,-25.1072558],[-57.47931,-25.1077027],[-57.4763859,-25.1091672],[-57.476098,-25.1092676],[-57.4756624,-25.1093585],[-57.4751166,-25.1094266],[-57.4748193,-25.1094357],[-57.4745583,-25.1094055],[-57.4742659,-25.1094944],[-57.4741095,-25.1097394],[-57.4740555,-25.1100255],[-57.4739976,-25.1105406],[-57.4740132,-25.1107228],[-57.4740354,-25.1108705],[-57.474143,-25.1110415],[-57.4743051,-25.1111915],[-57.4746196,-25.1113357],[-57.4751202,-25.1113234],[-57.4754814,-25.1111708],[-57.4757477,-25.1110179],[-57.4760622,-25.1109845],[-57.4764205,-25.1111117],[-57.4765543,-25.1113056],[-57.4766174,-25.111509],[-57.4766232,-25.1116448],[-57.4765645,-25.1118644],[-57.4763582,-25.1123453],[-57.4761492,-25.112675],[-57.4759204,-25.1129651],[-57.4754743,-25.1134961],[-57.4751926,-25.1137808],[-57.4749876,-25.1139648],[-57.4746423,-25.1142195],[-57.4739285,-25.1146401],[-57.4733178,-25.1149221],[-57.4727726,-25.1150872],[-57.4721883,-25.115273],[-57.4715664,-25.1155054],[-57.4708647,-25.1158022],[-57.4699396,-25.1162376],[-57.4691498,-25.1166249],[-57.4678214,-25.1172319],[-57.4669003,-25.1176654],[-57.4664635,-25.1178602],[-57.4660285,-25.1181519],[-57.4657966,-25.1184391],[-57.4657008,-25.1186916],[-57.4655792,-25.1188593],[-57.4653462,-25.1190119],[-57.4648286,-25.1191784],[-57.4645297,-25.1191544],[-57.4644002,-25.1191027],[-57.464159,-25.1187537],[-57.4640548,-25.1186223],[-57.4637221,-25.118297],[-57.4636354,-25.118238],[-57.4634962,-25.1182212],[-57.4633561,-25.1182502],[-57.4632232,-25.1183066],[-57.4630761,-25.1183994],[-57.4629529,-25.1185273],[-57.4628364,-25.1187212],[-57.4627267,-25.1190459],[-57.4626161,-25.1194044],[-57.4624652,-25.1197861],[-57.4621876,-25.1201567],[-57.4619266,-25.1203451],[-57.4618136,-25.1204466],[-57.4617875,-25.1205084],[-57.461585,-25.1206497],[-57.4615286,-25.1206471],[-57.4614263,-25.1206827],[-57.4611242,-25.1209572],[-57.4607346,-25.1212869],[-57.4603885,-25.1215721],[-57.4598168,-25.1218998],[-57.4594233,-25.1221175],[-57.4592248,-25.122216],[-57.4591683,-25.1222266],[-57.4591156,-25.1222069],[-57.4590514,-25.1222151],[-57.4589821,-25.1222596],[-57.4589642,-25.1223054],[-57.4589311,-25.1223266],[-57.4588386,-25.1223579],[-57.458632,-25.1224785],[-57.4585572,-25.1225361],[-57.4585159,-25.1225433],[-57.4584665,-25.1225443],[-57.4583976,-25.1225967],[-57.4583677,-25.1226332],[-57.4581856,-25.1227372],[-57.4580834,-25.1227875],[-57.4580304,-25.1227958],[-57.4579812,-25.1227604],[-57.4579075,-25.1227503],[-57.457852,-25.1227805],[-57.4578233,-25.122836],[-57.457776,-25.1228915],[-57.457674,-25.1229318],[-57.4576087,-25.1229738],[-57.4575222,-25.12302],[-57.4574999,-25.1230744],[-57.4575274,-25.1231442],[-57.4575131,-25.1231972],[-57.4575398,-25.1233089],[-57.4575398,-25.1233735],[-57.457548,-25.1235015],[-57.4574943,-25.1234557],[-57.4575079,-25.1234196],[-57.4574518,-25.1233126],[-57.4574385,-25.123255],[-57.4574506,-25.1231802],[-57.4574679,-25.1231157],[-57.457484,-25.123009],[-57.4574863,-25.1229644],[-57.4574716,-25.1229236],[-57.4574458,-25.1228962],[-57.457389,-25.1229012],[-57.4572569,-25.1229179],[-57.456981,-25.1229646],[-57.4563789,-25.1231695],[-57.4556688,-25.1234418],[-57.4553093,-25.12358],[-57.4552833,-25.1237516],[-57.45515,-25.1237378],[-57.4551075,-25.1237539],[-57.4550916,-25.1237765],[-57.4550407,-25.1237866],[-57.4549777,-25.1237941],[-57.4548845,-25.1238137],[-57.4547538,-25.1238186],[-57.454663,-25.1238551],[-57.4545465,-25.1239268],[-57.4544265,-25.1239894],[-57.4543763,-25.1239985],[-57.4543324,-25.1239816],[-57.4543024,-25.1239841],[-57.4542727,-25.1239842],[-57.4542241,-25.1239478],[-57.4542014,-25.1239385],[-57.4541739,-25.1239375],[-57.4541319,-25.1239577],[-57.4540841,-25.1239738],[-57.4540428,-25.1239686],[-57.453943,-25.1239744],[-57.4539077,-25.1240111],[-57.4538975,-25.1240561],[-57.4539098,-25.124125],[-57.4539007,-25.1241562],[-57.4538734,-25.1242346],[-57.4538594,-25.124298],[-57.4538361,-25.1243086],[-57.4538178,-25.1243005],[-57.453837,-25.1242511],[-57.4538649,-25.1241607],[-57.4538549,-25.124092],[-57.4538096,-25.1240501],[-57.4537088,-25.1240308],[-57.4536624,-25.1240338],[-57.453557,-25.1241048],[-57.4535072,-25.1241535],[-57.4533589,-25.1243418],[-57.4532528,-25.1244066],[-57.4531743,-25.124422],[-57.4530628,-25.1245205],[-57.4530108,-25.1245842],[-57.4529378,-25.1246326],[-57.4528455,-25.1246615],[-57.4528177,-25.1246905],[-57.4527639,-25.124707],[-57.4527016,-25.124706],[-57.4526232,-25.1247243],[-57.4525753,-25.1247425],[-57.4525535,-25.1247754],[-57.452534,-25.1248366],[-57.452493,-25.1248541],[-57.4524703,-25.1248823],[-57.4524755,-25.1249183],[-57.4524913,-25.1249464],[-57.4524878,-25.1249744],[-57.4524591,-25.1250188],[-57.4523804,-25.1250375],[-57.4523154,-25.1250593],[-57.4522697,-25.1251138],[-57.4522582,-25.1251653],[-57.4522471,-25.125193],[-57.4522037,-25.1252168],[-57.4521538,-25.1252099],[-57.4521149,-25.1251967],[-57.4520997,-25.1251845],[-57.4520988,-25.1251672],[-57.4521119,-25.1251542],[-57.4521349,-25.1250991],[-57.4522067,-25.1250397],[-57.4522657,-25.1250123],[-57.4523086,-25.1249691],[-57.4523318,-25.1249159],[-57.4523398,-25.1248911],[-57.4523348,-25.1248638],[-57.4522984,-25.1248087],[-57.452292,-25.1247644],[-57.4523007,-25.1247356],[-57.4523224,-25.1247288],[-57.4523528,-25.1247326],[-57.4523857,-25.1247578],[-57.4524342,-25.1247732],[-57.4525102,-25.1247575],[-57.452552,-25.1247322],[-57.4525838,-25.1247155],[-57.4526287,-25.1247018],[-57.4526928,-25.1246548],[-57.4527548,-25.1245822],[-57.4527696,-25.1245527],[-57.4528222,-25.1245224],[-57.4528399,-25.1244945],[-57.4528703,-25.1244777],[-57.4529308,-25.1244803],[-57.4529574,-25.124476],[-57.45298,-25.1244484],[-57.453008,-25.1244474],[-57.4530284,-25.1244642],[-57.4530799,-25.1244661],[-57.4531253,-25.1244228],[-57.4531199,-25.124363],[-57.4530773,-25.12432],[-57.4530721,-25.1242936],[-57.4530938,-25.1242697],[-57.453132,-25.1242565],[-57.4532084,-25.1242472],[-57.4533504,-25.1242174],[-57.4533903,-25.1241828],[-57.453414,-25.1240981],[-57.4534051,-25.1240792],[-57.4533696,-25.1240627],[-57.4532996,-25.1240494],[-57.4532755,-25.1240392],[-57.4532351,-25.1240313],[-57.4531775,-25.1240484],[-57.453149,-25.1240644],[-57.4531086,-25.1240554],[-57.4530519,-25.1240693],[-57.4529994,-25.1240802],[-57.4529477,-25.1240793],[-57.4528785,-25.1241105],[-57.4528399,-25.1241514],[-57.4528113,-25.1241597],[-57.452762,-25.1241524],[-57.4527203,-25.1241564],[-57.4526682,-25.1241889],[-57.4525912,-25.1242536],[-57.4524112,-25.1243492],[-57.452347,-25.1243486],[-57.4523071,-25.1243738],[-57.4522494,-25.1244196],[-57.4522038,-25.1244192],[-57.4520884,-25.1244733],[-57.451974,-25.1245898],[-57.4519428,-25.1246607],[-57.451939,-25.1247649],[-57.4519495,-25.1248311],[-57.4519507,-25.1248751],[-57.4519117,-25.1249069],[-57.4518575,-25.1249444],[-57.4518443,-25.124977],[-57.451841,-25.1250046],[-57.4518269,-25.1250248],[-57.4517961,-25.1250338],[-57.451764,-25.1250273],[-57.4517159,-25.1250266],[-57.4516566,-25.1250508],[-57.4516257,-25.1250859],[-57.4515713,-25.1251205],[-57.4514851,-25.1251985],[-57.4514474,-25.1252204],[-57.4514112,-25.1252095],[-57.4513803,-25.1251622],[-57.4513359,-25.1251417],[-57.4512927,-25.1251504],[-57.4512455,-25.125227],[-57.4512486,-25.1254772],[-57.4513306,-25.1256838],[-57.4513636,-25.1257519],[-57.4513626,-25.125809],[-57.451342,-25.1258861],[-57.4512973,-25.1259244],[-57.4511601,-25.1259689],[-57.4511318,-25.1259931],[-57.4511283,-25.1260416],[-57.4511561,-25.126072],[-57.4512089,-25.1261102],[-57.4512809,-25.12615],[-57.4513651,-25.1261784],[-57.4514207,-25.126184],[-57.4514619,-25.1261832],[-57.4514771,-25.1262011],[-57.45147,-25.1262258],[-57.4514409,-25.1262575],[-57.4513821,-25.1262904],[-57.4513326,-25.1263105],[-57.4512877,-25.1263436],[-57.4512482,-25.1263962],[-57.451229,-25.1265016],[-57.4512582,-25.1266233],[-57.4512646,-25.126746],[-57.4512212,-25.1269142],[-57.4511423,-25.1270269],[-57.4510449,-25.1271267],[-57.4509349,-25.1272378],[-57.450774,-25.1273405],[-57.4505516,-25.1273429],[-57.4504164,-25.1273115],[-57.4502268,-25.1273266],[-57.4497422,-25.1272944],[-57.4496637,-25.1272883],[-57.4496038,-25.1272836],[-57.449322,-25.1272616],[-57.4490226,-25.1271778],[-57.4487808,-25.1270531],[-57.4486299,-25.1269253],[-57.4485246,-25.126726],[-57.4484547,-25.126551],[-57.4484099,-25.1263595],[-57.4483937,-25.1260979],[-57.4484214,-25.1257623],[-57.4484877,-25.1254871],[-57.4485728,-25.1252525],[-57.4486311,-25.1251484],[-57.4486652,-25.1249722],[-57.4486523,-25.1247488],[-57.4486395,-25.1245629],[-57.448516,-25.1243007],[-57.4483703,-25.1240423],[-57.4482504,-25.1237453],[-57.4481675,-25.1235773],[-57.4480406,-25.1234034],[-57.4479049,-25.1233097],[-57.447775,-25.1232908],[-57.4476649,-25.1233182],[-57.447575,-25.123386],[-57.4475026,-25.1235079],[-57.4474514,-25.1236546],[-57.447405,-25.1238605],[-57.4473522,-25.1241252],[-57.4473067,-25.1242873],[-57.4472839,-25.1244586],[-57.4473178,-25.1247158],[-57.4474222,-25.124973],[-57.4475075,-25.1251027],[-57.4475762,-25.1252254],[-57.4476096,-25.1253983],[-57.4475968,-25.1255949],[-57.4475455,-25.1257654],[-57.447455,-25.1259003],[-57.4473301,-25.1259971],[-57.4470142,-25.1261481],[-57.4467371,-25.1261881],[-57.4460709,-25.1261541],[-57.4454406,-25.1261471],[-57.4449839,-25.1261081],[-57.4444565,-25.1260846],[-57.4441603,-25.126127],[-57.4438948,-25.1262165],[-57.443767,-25.1263177],[-57.4437106,-25.1264247],[-57.4436973,-25.1265504],[-57.4437488,-25.1266742],[-57.4438776,-25.1268484],[-57.4441079,-25.1270544],[-57.4444571,-25.1272751],[-57.4447226,-25.1274115],[-57.4448883,-25.127469],[-57.4450839,-25.1275085],[-57.4453755,-25.1275016],[-57.4455873,-25.1274857],[-57.4458477,-25.127401],[-57.4460727,-25.1272526],[-57.4462898,-25.127113],[-57.446507,-25.126904],[-57.4466371,-25.1267509],[-57.4468201,-25.1266113],[-57.4469492,-25.1265536],[-57.4471022,-25.1265272],[-57.4472941,-25.1265358],[-57.4475107,-25.126647],[-57.4476593,-25.1267803],[-57.4477174,-25.1269416],[-57.4478887,-25.127304],[-57.448001,-25.127596],[-57.4480358,-25.1278353],[-57.4480297,-25.1281659],[-57.4479786,-25.1284489],[-57.447884,-25.1287006],[-57.447728,-25.1288677],[-57.4475186,-25.1289755],[-57.4472663,-25.1290755],[-57.4470463,-25.1291547],[-57.4467566,-25.1292283],[-57.4464854,-25.1293679],[-57.4463042,-25.1294645],[-57.4461181,-25.1297266],[-57.4459821,-25.1299257],[-57.4458291,-25.1300383],[-57.4457338,-25.1301456],[-57.4455312,-25.1299372],[-57.4456383,-25.1297982],[-57.4457505,-25.1295832],[-57.4458944,-25.1294302],[-57.4461122,-25.1292405],[-57.4464227,-25.1290585],[-57.4467003,-25.1290052],[-57.4470356,-25.1289133],[-57.4472492,-25.1288492],[-57.4474621,-25.1287744],[-57.4476677,-25.1286491],[-57.4477733,-25.1284763],[-57.4478416,-25.1282074],[-57.4478627,-25.1278992],[-57.4478077,-25.1276376],[-57.4476788,-25.1273246],[-57.447544,-25.1270538],[-57.4474193,-25.1268231],[-57.4473308,-25.1267501],[-57.4471967,-25.1267159],[-57.4470679,-25.1267203],[-57.446923,-25.1267632],[-57.4467566,-25.1269024],[-57.4466437,-25.1270156],[-57.4465793,-25.1271464],[-57.4462947,-25.1273691],[-57.4460583,-25.127533],[-57.4457741,-25.1276589],[-57.4455099,-25.1277077],[-57.4452853,-25.1277242],[-57.4450456,-25.1277164],[-57.4447506,-25.1276196],[-57.4444647,-25.1275073],[-57.4441932,-25.1273469],[-57.4439096,-25.1271476],[-57.4436475,-25.1268962],[-57.4435262,-25.1267302],[-57.4434647,-25.1265446],[-57.4435063,-25.1263131],[-57.4436093,-25.1261481],[-57.443776,-25.1260428],[-57.4440197,-25.1259496],[-57.4443826,-25.1258761],[-57.4447382,-25.1258742],[-57.4451204,-25.1258931],[-57.4456427,-25.1259144],[-57.4461216,-25.1259273],[-57.4463368,-25.1259667],[-57.4468039,-25.1260025],[-57.4470771,-25.1259336],[-57.4472378,-25.1258566],[-57.4473847,-25.1256845],[-57.4474095,-25.1255343],[-57.4474187,-25.1253815],[-57.4473658,-25.1251947],[-57.4472988,-25.1250745],[-57.4472302,-25.1249549],[-57.4471179,-25.1247158],[-57.4471174,-25.1246074],[-57.4471254,-25.1244224],[-57.4471066,-25.1241966],[-57.4471849,-25.1239115],[-57.4472638,-25.1235835],[-57.4473155,-25.1233906],[-57.4474043,-25.1232602],[-57.4475519,-25.1231755],[-57.4476976,-25.1231279],[-57.4478445,-25.1230959],[-57.4479885,-25.1231258],[-57.4481585,-25.1232293],[-57.448284,-25.1233687],[-57.4483524,-25.1235562],[-57.4485143,-25.1238454],[-57.4486134,-25.1240141],[-57.448691,-25.1241967],[-57.4488161,-25.1243996],[-57.4488403,-25.12461],[-57.4488389,-25.1249811],[-57.4488607,-25.1250889],[-57.4488297,-25.1252412],[-57.4487526,-25.125451],[-57.4487035,-25.1256812],[-57.4487264,-25.1258123],[-57.4486725,-25.1259525],[-57.4486197,-25.1260435],[-57.4486236,-25.1261578],[-57.4486341,-25.1264703],[-57.4487438,-25.1267236],[-57.4488931,-25.1269016],[-57.4490274,-25.126978],[-57.4492665,-25.1270715],[-57.4496096,-25.1270844],[-57.4500652,-25.1271137],[-57.4502571,-25.1270898],[-57.4506248,-25.1270711],[-57.4508563,-25.1270299],[-57.4509715,-25.1269441],[-57.4510618,-25.1267639],[-57.451079,-25.1266298],[-57.4510036,-25.1265097],[-57.4509287,-25.1263412],[-57.450881,-25.1260079],[-57.4508576,-25.1256307],[-57.4508853,-25.1254214],[-57.450968,-25.1251519],[-57.4511292,-25.1248298],[-57.4513241,-25.1245715],[-57.4515897,-25.1243542],[-57.4522619,-25.1240588],[-57.4529687,-25.1238247],[-57.4532579,-25.1237657],[-57.4538959,-25.1236922],[-57.4544158,-25.1236199],[-57.4548868,-25.1234879],[-57.4555886,-25.1232309],[-57.4563873,-25.1229271],[-57.4569866,-25.1226932],[-57.4578057,-25.122411],[-57.4581169,-25.1223832],[-57.4584006,-25.1222852],[-57.4587257,-25.1220893],[-57.4592097,-25.1218435],[-57.459507,-25.1217453],[-57.4601169,-25.12146],[-57.4605198,-25.1211415],[-57.4608929,-25.1208321],[-57.4614465,-25.1204192],[-57.461896,-25.1201029],[-57.4620543,-25.1198891],[-57.462267,-25.1194674],[-57.4624059,-25.1189632],[-57.4625685,-25.1186213],[-57.4627976,-25.1183165],[-57.463077,-25.1180713],[-57.4633523,-25.1179996],[-57.4635435,-25.118012],[-57.4638764,-25.118129],[-57.4641883,-25.1183761],[-57.4642442,-25.1184613],[-57.4645096,-25.1188061],[-57.4647475,-25.1189361],[-57.465,-25.1189183],[-57.4652496,-25.1188934],[-57.4653933,-25.1187161],[-57.4655974,-25.118375],[-57.4657666,-25.1180943],[-57.4659706,-25.1179067],[-57.4664383,-25.1176545],[-57.466847,-25.1174635],[-57.467557,-25.117089],[-57.4689539,-25.1164303],[-57.4701073,-25.1159018],[-57.4710292,-25.1154788],[-57.4716375,-25.1152049],[-57.4722329,-25.1150039],[-57.4729188,-25.114803],[-57.4734801,-25.1146025],[-57.4739966,-25.1143426],[-57.4745398,-25.1140215],[-57.4748441,-25.1137746],[-57.475143,-25.1134947],[-57.4756636,-25.1129518],[-57.4758947,-25.1126475],[-57.4762202,-25.1121048],[-57.4763919,-25.1117681],[-57.4764033,-25.1115481],[-57.4763542,-25.111314],[-57.476218,-25.1112016],[-57.4759869,-25.1111715],[-57.4757594,-25.1112224],[-57.4754587,-25.1113712],[-57.4750937,-25.1115412],[-57.4746968,-25.1115803],[-57.4742735,-25.1115165],[-57.4740372,-25.1113759],[-57.4739297,-25.1112352],[-57.4738108,-25.1110474],[-57.4737785,-25.11077],[-57.4737788,-25.11022],[-57.4737901,-25.1098095],[-57.473875,-25.10957],[-57.474072,-25.1093537],[-57.4742592,-25.1092235],[-57.4744321,-25.109197],[-57.4747135,-25.1092022],[-57.475037,-25.1092019],[-57.475408,-25.1091617],[-57.4757924,-25.1091056],[-57.4761771,-25.1089854],[-57.4763755,-25.1088683],[-57.4795032,-25.1067215],[-57.480222,-25.1062746],[-57.4806941,-25.1055459],[-57.4810067,-25.1053703]]]},"properties":{"name":"R\u00edo Salado","natural":"water","water":"river","osm_id":810779058}},{"type":"Feature","geometry":{"type":"Polygon","coordinates":[[[-57.1405323,-25.3832139],[-57.1405011,-25.3832117],[-57.1404721,-25.3832008],[-57.1404483,-25.3831825],[-57.1404319,-25.3831583],[-57.1404246,-25.3831308],[-57.140427,-25.3831026],[-57.140439,-25.3830764],[-57.1404594,-25.3830549],[-57.1404861,-25.3830401],[-57.1405165,-25.3830335],[-57.1405478,-25.3830357],[-57.1405767,-25.3830465],[-57.1406006,-25.3830649],[-57.1406169,-25.383089],[-57.1406243,-25.3831165],[-57.1406218,-25.3831448],[-57.1406098,-25.3831709],[-57.1405895,-25.3831924],[-57.1405628,-25.3832072],[-57.1405323,-25.3832139]]]},"properties":{"name":"Estanque de la plaza Heroes del Chaco","natural":"water","water":"pond","osm_id":834696873}},{"type":"Feature","geometry":{"type":"Polygon","coordinates":[[[-57.5285715,-25.3464873],[-57.5284915,-25.3465159],[-57.5284392,-25.3464794],[-57.5283877,-25.3464186],[-57.5283276,-25.3463764],[-57.5282167,-25.3463449],[-57.5281747,-25.3463277],[-57.5281011,-25.3463055],[-57.5280401,-25.3462898],[-57.5279221,-25.346269],[-57.527869,-25.346264],[-57.5278049,-25.3462433],[-57.527774,-25.3462025],[-57.5277566,-25.3461545],[-57.5277376,-25.3461087],[-57.5276631,-25.3460393],[-57.527633,-25.3460021],[-57.5275752,-25.3459312],[-57.5275325,-25.3458861],[-57.5274604,-25.3458217],[-57.5274145,-25.3458003],[-57.5272545,-25.3457731],[-57.5271745,-25.3457373],[-57.5270312,-25.3456793],[-57.5268815,-25.3456628],[-57.5267754,-25.3456507],[-57.5266614,-25.3456299],[-57.5265822,-25.3456156],[-57.5264428,-25.3456056],[-57.526328,-25.3455863],[-57.5263011,-25.3455742],[-57.5262605,-25.345556],[-57.5262226,-25.345539],[-57.526088,-25.3454646],[-57.5260413,-25.3454374],[-57.5259566,-25.3454131],[-57.5259067,-25.345373],[-57.5258972,-25.3453386],[-57.52589,-25.3453057],[-57.5258576,-25.3452814],[-57.5258211,-25.3452749],[-57.5257507,-25.3453014],[-57.5255226,-25.3452134],[-57.5252415,-25.3450466],[-57.5251797,-25.3450101],[-57.5250918,-25.3449729],[-57.5249587,-25.3449192],[-57.5248637,-25.3448584],[-57.5247901,-25.3448126],[-57.5247457,-25.3447897],[-57.5246744,-25.3447532],[-57.5246024,-25.3446988],[-57.5245161,-25.3446222],[-57.5244654,-25.3445872],[-57.5243593,-25.3444827],[-57.5242864,-25.3444447],[-57.5242151,-25.3444125],[-57.5241644,-25.3443653],[-57.5241391,-25.3443324],[-57.5241415,-25.3442787],[-57.5241431,-25.3442486],[-57.5241423,-25.34423],[-57.5241256,-25.3441942],[-57.5241138,-25.3441635],[-57.5241106,-25.3441377],[-57.5241225,-25.3440611],[-57.5241264,-25.3440346],[-57.5241051,-25.3439516],[-57.5240884,-25.3438843],[-57.5240781,-25.3438486],[-57.5240734,-25.3438192],[-57.5240797,-25.3437892],[-57.5241209,-25.3437104],[-57.5241367,-25.3436761],[-57.5241304,-25.3436367],[-57.5241169,-25.3436095],[-57.52409,-25.3435845],[-57.524067,-25.343573],[-57.5240195,-25.3435594],[-57.5239815,-25.3435558],[-57.523911,-25.3435472],[-57.5238619,-25.3435444],[-57.523797,-25.3435251],[-57.5237511,-25.3435036],[-57.5236956,-25.3434857],[-57.5236299,-25.3434592],[-57.5236125,-25.3434392],[-57.5236061,-25.3434241],[-57.5236046,-25.3434048],[-57.5236125,-25.3433905],[-57.5236275,-25.3433783],[-57.5236545,-25.3433669],[-57.5236925,-25.3433562],[-57.5237321,-25.3433275],[-57.5237424,-25.3433225],[-57.5237558,-25.3432925],[-57.5237622,-25.3432574],[-57.5237701,-25.3432302],[-57.5237709,-25.343183],[-57.5237756,-25.343145],[-57.5237701,-25.3431221],[-57.5237559,-25.3430826],[-57.5238386,-25.3430048],[-57.5238485,-25.3430455],[-57.5238461,-25.3430899],[-57.5238619,-25.3431558],[-57.5238374,-25.3432144],[-57.5238445,-25.343334],[-57.5238334,-25.3433483],[-57.5238202,-25.3433989],[-57.5238447,-25.3434532],[-57.5238722,-25.3434671],[-57.5239269,-25.3434692],[-57.5240607,-25.3435043],[-57.5241454,-25.3435279],[-57.5242072,-25.3435666],[-57.5242539,-25.343631],[-57.5242603,-25.343661],[-57.5242484,-25.3436882],[-57.5242151,-25.3437226],[-57.5241898,-25.3437426],[-57.5241755,-25.3438049],[-57.5241819,-25.3438271],[-57.5241938,-25.3438972],[-57.5242009,-25.3439595],[-57.5242405,-25.3441692],[-57.5242365,-25.344235],[-57.5242729,-25.3442994],[-57.5243189,-25.3443495],[-57.5244099,-25.3444333],[-57.5245826,-25.3445814],[-57.5246657,-25.3446516],[-57.5248574,-25.3447768],[-57.5251148,-25.3448813],[-57.5255091,-25.3451139],[-57.5255764,-25.3451568],[-57.5256564,-25.3451998],[-57.5257293,-25.3452248],[-57.5257966,-25.3452298],[-57.5258599,-25.345232],[-57.5259518,-25.3452757],[-57.525993,-25.3453386],[-57.5260199,-25.345358],[-57.5260999,-25.3453823],[-57.5261664,-25.345403],[-57.5262583,-25.3454839],[-57.5263066,-25.345519],[-57.5263533,-25.3455376],[-57.5264491,-25.3455591],[-57.5265006,-25.3455684],[-57.5265885,-25.3455755],[-57.5266685,-25.345577],[-57.5267033,-25.3455791],[-57.5267699,-25.345582],[-57.527047,-25.3456378],[-57.5273274,-25.3457065],[-57.5274042,-25.345748],[-57.5274858,-25.3457909],[-57.527622,-25.3459148],[-57.5277067,-25.3459992],[-57.5277764,-25.3460744],[-57.5277938,-25.346108],[-57.5278366,-25.3461617],[-57.5278762,-25.3461917],[-57.5279158,-25.3462161],[-57.5279664,-25.3462318],[-57.5281225,-25.3462633],[-57.5282262,-25.3462955],[-57.5283165,-25.3463334],[-57.5283941,-25.3463664],[-57.5284495,-25.3463943],[-57.5284962,-25.3464186],[-57.5285715,-25.3464873]]]},"properties":{"name":"Arroyo san lorenzo","natural":"water","water":"stream","osm_id":890522800}},{"type":"Feature","geometry":{"type":"Polygon","coordinates":[[[-57.4567591,-25.8181149],[-57.4564256,-25.8185653],[-57.4560278,-25.8189002],[-57.4556814,-25.819085],[-57.4555916,-25.819085],[-57.455412,-25.8190042],[-57.4553607,-25.8187847],[-57.4552965,-25.8185307],[-57.4553222,-25.8182997],[-57.4553992,-25.818034],[-57.455412,-25.8177222],[-57.455412,-25.8172371],[-57.455412,-25.8169253],[-57.455412,-25.8165326],[-57.4554248,-25.8162901],[-57.4554248,-25.8157588],[-57.4553479,-25.8154355],[-57.4551041,-25.8149619],[-57.4549758,-25.8146039],[-57.4547705,-25.8143152],[-57.4547192,-25.8141419],[-57.454809,-25.8140149],[-57.4550271,-25.8139918],[-57.4552067,-25.8139918],[-57.4556301,-25.8140726],[-57.4558739,-25.8142805],[-57.4561818,-25.8145231],[-57.4564641,-25.8146848],[-57.4566822,-25.8148002],[-57.4569131,-25.8149504],[-57.4571184,-25.8150774],[-57.4573365,-25.8153546],[-57.4574904,-25.8156664],[-57.4576187,-25.8159205],[-57.45767,-25.8162208],[-57.4576592,-25.8164355],[-57.4576572,-25.8164749],[-57.4575709,-25.8166692],[-57.4575289,-25.8167636],[-57.457298,-25.8170986],[-57.4567591,-25.8181149]]]},"properties":{"name":"Laguna Ildefonso","natural":"water","water":"lagoon","osm_id":1070827851}},{"type":"Feature","geometry":{"type":"Polygon","coordinates":[[[-57.4830657,-25.6647337],[-57.4829378,-25.6647783],[-57.4827735,-25.6648432],[-57.4826235,-25.6649874],[-57.4825815,-25.6650328],[-57.4825376,-25.6650292],[-57.4824894,-25.6650116],[-57.482441,-25.6650385],[-57.4823603,-25.6650911],[-57.4822595,-25.665164],[-57.4821705,-25.6652528],[-57.4821482,-25.6653222],[-57.4821673,-25.6653809],[-57.4822467,-25.6654558],[-57.4823702,-25.6655525],[-57.4819683,-25.6656585],[-57.4816964,-25.6659901],[-57.4818269,-25.666516],[-57.4821462,-25.6669394],[-57.4823747,-25.6672809],[-57.4825651,-25.6676041],[-57.4822453,-25.6675609],[-57.4817218,-25.6673666],[-57.4817015,-25.6673591],[-57.4814296,-25.667114],[-57.4813816,-25.6667104],[-57.4814245,-25.666264],[-57.4814565,-25.6659901],[-57.4812805,-25.6658603],[-57.4806408,-25.6659468],[-57.4797452,-25.6657162],[-57.4784657,-25.6649233],[-57.4783217,-25.664462],[-57.4774581,-25.6637268],[-57.4772981,-25.6630781],[-57.4768983,-25.6626168],[-57.4765305,-25.6624438],[-57.4762266,-25.6620257],[-57.4758587,-25.6616077],[-57.4754909,-25.661031],[-57.4753789,-25.659921],[-57.4754589,-25.6588253],[-57.4760986,-25.6584505],[-57.4769303,-25.6575134],[-57.4773282,-25.6570376],[-57.4773524,-25.6570087],[-57.477714,-25.6565763],[-57.4781378,-25.6563634],[-57.4782385,-25.6563413],[-57.478501,-25.6562837],[-57.4789439,-25.6560757],[-57.4791927,-25.6560605],[-57.4792786,-25.6560086],[-57.479398,-25.6559818],[-57.479551,-25.6559995],[-57.4797145,-25.656035],[-57.4797903,-25.6560096],[-57.479872,-25.6559484],[-57.4799879,-25.6559688],[-57.4801089,-25.6560954],[-57.4803904,-25.6562449],[-57.480605,-25.6562285],[-57.4809127,-25.6561871],[-57.4814885,-25.6561727],[-57.4823337,-25.6564667],[-57.4825464,-25.6566031],[-57.4827383,-25.6567771],[-57.4829643,-25.6568415],[-57.4833067,-25.6570136],[-57.4835718,-25.6571051],[-57.4842215,-25.6571498],[-57.4847414,-25.6571361],[-57.4850202,-25.6570807],[-57.4854497,-25.6568896],[-57.4858414,-25.6567991],[-57.4859994,-25.6568211],[-57.4861073,-25.6569213],[-57.4862193,-25.657],[-57.4864226,-25.6569699],[-57.486483,-25.6568951],[-57.4865184,-25.65675],[-57.4865487,-25.6566799],[-57.4866481,-25.6566707],[-57.4867475,-25.6567458],[-57.4868229,-25.656784],[-57.487014,-25.6567679],[-57.4871114,-25.6568456],[-57.4871609,-25.656954],[-57.4873589,-25.6570411],[-57.4875445,-25.6570041],[-57.4876632,-25.6568826],[-57.4878369,-25.6568077],[-57.4880303,-25.6568078],[-57.4881613,-25.6567891],[-57.4883686,-25.6566507],[-57.488576,-25.6565778],[-57.4886966,-25.6565668],[-57.4888501,-25.656494],[-57.4889931,-25.656482],[-57.489113,-25.6565518],[-57.4892767,-25.6566365],[-57.4893408,-25.6566525],[-57.4894489,-25.656754],[-57.4896484,-25.6568048],[-57.4899415,-25.6569867],[-57.4900433,-25.6571804],[-57.4900395,-25.6573097],[-57.4901252,-25.6574747],[-57.4902573,-25.6575113],[-57.4903879,-25.657469],[-57.4905547,-25.6574173],[-57.4907176,-25.6574395],[-57.4910307,-25.6575847],[-57.491409,-25.657772],[-57.4917875,-25.6580682],[-57.4924173,-25.6583244],[-57.4928411,-25.6583418],[-57.4930518,-25.6580901],[-57.4931638,-25.6575567],[-57.4932417,-25.6575361],[-57.4932972,-25.6575316],[-57.4933239,-25.6574751],[-57.4933132,-25.6573969],[-57.4933214,-25.6572833],[-57.4933807,-25.6572494],[-57.4936525,-25.6573888],[-57.4938666,-25.6575658],[-57.4939189,-25.657612],[-57.4940175,-25.6578149],[-57.4944593,-25.6580901],[-57.4947654,-25.6582956],[-57.4950367,-25.658783],[-57.4951142,-25.6592827],[-57.4951353,-25.6594186],[-57.495086,-25.6597956],[-57.4948443,-25.6607383],[-57.4947155,-25.6615401],[-57.4944068,-25.6620833],[-57.4941481,-25.6625392],[-57.4941225,-25.6626325],[-57.4938747,-25.6630713],[-57.4932909,-25.663521],[-57.4931197,-25.6637083],[-57.492667,-25.6638571],[-57.4925323,-25.6639949],[-57.4922824,-25.6641456],[-57.4919841,-25.6641616],[-57.4917568,-25.6642703],[-57.4912096,-25.6644419],[-57.4907957,-25.664573],[-57.4905752,-25.6645993],[-57.4904665,-25.6646375],[-57.4903798,-25.6647279],[-57.4903041,-25.6649094],[-57.4902101,-25.6650108],[-57.4901919,-25.6651231],[-57.4901453,-25.6651797],[-57.4900737,-25.6651888],[-57.490064,-25.6651046],[-57.4900513,-25.6650019],[-57.4900936,-25.6649256],[-57.4901493,-25.6648769],[-57.4901275,-25.6648378],[-57.4900476,-25.66485],[-57.4899465,-25.664908],[-57.4898598,-25.6648881],[-57.4898784,-25.6648201],[-57.4901418,-25.6647391],[-57.4904246,-25.664598],[-57.4905444,-25.6645243],[-57.4905779,-25.6644473],[-57.4905473,-25.6643539],[-57.4903882,-25.6641157],[-57.4902278,-25.6639876],[-57.490101,-25.6639063],[-57.489991,-25.663873],[-57.4898702,-25.6638564],[-57.4897,-25.6637854],[-57.4895876,-25.6637846],[-57.4894999,-25.6637542],[-57.4894178,-25.6637625],[-57.4893523,-25.6638187],[-57.4892925,-25.6638966],[-57.4874861,-25.6644476],[-57.4861494,-25.664682],[-57.4858648,-25.6645874],[-57.4856723,-25.6644975],[-57.4855258,-25.6644738],[-57.4853499,-25.6643438],[-57.4852989,-25.6643339],[-57.4852055,-25.6643555],[-57.48515,-25.6643663],[-57.485052,-25.6643278],[-57.485013,-25.6642361],[-57.4849587,-25.6641058],[-57.4841434,-25.6634385],[-57.4837276,-25.6635971],[-57.4833917,-25.6639286],[-57.4832023,-25.6644673],[-57.4831355,-25.6645712],[-57.4831434,-25.6646551],[-57.4831326,-25.6646944],[-57.4830657,-25.6647337]]]},"properties":{"name":"Laguna Yvera","natural":"water","water":"lake","osm_id":1073728937}},{"type":"Feature","geometry":{"type":"Polygon","coordinates":[[[-57.5223259,-25.7270855],[-57.522252,-25.7273767],[-57.522252,-25.7276597],[-57.5222428,-25.727901],[-57.5220118,-25.7281257],[-57.5217163,-25.7283503],[-57.5215315,-25.7284086],[-57.5212452,-25.7283753],[-57.5210604,-25.7282754],[-57.5209404,-25.7281173],[-57.5208388,-25.7279509],[-57.5207556,-25.7276097],[-57.5207279,-25.72741],[-57.5206414,-25.7272216],[-57.5204994,-25.7270135],[-57.5203926,-25.726986],[-57.5202152,-25.7267992],[-57.5201824,-25.7266835],[-57.5201349,-25.7265922],[-57.5199749,-25.7265353],[-57.5197647,-25.7265069],[-57.5197033,-25.7264673],[-57.5194665,-25.7262605],[-57.5193979,-25.7260581],[-57.519379,-25.7258556],[-57.519465,-25.7257466],[-57.5195015,-25.725914],[-57.5195752,-25.7260869],[-57.5196853,-25.7262317],[-57.5200515,-25.726398],[-57.52035,-25.7264347],[-57.5207736,-25.7264601],[-57.5209154,-25.7264247],[-57.5210607,-25.7263778],[-57.5212267,-25.726295],[-57.5215131,-25.7261618],[-57.5218271,-25.7261868],[-57.5220857,-25.7263033],[-57.5222335,-25.7264031],[-57.5223259,-25.726528],[-57.5223444,-25.7266528],[-57.5222797,-25.7267443],[-57.5222428,-25.7268192],[-57.5222612,-25.726944],[-57.5223259,-25.7270855]]]},"properties":{"name":"Laguna Bazt\u00e1n","natural":"water","water":"lake","osm_id":1079377718}},{"type":"Feature","geometry":{"type":"Polygon","coordinates":[[[-57.4692801,-25.782719],[-57.4691315,-25.7829063],[-57.4688789,-25.7830401],[-57.4685816,-25.7829866],[-57.4684479,-25.7828394],[-57.4682696,-25.7827725],[-57.4681061,-25.7828394],[-57.4679278,-25.7827725],[-57.4677346,-25.7825182],[-57.4677346,-25.7822506],[-57.4678238,-25.7818224],[-57.4678238,-25.7814745],[-57.4676454,-25.7810463],[-57.4675414,-25.780685],[-57.4675265,-25.7803371],[-57.4676157,-25.7798018],[-57.4676008,-25.7794004],[-57.4673928,-25.7791461],[-57.4674225,-25.7789052],[-57.4677346,-25.7784503],[-57.4682696,-25.7782897],[-57.4689829,-25.7782763],[-57.4696367,-25.7783834],[-57.4701165,-25.7785203],[-57.470246,-25.7785573],[-57.4707067,-25.778932],[-57.4709296,-25.7791729],[-57.4710634,-25.779387],[-57.4710039,-25.7796546],[-57.470885,-25.7799089],[-57.4709445,-25.7800694],[-57.4710634,-25.7802568],[-57.4711971,-25.7804307],[-57.4711674,-25.7806448],[-57.4709891,-25.7808322],[-57.4706473,-25.7810195],[-57.470246,-25.7810864],[-57.469934,-25.7812604],[-57.4698448,-25.7815548],[-57.4698002,-25.7818224],[-57.4696813,-25.781983],[-57.4695179,-25.7821034],[-57.4693544,-25.782371],[-57.4692801,-25.782719]]]},"properties":{"name":"Laguna Azara","natural":"water","water":"lagoon","osm_id":1091497358}},{"type":"Feature","geometry":{"type":"Polygon","coordinates":[[[-57.0941682,-25.6035653],[-57.0941519,-25.6035906],[-57.0941075,-25.603618],[-57.0940164,-25.6036327],[-57.0937806,-25.6036559],[-57.0937386,-25.6036495],[-57.0937152,-25.6036285],[-57.0937059,-25.603599],[-57.0937222,-25.6033526],[-57.0937362,-25.6033126],[-57.093867,-25.6032284],[-57.0939254,-25.6032052],[-57.0939721,-25.6032073],[-57.0940071,-25.6032305],[-57.0940888,-25.6032937],[-57.0941145,-25.6033253],[-57.0941402,-25.6033842],[-57.0941589,-25.603439],[-57.0941729,-25.6035],[-57.0941682,-25.6035653]]]},"properties":{"name":"Aqua Lacus Viridis","natural":"water","water":"lake","osm_id":1101372884}},{"type":"Feature","geometry":{"type":"Polygon","coordinates":[[[-57.0298291,-25.5997765],[-57.0297983,-25.5997995],[-57.0297889,-25.5998394],[-57.0297942,-25.5998781],[-57.0298117,-25.5999108],[-57.0298452,-25.599935],[-57.0299713,-25.5999531],[-57.0300102,-25.5999229],[-57.0300611,-25.5998987],[-57.0301134,-25.5998805],[-57.0301563,-25.599866],[-57.0301791,-25.5998213],[-57.0302019,-25.5997886],[-57.0302113,-25.5997475],[-57.0301966,-25.5997245],[-57.0301349,-25.5997076],[-57.0300759,-25.5996991],[-57.0300249,-25.5997015],[-57.0299592,-25.5997185],[-57.0298908,-25.5997414],[-57.0298291,-25.5997765]]]},"properties":{"name":"Aqua Basin","natural":"water","water":"basin","osm_id":1101568008}},{"type":"Feature","geometry":{"type":"Polygon","coordinates":[[[-57.0276009,-25.6007864],[-57.027542,-25.600834],[-57.0274871,-25.6008505],[-57.0274464,-25.6008249],[-57.0274282,-25.6007772],[-57.0274261,-25.6007039],[-57.0273875,-25.60068],[-57.0273509,-25.6006379],[-57.0273407,-25.6005939],[-57.027355,-25.6005499],[-57.0273916,-25.6005242],[-57.0274404,-25.600515],[-57.0274993,-25.600559],[-57.0275115,-25.6006269],[-57.027544,-25.6006709],[-57.0275826,-25.600702],[-57.0276009,-25.6007387],[-57.0276009,-25.6007864]]]},"properties":{"name":"Aqua Basin","natural":"water","water":"basin","osm_id":1101568018}},{"type":"Feature","geometry":{"type":"Polygon","coordinates":[[[-57.0296115,-25.7765313],[-57.0293814,-25.7767672],[-57.0291337,-25.7769775],[-57.0289001,-25.7771401],[-57.0287196,-25.7772548],[-57.028532,-25.7773727],[-57.028348,-25.7774747],[-57.0281675,-25.7775512],[-57.0280047,-25.7776117],[-57.0278454,-25.777701],[-57.0276405,-25.7778517],[-57.0271765,-25.7782188],[-57.0269378,-25.7783444],[-57.026632,-25.7785714],[-57.026522,-25.7786656],[-57.0264335,-25.7786898],[-57.0263584,-25.7786825],[-57.026294,-25.7786536],[-57.0261546,-25.7785424],[-57.0259158,-25.7782985],[-57.0257496,-25.7780908],[-57.0256396,-25.7779096],[-57.0255779,-25.7777647],[-57.0255645,-25.7776802],[-57.0255752,-25.7775981],[-57.0256235,-25.7775135],[-57.0256852,-25.7774459],[-57.0257791,-25.777371],[-57.0260768,-25.7771271],[-57.0266079,-25.7767165],[-57.0268814,-25.7765426],[-57.0271282,-25.7764242],[-57.0272865,-25.7763494],[-57.0274635,-25.7762962],[-57.0276781,-25.7762866],[-57.0278497,-25.7762817],[-57.0280375,-25.776289],[-57.0282065,-25.776289],[-57.0283728,-25.7762407],[-57.0285042,-25.7761682],[-57.0286168,-25.7760837],[-57.0287885,-25.7760136],[-57.0289065,-25.7759508],[-57.0290084,-25.7759436],[-57.0291077,-25.775975],[-57.0292042,-25.7760571],[-57.029333,-25.7761779],[-57.0294778,-25.7763469],[-57.0295663,-25.7764436],[-57.0296115,-25.7765313]]]},"properties":{"name":"Wastewater","natural":"water","water":"basin","osm_id":1104187713}},{"type":"Feature","geometry":{"type":"Polygon","coordinates":[[[-57.0282146,-25.7805503],[-57.0284108,-25.7807522],[-57.028803,-25.7811138],[-57.0289478,-25.7812484],[-57.0289618,-25.7813241],[-57.0289338,-25.781425],[-57.0288638,-25.7815007],[-57.0286256,-25.7815848],[-57.0265568,-25.782224],[-57.0263653,-25.782266],[-57.0261692,-25.7822408],[-57.0260711,-25.7822155],[-57.0259964,-25.7821609],[-57.0258936,-25.78206],[-57.0250624,-25.7811769],[-57.024997,-25.7810591],[-57.0249877,-25.780954],[-57.0250204,-25.7808405],[-57.0251044,-25.780647],[-57.0256695,-25.7795789],[-57.0258143,-25.7793981],[-57.0259824,-25.7793056],[-57.0261318,-25.7792341],[-57.0264587,-25.7791416],[-57.0266502,-25.7791458],[-57.0268183,-25.7792467],[-57.0280979,-25.7804284],[-57.0281634,-25.7804968],[-57.0282146,-25.7805503]]]},"properties":{"name":"Wastewater","natural":"water","water":"basin","osm_id":1104187714}},{"type":"Feature","geometry":{"type":"Polygon","coordinates":[[[-57.0328429,-25.7818729],[-57.0329741,-25.7816887],[-57.0330794,-25.7817543],[-57.0331437,-25.7818796],[-57.0331712,-25.7819864],[-57.0331426,-25.782068],[-57.0332311,-25.7822115],[-57.0332275,-25.7823453],[-57.0330683,-25.7824983],[-57.0328736,-25.7825875],[-57.0328347,-25.7827022],[-57.032909,-25.7828425],[-57.0330116,-25.7829827],[-57.0330116,-25.7830719],[-57.0329479,-25.7831675],[-57.032233,-25.783977],[-57.0320808,-25.7841013],[-57.0319676,-25.7841491],[-57.0318366,-25.7841204],[-57.0317375,-25.7840216],[-57.0298441,-25.7821509],[-57.0297662,-25.7820649],[-57.0297414,-25.7819916],[-57.0297733,-25.781931],[-57.029883,-25.7818418],[-57.031327,-25.7807232],[-57.0313907,-25.7806977],[-57.0314721,-25.7806977],[-57.0315323,-25.78072],[-57.0315924,-25.7807805],[-57.03192,-25.7810486],[-57.0328429,-25.7818729]]]},"properties":{"name":"Wastewater","natural":"water","water":"basin","osm_id":1104187715}},{"type":"Feature","geometry":{"type":"Polygon","coordinates":[[[-57.0349862,-25.7749746],[-57.0346904,-25.7752936],[-57.0344408,-25.7751147],[-57.0347397,-25.7747859],[-57.0349862,-25.7749746]]]},"properties":{"name":"Pelvem Purgamentorum","natural":"water","water":"wastewater","osm_id":1104189862}},{"type":"Feature","geometry":{"type":"Polygon","coordinates":[[[-57.0373904,-25.7744719],[-57.0371937,-25.7746921],[-57.036842,-25.7744375],[-57.0370387,-25.7742172],[-57.0373904,-25.7744719]]]},"properties":{"name":"Pelvem Purgamentorum","natural":"water","water":"wastewater","osm_id":1104189865}},{"type":"Feature","geometry":{"type":"Polygon","coordinates":[[[-57.0370881,-25.7741493],[-57.0374345,-25.7743997],[-57.0379912,-25.7737753],[-57.0376447,-25.7735248],[-57.0370881,-25.7741493]]]},"properties":{"name":"Pelvem Purgamentorum","natural":"water","water":"wastewater","osm_id":1104189866}},{"type":"Feature","geometry":{"type":"Polygon","coordinates":[[[-57.5255095,-25.7030233],[-57.5252288,-25.7030828],[-57.5248325,-25.7030307],[-57.5246839,-25.7028522],[-57.5246756,-25.7025249],[-57.524527,-25.7021975],[-57.5244527,-25.7020116],[-57.5244362,-25.7017735],[-57.5245931,-25.7015355],[-57.5246179,-25.70129],[-57.5246839,-25.7011412],[-57.5248986,-25.7010891],[-57.5251793,-25.7012081],[-57.5254187,-25.7012751],[-57.5257324,-25.7013049],[-57.5259718,-25.7012825],[-57.526269,-25.7013569],[-57.5263681,-25.7016024],[-57.5263681,-25.7019967],[-57.5262277,-25.702391],[-57.5261039,-25.7026439],[-57.5258975,-25.7028075],[-57.5255095,-25.7030233]]]},"properties":{"name":"Laguna Borb\u00f3n","natural":"water","water":"lake","osm_id":1106224733}},{"type":"Feature","geometry":{"type":"Polygon","coordinates":[[[-57.502104,-25.392612],[-57.5019689,-25.3924933],[-57.5020383,-25.3922855],[-57.5021478,-25.3920777],[-57.5021806,-25.3919128],[-57.50225,-25.3917479],[-57.5023522,-25.3916523],[-57.5024983,-25.3915863],[-57.5025945,-25.3915689],[-57.5027384,-25.3916719],[-57.5028204,-25.3917423],[-57.5029064,-25.3918977],[-57.5028984,-25.3920169],[-57.5028744,-25.3921307],[-57.5027784,-25.3922518],[-57.5026305,-25.3923764],[-57.5024245,-25.3925155],[-57.5023005,-25.3926095],[-57.5021985,-25.3926366],[-57.502104,-25.392612]]]},"properties":{"name":"lago del cuartel de la victoria","natural":"water","water":"lake","osm_id":1240033423}},{"type":"Feature","geometry":{"type":"Polygon","coordinates":[[[-57.501203,-25.1514822],[-57.5011137,-25.1514306],[-57.5009704,-25.1514055],[-57.5008441,-25.1513748],[-57.500804,-25.1513748],[-57.5007886,-25.1513888],[-57.5007701,-25.1513539],[-57.5007332,-25.1513525],[-57.5006592,-25.1513205],[-57.5006007,-25.1513009],[-57.5005729,-25.1513135],[-57.5005005,-25.1512842],[-57.5004697,-25.1512744],[-57.5004451,-25.1513037],[-57.5004266,-25.1512954],[-57.5003973,-25.1513484],[-57.5003788,-25.1513428],[-57.5003758,-25.1513804],[-57.5004605,-25.151425],[-57.5006823,-25.1514794],[-57.5007417,-25.1514981],[-57.5008136,-25.1515168],[-57.5008425,-25.1515296],[-57.5008127,-25.1515915],[-57.5008648,-25.1516046],[-57.500918,-25.1515534],[-57.5009432,-25.1515869],[-57.5010151,-25.1515994],[-57.5010397,-25.1515547],[-57.5010752,-25.1515352],[-57.5011137,-25.1515241],[-57.501174,-25.1514981],[-57.501203,-25.1514822]]]},"properties":{"name":"Laguna CMA","natural":"water","water":"lake","osm_id":1252136871}},{"type":"Feature","geometry":{"type":"Polygon","coordinates":[[[-57.4597322,-25.1241858],[-57.466576,-25.1236649],[-57.4663277,-25.1200836],[-57.4643883,-25.1202283],[-57.4645399,-25.1208927],[-57.4623263,-25.1212833],[-57.4624882,-25.1220108],[-57.4593577,-25.1224676],[-57.459625,-25.122678],[-57.4597322,-25.1241858]]]},"properties":{"name":"AREA DE INUNDACI\u00d3N","natural":"water","water":"river","osm_id":1263470530}},{"type":"Feature","geometry":{"type":"Polygon","coordinates":[[[-57.0396715,-25.6750812],[-57.0397305,-25.6751344],[-57.0397573,-25.6752408],[-57.0398109,-25.6753133],[-57.0398914,-25.6753931],[-57.0399316,-25.6754946],[-57.0398378,-25.6756566],[-57.0397948,-25.6756711],[-57.0396822,-25.6756493],[-57.039591,-25.6755937],[-57.0395588,-25.6755236],[-57.0394703,-25.6754462],[-57.0393791,-25.6754076],[-57.0393254,-25.6753157],[-57.0393147,-25.6751973],[-57.0393174,-25.6751296],[-57.0392825,-25.67519],[-57.0392316,-25.6753085],[-57.0391592,-25.6752722],[-57.0391645,-25.6751876],[-57.0392047,-25.6750909],[-57.0392289,-25.67497],[-57.0391323,-25.6748782],[-57.0390545,-25.6747911],[-57.0389338,-25.6748008],[-57.0388882,-25.6748153],[-57.0388212,-25.6747379],[-57.0388936,-25.6746678],[-57.0391994,-25.6744599],[-57.0393201,-25.6744769],[-57.0394381,-25.6745155],[-57.0395052,-25.6745639],[-57.0396044,-25.6747815],[-57.0395454,-25.6748081],[-57.0395078,-25.6749023],[-57.0395239,-25.6749966],[-57.039532,-25.675074],[-57.0395534,-25.6751006],[-57.0396715,-25.6750812]]]},"properties":{"name":"LT VIAL -  Cantera. Ciudad de Estancia Abelenda","natural":"water","water":"basin","osm_id":1280067433}},{"type":"Feature","geometry":{"type":"Polygon","coordinates":[[[-57.3172815,-25.2744418],[-57.3173911,-25.2743619],[-57.3174322,-25.2743022],[-57.3174287,-25.2741274],[-57.3173855,-25.2739238],[-57.3173749,-25.2738344],[-57.3173665,-25.2737514],[-57.3173943,-25.2736593],[-57.3174393,-25.2735775],[-57.3174398,-25.273486],[-57.3174024,-25.2734355],[-57.3173668,-25.2734093],[-57.3173181,-25.273391],[-57.3172356,-25.2733958],[-57.3171804,-25.273409],[-57.31713,-25.2734212],[-57.3170572,-25.2735032],[-57.3170697,-25.2736292],[-57.317073,-25.2737765],[-57.3170368,-25.2739474],[-57.3170072,-25.2740354],[-57.3169729,-25.2741418],[-57.3169385,-25.2742591],[-57.3169835,-25.2743848],[-57.317027,-25.2744284],[-57.3172815,-25.2744418]]]},"properties":{"name":"Lago","natural":"water","water":"lake","osm_id":1470015593}}]}