{"type":"FeatureCollection","name":"dem_streams_arrows_10km","metadata":{"source":"Derived from dem_streams_10km.geojson","purpose":"Point markers every ~1.5 km along main_rivers and tributaries so the viewer can render arrowheads pointing in the direction of flow.","feature_count":386,"generated_utc":"2026-07-05T19:18:32.775264Z"},"features":[{"type":"Feature","properties":{"category":"flow_arrow","class":"tributary","from":[-57.084209964245,-25.629742589475],"to":[-57.084765519785,-25.629742589475]},"geometry":{"type":"Point","coordinates":[-57.084209964245,-25.629742589475]}},{"type":"Feature","properties":{"category":"flow_arrow","class":"tributary","from":[-57.084765519785,-25.630298145015],"to":[-57.084765519785,-25.629742589475]},"geometry":{"type":"Point","coordinates":[-57.084765519785,-25.630298145015]}},{"type":"Feature","properties":{"category":"flow_arrow","class":"tributary","from":[-57.084765519785,-25.630298145015],"to":[-57.084765519785,-25.629742589475]},"geometry":{"type":"Point","coordinates":[-57.084765519785,-25.630298145015]}},{"type":"Feature","properties":{"category":"flow_arrow","class":"tributary","from":[-57.084765519785,-25.630298145015],"to":[-57.084765519785,-25.629742589475]},"geometry":{"type":"Point","coordinates":[-57.084765519785,-25.630298145015]}},{"type":"Feature","properties":{"category":"flow_arrow","class":"tributary","from":[-57.084765519785,-25.630298145015],"to":[-57.084765519785,-25.629742589475]},"geometry":{"type":"Point","coordinates":[-57.084765519785,-25.630298145015]}},{"type":"Feature","properties":{"category":"flow_arrow","class":"main","from":[-57.029209965785,-25.623075922995],"to":[-57.026987743625,-25.620853700835]},"geometry":{"type":"Point","coordinates":[-57.029209965785,-25.623075922995]}},{"type":"Feature","properties":{"category":"flow_arrow","class":"main","from":[-57.027543299164996,-25.619187034215],"to":[-57.026987743625,-25.619187034215]},"geometry":{"type":"Point","coordinates":[-57.027543299164996,-25.619187034215]}},{"type":"Feature","properties":{"category":"flow_arrow","class":"main","from":[-57.027543299164996,-25.619187034215],"to":[-57.026987743625,-25.619187034215]},"geometry":{"type":"Point","coordinates":[-57.027543299164996,-25.619187034215]}},{"type":"Feature","properties":{"category":"flow_arrow","class":"main","from":[-57.027543299164996,-25.619187034215],"to":[-57.026987743625,-25.619187034215]},"geometry":{"type":"Point","coordinates":[-57.027543299164996,-25.619187034215]}},{"type":"Feature","properties":{"category":"flow_arrow","class":"main","from":[-57.027543299164996,-25.619187034215],"to":[-57.026987743625,-25.619187034215]},"geometry":{"type":"Point","coordinates":[-57.027543299164996,-25.619187034215]}},{"type":"Feature","properties":{"category":"flow_arrow","class":"main","from":[-57.027543299164996,-25.619187034215],"to":[-57.026987743625,-25.619187034215]},"geometry":{"type":"Point","coordinates":[-57.027543299164996,-25.619187034215]}},{"type":"Feature","properties":{"category":"flow_arrow","class":"main","from":[-57.027543299164996,-25.619187034215],"to":[-57.026987743625,-25.619187034215]},"geometry":{"type":"Point","coordinates":[-57.027543299164996,-25.619187034215]}},{"type":"Feature","properties":{"category":"flow_arrow","class":"main","from":[-57.027543299164996,-25.619187034215],"to":[-57.026987743625,-25.619187034215]},"geometry":{"type":"Point","coordinates":[-57.027543299164996,-25.619187034215]}},{"type":"Feature","properties":{"category":"flow_arrow","class":"main","from":[-57.105876630305,-25.633631478255],"to":[-57.108654408005,-25.633631478255]},"geometry":{"type":"Point","coordinates":[-57.105876630305,-25.633631478255]}},{"type":"Feature","properties":{"category":"flow_arrow","class":"main","from":[-57.118098852185,-25.633631478255],"to":[-57.117543296645,-25.633075922715]},"geometry":{"type":"Point","coordinates":[-57.118098852185,-25.633631478255]}},{"type":"Feature","properties":{"category":"flow_arrow","class":"main","from":[-57.118098852185,-25.633631478255],"to":[-57.117543296645,-25.633075922715]},"geometry":{"type":"Point","coordinates":[-57.118098852185,-25.633631478255]}},{"type":"Feature","properties":{"category":"flow_arrow","class":"main","from":[-57.118098852185,-25.633631478255],"to":[-57.117543296645,-25.633075922715]},"geometry":{"type":"Point","coordinates":[-57.118098852185,-25.633631478255]}},{"type":"Feature","properties":{"category":"flow_arrow","class":"main","from":[-57.118098852185,-25.633631478255],"to":[-57.117543296645,-25.633075922715]},"geometry":{"type":"Point","coordinates":[-57.118098852185,-25.633631478255]}},{"type":"Feature","properties":{"category":"flow_arrow","class":"main","from":[-57.118098852185,-25.633631478255],"to":[-57.117543296645,-25.633075922715]},"geometry":{"type":"Point","coordinates":[-57.118098852185,-25.633631478255]}},{"type":"Feature","properties":{"category":"flow_arrow","class":"main","from":[-57.118098852185,-25.633631478255],"to":[-57.117543296645,-25.633075922715]},"geometry":{"type":"Point","coordinates":[-57.118098852185,-25.633631478255]}},{"type":"Feature","properties":{"category":"flow_arrow","class":"main","from":[-57.118098852185,-25.633631478255],"to":[-57.117543296645,-25.633075922715]},"geometry":{"type":"Point","coordinates":[-57.118098852185,-25.633631478255]}},{"type":"Feature","properties":{"category":"flow_arrow","class":"tributary","from":[-57.104765519225,-25.560298146975],"to":[-57.107543296925,-25.558631480355]},"geometry":{"type":"Point","coordinates":[-57.104765519225,-25.560298146975]}},{"type":"Feature","properties":{"category":"flow_arrow","class":"main","from":[-57.096987741665,-25.664187032955],"to":[-57.099765519365,-25.665298144035]},"geometry":{"type":"Point","coordinates":[-57.096987741665,-25.664187032955]}},{"type":"Feature","properties":{"category":"flow_arrow","class":"tributary","from":[-57.085321075325,-25.531964814435],"to":[-57.083654408705,-25.530853703355]},"geometry":{"type":"Point","coordinates":[-57.085321075325,-25.531964814435]}},{"type":"Feature","properties":{"category":"flow_arrow","class":"tributary","from":[-57.084209964245,-25.530853703355],"to":[-57.083654408705,-25.530853703355]},"geometry":{"type":"Point","coordinates":[-57.084209964245,-25.530853703355]}},{"type":"Feature","properties":{"category":"flow_arrow","class":"tributary","from":[-57.084209964245,-25.530853703355],"to":[-57.083654408705,-25.530853703355]},"geometry":{"type":"Point","coordinates":[-57.084209964245,-25.530853703355]}},{"type":"Feature","properties":{"category":"flow_arrow","class":"tributary","from":[-57.084209964245,-25.530853703355],"to":[-57.083654408705,-25.530853703355]},"geometry":{"type":"Point","coordinates":[-57.084209964245,-25.530853703355]}},{"type":"Feature","properties":{"category":"flow_arrow","class":"tributary","from":[-57.084209964245,-25.530853703355],"to":[-57.083654408705,-25.530853703355]},"geometry":{"type":"Point","coordinates":[-57.084209964245,-25.530853703355]}},{"type":"Feature","properties":{"category":"flow_arrow","class":"tributary","from":[-57.081987742085,-25.532520369975],"to":[-57.081987742085,-25.531964814435]},"geometry":{"type":"Point","coordinates":[-57.081987742085,-25.532520369975]}},{"type":"Feature","properties":{"category":"flow_arrow","class":"tributary","from":[-57.082543297625,-25.532520369975],"to":[-57.081987742085,-25.531964814435]},"geometry":{"type":"Point","coordinates":[-57.082543297625,-25.532520369975]}},{"type":"Feature","properties":{"category":"flow_arrow","class":"tributary","from":[-57.082543297625,-25.532520369975],"to":[-57.081987742085,-25.531964814435]},"geometry":{"type":"Point","coordinates":[-57.082543297625,-25.532520369975]}},{"type":"Feature","properties":{"category":"flow_arrow","class":"tributary","from":[-57.082543297625,-25.532520369975],"to":[-57.081987742085,-25.531964814435]},"geometry":{"type":"Point","coordinates":[-57.082543297625,-25.532520369975]}},{"type":"Feature","properties":{"category":"flow_arrow","class":"tributary","from":[-57.082543297625,-25.532520369975],"to":[-57.081987742085,-25.531964814435]},"geometry":{"type":"Point","coordinates":[-57.082543297625,-25.532520369975]}},{"type":"Feature","properties":{"category":"flow_arrow","class":"tributary","from":[-57.078654408845,-25.545298147395],"to":[-57.078098853305,-25.542520369694998]},"geometry":{"type":"Point","coordinates":[-57.078654408845,-25.545298147395]}},{"type":"Feature","properties":{"category":"flow_arrow","class":"tributary","from":[-57.078098853305,-25.541964814154998],"to":[-57.078098853305,-25.541409258615]},"geometry":{"type":"Point","coordinates":[-57.078098853305,-25.541964814154998]}},{"type":"Feature","properties":{"category":"flow_arrow","class":"tributary","from":[-57.078098853305,-25.541964814154998],"to":[-57.078098853305,-25.541409258615]},"geometry":{"type":"Point","coordinates":[-57.078098853305,-25.541964814154998]}},{"type":"Feature","properties":{"category":"flow_arrow","class":"tributary","from":[-57.078098853305,-25.541964814154998],"to":[-57.078098853305,-25.541409258615]},"geometry":{"type":"Point","coordinates":[-57.078098853305,-25.541964814154998]}},{"type":"Feature","properties":{"category":"flow_arrow","class":"tributary","from":[-57.078098853305,-25.541964814154998],"to":[-57.078098853305,-25.541409258615]},"geometry":{"type":"Point","coordinates":[-57.078098853305,-25.541964814154998]}},{"type":"Feature","properties":{"category":"flow_arrow","class":"main","from":[-57.074209964525,-25.551964813875],"to":[-57.075321075605,-25.549187036175]},"geometry":{"type":"Point","coordinates":[-57.074209964525,-25.551964813875]}},{"type":"Feature","properties":{"category":"flow_arrow","class":"main","from":[-57.076432186685,-25.543075925234998],"to":[-57.076432186685,-25.543631480774998]},"geometry":{"type":"Point","coordinates":[-57.076432186685,-25.543075925234998]}},{"type":"Feature","properties":{"category":"flow_arrow","class":"main","from":[-57.076432186685,-25.543075925234998],"to":[-57.076432186685,-25.543631480774998]},"geometry":{"type":"Point","coordinates":[-57.076432186685,-25.543075925234998]}},{"type":"Feature","properties":{"category":"flow_arrow","class":"main","from":[-57.076432186685,-25.543075925234998],"to":[-57.076432186685,-25.543631480774998]},"geometry":{"type":"Point","coordinates":[-57.076432186685,-25.543075925234998]}},{"type":"Feature","properties":{"category":"flow_arrow","class":"main","from":[-57.076432186685,-25.543075925234998],"to":[-57.076432186685,-25.543631480774998]},"geometry":{"type":"Point","coordinates":[-57.076432186685,-25.543075925234998]}},{"type":"Feature","properties":{"category":"flow_arrow","class":"main","from":[-57.076432186685,-25.543075925234998],"to":[-57.076432186685,-25.543631480774998]},"geometry":{"type":"Point","coordinates":[-57.076432186685,-25.543075925234998]}},{"type":"Feature","properties":{"category":"flow_arrow","class":"main","from":[-57.076432186685,-25.543075925234998],"to":[-57.076432186685,-25.543631480774998]},"geometry":{"type":"Point","coordinates":[-57.076432186685,-25.543075925234998]}},{"type":"Feature","properties":{"category":"flow_arrow","class":"main","from":[-57.076432186685,-25.543075925234998],"to":[-57.076432186685,-25.543631480774998]},"geometry":{"type":"Point","coordinates":[-57.076432186685,-25.543075925234998]}},{"type":"Feature","properties":{"category":"flow_arrow","class":"tributary","from":[-57.074209964525,-25.623075922995],"to":[-57.076432186685,-25.624742589615]},"geometry":{"type":"Point","coordinates":[-57.074209964525,-25.623075922995]}},{"type":"Feature","properties":{"category":"flow_arrow","class":"tributary","from":[-57.084765519785,-25.630298145015],"to":[-57.084765519785,-25.629742589475]},"geometry":{"type":"Point","coordinates":[-57.084765519785,-25.630298145015]}},{"type":"Feature","properties":{"category":"flow_arrow","class":"tributary","from":[-57.084765519785,-25.630298145015],"to":[-57.084765519785,-25.629742589475]},"geometry":{"type":"Point","coordinates":[-57.084765519785,-25.630298145015]}},{"type":"Feature","properties":{"category":"flow_arrow","class":"tributary","from":[-57.084765519785,-25.630298145015],"to":[-57.084765519785,-25.629742589475]},"geometry":{"type":"Point","coordinates":[-57.084765519785,-25.630298145015]}},{"type":"Feature","properties":{"category":"flow_arrow","class":"tributary","from":[-57.084765519785,-25.630298145015],"to":[-57.084765519785,-25.629742589475]},"geometry":{"type":"Point","coordinates":[-57.084765519785,-25.630298145015]}},{"type":"Feature","properties":{"category":"flow_arrow","class":"tributary","from":[-57.069209964665,-25.675298143755],"to":[-57.071987742365,-25.674742588215]},"geometry":{"type":"Point","coordinates":[-57.069209964665,-25.675298143755]}},{"type":"Feature","properties":{"category":"flow_arrow","class":"tributary","from":[-57.073654408985,-25.675298143755],"to":[-57.073654408985,-25.675853699295]},"geometry":{"type":"Point","coordinates":[-57.073654408985,-25.675298143755]}},{"type":"Feature","properties":{"category":"flow_arrow","class":"tributary","from":[-57.073654408985,-25.675298143755],"to":[-57.073654408985,-25.675853699295]},"geometry":{"type":"Point","coordinates":[-57.073654408985,-25.675298143755]}},{"type":"Feature","properties":{"category":"flow_arrow","class":"tributary","from":[-57.073654408985,-25.675298143755],"to":[-57.073654408985,-25.675853699295]},"geometry":{"type":"Point","coordinates":[-57.073654408985,-25.675298143755]}},{"type":"Feature","properties":{"category":"flow_arrow","class":"tributary","from":[-57.073654408985,-25.675298143755],"to":[-57.073654408985,-25.675853699295]},"geometry":{"type":"Point","coordinates":[-57.073654408985,-25.675298143755]}},{"type":"Feature","properties":{"category":"flow_arrow","class":"tributary","from":[-57.064765520345,-25.567520368994998],"to":[-57.065321075885,-25.568075924534998]},"geometry":{"type":"Point","coordinates":[-57.064765520345,-25.567520368994998]}},{"type":"Feature","properties":{"category":"flow_arrow","class":"tributary","from":[-57.064209964805,-25.689742587795],"to":[-57.066987742505,-25.691409254415]},"geometry":{"type":"Point","coordinates":[-57.064209964805,-25.689742587795]}},{"type":"Feature","properties":{"category":"flow_arrow","class":"tributary","from":[-57.060321076025,-25.666409255115],"to":[-57.061432187105,-25.665298144035]},"geometry":{"type":"Point","coordinates":[-57.060321076025,-25.666409255115]}},{"type":"Feature","properties":{"category":"flow_arrow","class":"tributary","from":[-57.055321076165,-25.603631479095],"to":[-57.058098853865,-25.605298145715]},"geometry":{"type":"Point","coordinates":[-57.055321076165,-25.603631479095]}},{"type":"Feature","properties":{"category":"flow_arrow","class":"tributary","from":[-57.050876631845,-25.630298145015],"to":[-57.051432187385,-25.630298145015]},"geometry":{"type":"Point","coordinates":[-57.050876631845,-25.630298145015]}},{"type":"Feature","properties":{"category":"flow_arrow","class":"tributary","from":[-57.039765521045,-25.697520365355],"to":[-57.040321076585,-25.699187031975]},"geometry":{"type":"Point","coordinates":[-57.039765521045,-25.697520365355]}},{"type":"Feature","properties":{"category":"flow_arrow","class":"tributary","from":[-57.035876632265,-25.616409256515],"to":[-57.035321076725,-25.616409256515]},"geometry":{"type":"Point","coordinates":[-57.035876632265,-25.616409256515]}},{"type":"Feature","properties":{"category":"flow_arrow","class":"tributary","from":[-57.035321076725,-25.585298146275],"to":[-57.035321076725,-25.584742590735]},"geometry":{"type":"Point","coordinates":[-57.035321076725,-25.585298146275]}},{"type":"Feature","properties":{"category":"flow_arrow","class":"tributary","from":[-57.035321076725,-25.584187035195],"to":[-57.035321076725,-25.584742590735]},"geometry":{"type":"Point","coordinates":[-57.035321076725,-25.584187035195]}},{"type":"Feature","properties":{"category":"flow_arrow","class":"tributary","from":[-57.035321076725,-25.584187035195],"to":[-57.035321076725,-25.584742590735]},"geometry":{"type":"Point","coordinates":[-57.035321076725,-25.584187035195]}},{"type":"Feature","properties":{"category":"flow_arrow","class":"tributary","from":[-57.035321076725,-25.584187035195],"to":[-57.035321076725,-25.584742590735]},"geometry":{"type":"Point","coordinates":[-57.035321076725,-25.584187035195]}},{"type":"Feature","properties":{"category":"flow_arrow","class":"tributary","from":[-57.035321076725,-25.584187035195],"to":[-57.035321076725,-25.584742590735]},"geometry":{"type":"Point","coordinates":[-57.035321076725,-25.584187035195]}},{"type":"Feature","properties":{"category":"flow_arrow","class":"tributary","from":[-57.033098854565,-25.618075923135],"to":[-57.031987743485,-25.617520367595]},"geometry":{"type":"Point","coordinates":[-57.033098854565,-25.618075923135]}},{"type":"Feature","properties":{"category":"flow_arrow","class":"main","from":[-57.030321076865,-25.633631478255],"to":[-57.030321076865,-25.630853700555]},"geometry":{"type":"Point","coordinates":[-57.030321076865,-25.633631478255]}},{"type":"Feature","properties":{"category":"flow_arrow","class":"main","from":[-57.026987743625,-25.619187034215],"to":[-57.027543299164996,-25.619187034215]},"geometry":{"type":"Point","coordinates":[-57.026987743625,-25.619187034215]}},{"type":"Feature","properties":{"category":"flow_arrow","class":"main","from":[-57.026987743625,-25.619187034215],"to":[-57.027543299164996,-25.619187034215]},"geometry":{"type":"Point","coordinates":[-57.026987743625,-25.619187034215]}},{"type":"Feature","properties":{"category":"flow_arrow","class":"main","from":[-57.026987743625,-25.619187034215],"to":[-57.027543299164996,-25.619187034215]},"geometry":{"type":"Point","coordinates":[-57.026987743625,-25.619187034215]}},{"type":"Feature","properties":{"category":"flow_arrow","class":"main","from":[-57.026987743625,-25.619187034215],"to":[-57.027543299164996,-25.619187034215]},"geometry":{"type":"Point","coordinates":[-57.026987743625,-25.619187034215]}},{"type":"Feature","properties":{"category":"flow_arrow","class":"main","from":[-57.026987743625,-25.619187034215],"to":[-57.027543299164996,-25.619187034215]},"geometry":{"type":"Point","coordinates":[-57.026987743625,-25.619187034215]}},{"type":"Feature","properties":{"category":"flow_arrow","class":"main","from":[-57.026987743625,-25.619187034215],"to":[-57.027543299164996,-25.619187034215]},"geometry":{"type":"Point","coordinates":[-57.026987743625,-25.619187034215]}},{"type":"Feature","properties":{"category":"flow_arrow","class":"main","from":[-57.026987743625,-25.619187034215],"to":[-57.027543299164996,-25.619187034215]},"geometry":{"type":"Point","coordinates":[-57.026987743625,-25.619187034215]}},{"type":"Feature","properties":{"category":"flow_arrow","class":"tributary","from":[-57.025321077005,-25.676409254835],"to":[-57.026432188084996,-25.679187032535]},"geometry":{"type":"Point","coordinates":[-57.025321077005,-25.676409254835]}},{"type":"Feature","properties":{"category":"flow_arrow","class":"main","from":[-57.013098855125,-25.666964810655],"to":[-57.010321077425,-25.664742588495]},"geometry":{"type":"Point","coordinates":[-57.013098855125,-25.666964810655]}},{"type":"Feature","properties":{"category":"flow_arrow","class":"tributary","from":[-56.998654411085,-25.663631477415],"to":[-56.998098855545,-25.663075921875]},"geometry":{"type":"Point","coordinates":[-56.998654411085,-25.663631477415]}},{"type":"Feature","properties":{"category":"flow_arrow","class":"tributary","from":[-56.980321078265,-25.521409259174998],"to":[-56.979765522725,-25.518631481474998]},"geometry":{"type":"Point","coordinates":[-56.980321078265,-25.521409259174998]}},{"type":"Feature","properties":{"category":"flow_arrow","class":"tributary","from":[-56.979765522725,-25.519187037014998],"to":[-56.979765522725,-25.518631481474998]},"geometry":{"type":"Point","coordinates":[-56.979765522725,-25.519187037014998]}},{"type":"Feature","properties":{"category":"flow_arrow","class":"tributary","from":[-56.979765522725,-25.519187037014998],"to":[-56.979765522725,-25.518631481474998]},"geometry":{"type":"Point","coordinates":[-56.979765522725,-25.519187037014998]}},{"type":"Feature","properties":{"category":"flow_arrow","class":"tributary","from":[-56.979765522725,-25.519187037014998],"to":[-56.979765522725,-25.518631481474998]},"geometry":{"type":"Point","coordinates":[-56.979765522725,-25.519187037014998]}},{"type":"Feature","properties":{"category":"flow_arrow","class":"tributary","from":[-56.979765522725,-25.519187037014998],"to":[-56.979765522725,-25.518631481474998]},"geometry":{"type":"Point","coordinates":[-56.979765522725,-25.519187037014998]}},{"type":"Feature","properties":{"category":"flow_arrow","class":"tributary","from":[-56.978098856105,-25.642520366895],"to":[-56.978654411645,-25.641964811355]},"geometry":{"type":"Point","coordinates":[-56.978098856105,-25.642520366895]}},{"type":"Feature","properties":{"category":"flow_arrow","class":"tributary","from":[-56.967543300845,-25.584742590735],"to":[-56.966987745305,-25.581964813035]},"geometry":{"type":"Point","coordinates":[-56.967543300845,-25.584742590735]}},{"type":"Feature","properties":{"category":"flow_arrow","class":"tributary","from":[-56.963098856525,-25.573075924395],"to":[-56.963098856525,-25.573631479935]},"geometry":{"type":"Point","coordinates":[-56.963098856525,-25.573075924395]}},{"type":"Feature","properties":{"category":"flow_arrow","class":"tributary","from":[-56.963098856525,-25.573075924395],"to":[-56.963098856525,-25.573631479935]},"geometry":{"type":"Point","coordinates":[-56.963098856525,-25.573075924395]}},{"type":"Feature","properties":{"category":"flow_arrow","class":"tributary","from":[-56.963098856525,-25.573075924395],"to":[-56.963098856525,-25.573631479935]},"geometry":{"type":"Point","coordinates":[-56.963098856525,-25.573075924395]}},{"type":"Feature","properties":{"category":"flow_arrow","class":"tributary","from":[-56.963098856525,-25.573075924395],"to":[-56.963098856525,-25.573631479935]},"geometry":{"type":"Point","coordinates":[-56.963098856525,-25.573075924395]}},{"type":"Feature","properties":{"category":"flow_arrow","class":"tributary","from":[-56.953098856805,-25.549742591715],"to":[-56.953098856805,-25.549187036175]},"geometry":{"type":"Point","coordinates":[-56.953098856805,-25.549742591715]}},{"type":"Feature","properties":{"category":"flow_arrow","class":"tributary","from":[-56.952543301265,-25.548631480635],"to":[-56.953098856805,-25.549187036175]},"geometry":{"type":"Point","coordinates":[-56.952543301265,-25.548631480635]}},{"type":"Feature","properties":{"category":"flow_arrow","class":"tributary","from":[-56.952543301265,-25.548631480635],"to":[-56.953098856805,-25.549187036175]},"geometry":{"type":"Point","coordinates":[-56.952543301265,-25.548631480635]}},{"type":"Feature","properties":{"category":"flow_arrow","class":"tributary","from":[-56.952543301265,-25.548631480635],"to":[-56.953098856805,-25.549187036175]},"geometry":{"type":"Point","coordinates":[-56.952543301265,-25.548631480635]}},{"type":"Feature","properties":{"category":"flow_arrow","class":"tributary","from":[-56.952543301265,-25.548631480635],"to":[-56.953098856805,-25.549187036175]},"geometry":{"type":"Point","coordinates":[-56.952543301265,-25.548631480635]}},{"type":"Feature","properties":{"category":"flow_arrow","class":"tributary","from":[-57.129765518525,-25.583631479655],"to":[-57.129765518525,-25.584187035195]},"geometry":{"type":"Point","coordinates":[-57.129765518525,-25.583631479655]}},{"type":"Feature","properties":{"category":"flow_arrow","class":"tributary","from":[-57.129765518525,-25.584742590735],"to":[-57.129765518525,-25.584187035195]},"geometry":{"type":"Point","coordinates":[-57.129765518525,-25.584742590735]}},{"type":"Feature","properties":{"category":"flow_arrow","class":"tributary","from":[-57.129765518525,-25.584742590735],"to":[-57.129765518525,-25.584187035195]},"geometry":{"type":"Point","coordinates":[-57.129765518525,-25.584742590735]}},{"type":"Feature","properties":{"category":"flow_arrow","class":"tributary","from":[-57.129765518525,-25.584742590735],"to":[-57.129765518525,-25.584187035195]},"geometry":{"type":"Point","coordinates":[-57.129765518525,-25.584742590735]}},{"type":"Feature","properties":{"category":"flow_arrow","class":"tributary","from":[-57.129765518525,-25.584742590735],"to":[-57.129765518525,-25.584187035195]},"geometry":{"type":"Point","coordinates":[-57.129765518525,-25.584742590735]}},{"type":"Feature","properties":{"category":"flow_arrow","class":"tributary","from":[-57.128654407445,-25.555853702655],"to":[-57.129209962985,-25.555853702655]},"geometry":{"type":"Point","coordinates":[-57.128654407445,-25.555853702655]}},{"type":"Feature","properties":{"category":"flow_arrow","class":"tributary","from":[-57.129765518525,-25.555853702655],"to":[-57.129209962985,-25.555853702655]},"geometry":{"type":"Point","coordinates":[-57.129765518525,-25.555853702655]}},{"type":"Feature","properties":{"category":"flow_arrow","class":"tributary","from":[-57.129765518525,-25.555853702655],"to":[-57.129209962985,-25.555853702655]},"geometry":{"type":"Point","coordinates":[-57.129765518525,-25.555853702655]}},{"type":"Feature","properties":{"category":"flow_arrow","class":"tributary","from":[-57.129765518525,-25.555853702655],"to":[-57.129209962985,-25.555853702655]},"geometry":{"type":"Point","coordinates":[-57.129765518525,-25.555853702655]}},{"type":"Feature","properties":{"category":"flow_arrow","class":"tributary","from":[-57.129765518525,-25.555853702655],"to":[-57.129209962985,-25.555853702655]},"geometry":{"type":"Point","coordinates":[-57.129765518525,-25.555853702655]}},{"type":"Feature","properties":{"category":"flow_arrow","class":"tributary","from":[-57.128098851905,-25.534742592135],"to":[-57.129765518525,-25.536409258755]},"geometry":{"type":"Point","coordinates":[-57.128098851905,-25.534742592135]}},{"type":"Feature","properties":{"category":"flow_arrow","class":"tributary","from":[-57.129765518525,-25.536964814295],"to":[-57.129765518525,-25.536409258755]},"geometry":{"type":"Point","coordinates":[-57.129765518525,-25.536964814295]}},{"type":"Feature","properties":{"category":"flow_arrow","class":"tributary","from":[-57.129765518525,-25.536964814295],"to":[-57.129765518525,-25.536409258755]},"geometry":{"type":"Point","coordinates":[-57.129765518525,-25.536964814295]}},{"type":"Feature","properties":{"category":"flow_arrow","class":"tributary","from":[-57.129765518525,-25.536964814295],"to":[-57.129765518525,-25.536409258755]},"geometry":{"type":"Point","coordinates":[-57.129765518525,-25.536964814295]}},{"type":"Feature","properties":{"category":"flow_arrow","class":"tributary","from":[-57.129765518525,-25.536964814295],"to":[-57.129765518525,-25.536409258755]},"geometry":{"type":"Point","coordinates":[-57.129765518525,-25.536964814295]}},{"type":"Feature","properties":{"category":"flow_arrow","class":"tributary","from":[-57.128098851905,-25.685853699015],"to":[-57.128654407445,-25.685853699015]},"geometry":{"type":"Point","coordinates":[-57.128098851905,-25.685853699015]}},{"type":"Feature","properties":{"category":"flow_arrow","class":"tributary","from":[-57.128654407445,-25.685298143475],"to":[-57.128654407445,-25.685853699015]},"geometry":{"type":"Point","coordinates":[-57.128654407445,-25.685298143475]}},{"type":"Feature","properties":{"category":"flow_arrow","class":"tributary","from":[-57.128654407445,-25.685298143475],"to":[-57.128654407445,-25.685853699015]},"geometry":{"type":"Point","coordinates":[-57.128654407445,-25.685298143475]}},{"type":"Feature","properties":{"category":"flow_arrow","class":"tributary","from":[-57.128654407445,-25.685298143475],"to":[-57.128654407445,-25.685853699015]},"geometry":{"type":"Point","coordinates":[-57.128654407445,-25.685298143475]}},{"type":"Feature","properties":{"category":"flow_arrow","class":"tributary","from":[-57.128654407445,-25.685298143475],"to":[-57.128654407445,-25.685853699015]},"geometry":{"type":"Point","coordinates":[-57.128654407445,-25.685298143475]}},{"type":"Feature","properties":{"category":"flow_arrow","class":"tributary","from":[-57.126432185285,-25.566409257914998],"to":[-57.129209962985,-25.565298146834998]},"geometry":{"type":"Point","coordinates":[-57.126432185285,-25.566409257914998]}},{"type":"Feature","properties":{"category":"flow_arrow","class":"tributary","from":[-57.129765518525,-25.565298146834998],"to":[-57.129765518525,-25.564742591294998]},"geometry":{"type":"Point","coordinates":[-57.129765518525,-25.565298146834998]}},{"type":"Feature","properties":{"category":"flow_arrow","class":"tributary","from":[-57.129765518525,-25.565298146834998],"to":[-57.129765518525,-25.564742591294998]},"geometry":{"type":"Point","coordinates":[-57.129765518525,-25.565298146834998]}},{"type":"Feature","properties":{"category":"flow_arrow","class":"tributary","from":[-57.129765518525,-25.565298146834998],"to":[-57.129765518525,-25.564742591294998]},"geometry":{"type":"Point","coordinates":[-57.129765518525,-25.565298146834998]}},{"type":"Feature","properties":{"category":"flow_arrow","class":"tributary","from":[-57.129765518525,-25.565298146834998],"to":[-57.129765518525,-25.564742591294998]},"geometry":{"type":"Point","coordinates":[-57.129765518525,-25.565298146834998]}},{"type":"Feature","properties":{"category":"flow_arrow","class":"tributary","from":[-57.125321074205,-25.681964810234998],"to":[-57.125876629745,-25.682520365774998]},"geometry":{"type":"Point","coordinates":[-57.125321074205,-25.681964810234998]}},{"type":"Feature","properties":{"category":"flow_arrow","class":"tributary","from":[-57.123098852045,-25.671964810515],"to":[-57.125876629745,-25.670298143895]},"geometry":{"type":"Point","coordinates":[-57.123098852045,-25.671964810515]}},{"type":"Feature","properties":{"category":"flow_arrow","class":"tributary","from":[-57.126987740825,-25.669742588355],"to":[-57.126432185285,-25.669187032815]},"geometry":{"type":"Point","coordinates":[-57.126987740825,-25.669742588355]}},{"type":"Feature","properties":{"category":"flow_arrow","class":"tributary","from":[-57.126987740825,-25.669742588355],"to":[-57.126432185285,-25.669187032815]},"geometry":{"type":"Point","coordinates":[-57.126987740825,-25.669742588355]}},{"type":"Feature","properties":{"category":"flow_arrow","class":"tributary","from":[-57.126987740825,-25.669742588355],"to":[-57.126432185285,-25.669187032815]},"geometry":{"type":"Point","coordinates":[-57.126987740825,-25.669742588355]}},{"type":"Feature","properties":{"category":"flow_arrow","class":"tributary","from":[-57.126987740825,-25.669742588355],"to":[-57.126432185285,-25.669187032815]},"geometry":{"type":"Point","coordinates":[-57.126987740825,-25.669742588355]}},{"type":"Feature","properties":{"category":"flow_arrow","class":"tributary","from":[-57.121987740965,-25.606409256795],"to":[-57.124765518665,-25.606409256795]},"geometry":{"type":"Point","coordinates":[-57.121987740965,-25.606409256795]}},{"type":"Feature","properties":{"category":"flow_arrow","class":"tributary","from":[-57.121432185425,-25.586409257355],"to":[-57.123098852045,-25.586409257355]},"geometry":{"type":"Point","coordinates":[-57.121432185425,-25.586409257355]}},{"type":"Feature","properties":{"category":"flow_arrow","class":"tributary","from":[-57.123098852045,-25.586964812895],"to":[-57.123098852045,-25.586409257355]},"geometry":{"type":"Point","coordinates":[-57.123098852045,-25.586964812895]}},{"type":"Feature","properties":{"category":"flow_arrow","class":"tributary","from":[-57.123098852045,-25.586964812895],"to":[-57.123098852045,-25.586409257355]},"geometry":{"type":"Point","coordinates":[-57.123098852045,-25.586964812895]}},{"type":"Feature","properties":{"category":"flow_arrow","class":"tributary","from":[-57.123098852045,-25.586964812895],"to":[-57.123098852045,-25.586409257355]},"geometry":{"type":"Point","coordinates":[-57.123098852045,-25.586964812895]}},{"type":"Feature","properties":{"category":"flow_arrow","class":"tributary","from":[-57.123098852045,-25.586964812895],"to":[-57.123098852045,-25.586409257355]},"geometry":{"type":"Point","coordinates":[-57.123098852045,-25.586964812895]}},{"type":"Feature","properties":{"category":"flow_arrow","class":"tributary","from":[-57.114765518945,-25.626964811775],"to":[-57.115321074485,-25.626409256235]},"geometry":{"type":"Point","coordinates":[-57.114765518945,-25.626964811775]}},{"type":"Feature","properties":{"category":"flow_arrow","class":"tributary","from":[-57.115876630025,-25.626409256235],"to":[-57.115321074485,-25.626409256235]},"geometry":{"type":"Point","coordinates":[-57.115876630025,-25.626409256235]}},{"type":"Feature","properties":{"category":"flow_arrow","class":"tributary","from":[-57.115876630025,-25.626409256235],"to":[-57.115321074485,-25.626409256235]},"geometry":{"type":"Point","coordinates":[-57.115876630025,-25.626409256235]}},{"type":"Feature","properties":{"category":"flow_arrow","class":"tributary","from":[-57.115876630025,-25.626409256235],"to":[-57.115321074485,-25.626409256235]},"geometry":{"type":"Point","coordinates":[-57.115876630025,-25.626409256235]}},{"type":"Feature","properties":{"category":"flow_arrow","class":"tributary","from":[-57.115876630025,-25.626409256235],"to":[-57.115321074485,-25.626409256235]},"geometry":{"type":"Point","coordinates":[-57.115876630025,-25.626409256235]}},{"type":"Feature","properties":{"category":"flow_arrow","class":"tributary","from":[-57.112543296785,-25.667520366195],"to":[-57.113098852325,-25.666964810655]},"geometry":{"type":"Point","coordinates":[-57.112543296785,-25.667520366195]}},{"type":"Feature","properties":{"category":"flow_arrow","class":"tributary","from":[-57.111432185705,-25.546964814015],"to":[-57.113098852325,-25.549187036175]},"geometry":{"type":"Point","coordinates":[-57.111432185705,-25.546964814015]}},{"type":"Feature","properties":{"category":"flow_arrow","class":"tributary","from":[-57.112543296785,-25.549187036175],"to":[-57.113098852325,-25.549187036175]},"geometry":{"type":"Point","coordinates":[-57.112543296785,-25.549187036175]}},{"type":"Feature","properties":{"category":"flow_arrow","class":"tributary","from":[-57.112543296785,-25.549187036175],"to":[-57.113098852325,-25.549187036175]},"geometry":{"type":"Point","coordinates":[-57.112543296785,-25.549187036175]}},{"type":"Feature","properties":{"category":"flow_arrow","class":"tributary","from":[-57.112543296785,-25.549187036175],"to":[-57.113098852325,-25.549187036175]},"geometry":{"type":"Point","coordinates":[-57.112543296785,-25.549187036175]}},{"type":"Feature","properties":{"category":"flow_arrow","class":"tributary","from":[-57.112543296785,-25.549187036175],"to":[-57.113098852325,-25.549187036175]},"geometry":{"type":"Point","coordinates":[-57.112543296785,-25.549187036175]}},{"type":"Feature","properties":{"category":"flow_arrow","class":"tributary","from":[-57.106432185845,-25.525298147955],"to":[-57.104209963685,-25.523075925795]},"geometry":{"type":"Point","coordinates":[-57.106432185845,-25.525298147955]}},{"type":"Feature","properties":{"category":"flow_arrow","class":"tributary","from":[-57.104209963685,-25.638075922575],"to":[-57.104765519225,-25.638631478115]},"geometry":{"type":"Point","coordinates":[-57.104209963685,-25.638075922575]}},{"type":"Feature","properties":{"category":"flow_arrow","class":"tributary","from":[-57.103654408145,-25.557520369275],"to":[-57.106432185845,-25.556964813735]},"geometry":{"type":"Point","coordinates":[-57.103654408145,-25.557520369275]}},{"type":"Feature","properties":{"category":"flow_arrow","class":"tributary","from":[-57.103654408145,-25.560298146975],"to":[-57.104209963685,-25.560298146975]},"geometry":{"type":"Point","coordinates":[-57.103654408145,-25.560298146975]}},{"type":"Feature","properties":{"category":"flow_arrow","class":"tributary","from":[-57.101987741525,-25.547520369555],"to":[-57.103098852605,-25.550298147255]},"geometry":{"type":"Point","coordinates":[-57.101987741525,-25.547520369555]}},{"type":"Feature","properties":{"category":"flow_arrow","class":"tributary","from":[-57.103098852605,-25.549742591715],"to":[-57.103098852605,-25.550298147255]},"geometry":{"type":"Point","coordinates":[-57.103098852605,-25.549742591715]}},{"type":"Feature","properties":{"category":"flow_arrow","class":"tributary","from":[-57.103098852605,-25.549742591715],"to":[-57.103098852605,-25.550298147255]},"geometry":{"type":"Point","coordinates":[-57.103098852605,-25.549742591715]}},{"type":"Feature","properties":{"category":"flow_arrow","class":"tributary","from":[-57.103098852605,-25.549742591715],"to":[-57.103098852605,-25.550298147255]},"geometry":{"type":"Point","coordinates":[-57.103098852605,-25.549742591715]}},{"type":"Feature","properties":{"category":"flow_arrow","class":"tributary","from":[-57.103098852605,-25.549742591715],"to":[-57.103098852605,-25.550298147255]},"geometry":{"type":"Point","coordinates":[-57.103098852605,-25.549742591715]}},{"type":"Feature","properties":{"category":"flow_arrow","class":"tributary","from":[-57.101432185985,-25.610853701114998],"to":[-57.101987741525,-25.610298145575]},"geometry":{"type":"Point","coordinates":[-57.101432185985,-25.610853701114998]}},{"type":"Feature","properties":{"category":"flow_arrow","class":"tributary","from":[-57.101432185985,-25.627520367315],"to":[-57.101987741525,-25.628075922855]},"geometry":{"type":"Point","coordinates":[-57.101432185985,-25.627520367315]}},{"type":"Feature","properties":{"category":"flow_arrow","class":"tributary","from":[-57.099765519365,-25.563075924675],"to":[-57.100321074905,-25.563075924675]},"geometry":{"type":"Point","coordinates":[-57.099765519365,-25.563075924675]}},{"type":"Feature","properties":{"category":"flow_arrow","class":"main","from":[-57.099209963825,-25.633631478255],"to":[-57.101987741525,-25.632520367175]},"geometry":{"type":"Point","coordinates":[-57.099209963825,-25.633631478255]}},{"type":"Feature","properties":{"category":"flow_arrow","class":"main","from":[-57.118098852185,-25.633631478255],"to":[-57.117543296645,-25.633075922715]},"geometry":{"type":"Point","coordinates":[-57.118098852185,-25.633631478255]}},{"type":"Feature","properties":{"category":"flow_arrow","class":"main","from":[-57.118098852185,-25.633631478255],"to":[-57.117543296645,-25.633075922715]},"geometry":{"type":"Point","coordinates":[-57.118098852185,-25.633631478255]}},{"type":"Feature","properties":{"category":"flow_arrow","class":"main","from":[-57.118098852185,-25.633631478255],"to":[-57.117543296645,-25.633075922715]},"geometry":{"type":"Point","coordinates":[-57.118098852185,-25.633631478255]}},{"type":"Feature","properties":{"category":"flow_arrow","class":"main","from":[-57.118098852185,-25.633631478255],"to":[-57.117543296645,-25.633075922715]},"geometry":{"type":"Point","coordinates":[-57.118098852185,-25.633631478255]}},{"type":"Feature","properties":{"category":"flow_arrow","class":"main","from":[-57.118098852185,-25.633631478255],"to":[-57.117543296645,-25.633075922715]},"geometry":{"type":"Point","coordinates":[-57.118098852185,-25.633631478255]}},{"type":"Feature","properties":{"category":"flow_arrow","class":"main","from":[-57.118098852185,-25.633631478255],"to":[-57.117543296645,-25.633075922715]},"geometry":{"type":"Point","coordinates":[-57.118098852185,-25.633631478255]}},{"type":"Feature","properties":{"category":"flow_arrow","class":"main","from":[-57.118098852185,-25.633631478255],"to":[-57.117543296645,-25.633075922715]},"geometry":{"type":"Point","coordinates":[-57.118098852185,-25.633631478255]}},{"type":"Feature","properties":{"category":"flow_arrow","class":"tributary","from":[-57.095876630584996,-25.681409254694998],"to":[-57.098654408285,-25.683075921314998]},"geometry":{"type":"Point","coordinates":[-57.095876630584996,-25.681409254694998]}},{"type":"Feature","properties":{"category":"flow_arrow","class":"main","from":[-57.091432186265,-25.662520366335],"to":[-57.094209963965,-25.662520366335]},"geometry":{"type":"Point","coordinates":[-57.091432186265,-25.662520366335]}},{"type":"Feature","properties":{"category":"flow_arrow","class":"tributary","from":[-57.088654408565,-25.542520369694998],"to":[-57.089209964105,-25.539742591995]},"geometry":{"type":"Point","coordinates":[-57.088654408565,-25.542520369694998]}},{"type":"Feature","properties":{"category":"flow_arrow","class":"tributary","from":[-57.083654408705,-25.530853703355],"to":[-57.084209964245,-25.530853703355]},"geometry":{"type":"Point","coordinates":[-57.083654408705,-25.530853703355]}},{"type":"Feature","properties":{"category":"flow_arrow","class":"tributary","from":[-57.083654408705,-25.530853703355],"to":[-57.084209964245,-25.530853703355]},"geometry":{"type":"Point","coordinates":[-57.083654408705,-25.530853703355]}},{"type":"Feature","properties":{"category":"flow_arrow","class":"tributary","from":[-57.083654408705,-25.530853703355],"to":[-57.084209964245,-25.530853703355]},"geometry":{"type":"Point","coordinates":[-57.083654408705,-25.530853703355]}},{"type":"Feature","properties":{"category":"flow_arrow","class":"tributary","from":[-57.083654408705,-25.530853703355],"to":[-57.084209964245,-25.530853703355]},"geometry":{"type":"Point","coordinates":[-57.083654408705,-25.530853703355]}},{"type":"Feature","properties":{"category":"flow_arrow","class":"tributary","from":[-57.086432186405,-25.633631478255],"to":[-57.086432186405,-25.636409255954998]},"geometry":{"type":"Point","coordinates":[-57.086432186405,-25.633631478255]}},{"type":"Feature","properties":{"category":"flow_arrow","class":"tributary","from":[-57.085876630865,-25.538075925375],"to":[-57.085321075325,-25.535298147675]},"geometry":{"type":"Point","coordinates":[-57.085876630865,-25.538075925375]}},{"type":"Feature","properties":{"category":"flow_arrow","class":"tributary","from":[-57.081987742085,-25.531964814435],"to":[-57.082543297625,-25.532520369975]},"geometry":{"type":"Point","coordinates":[-57.081987742085,-25.531964814435]}},{"type":"Feature","properties":{"category":"flow_arrow","class":"tributary","from":[-57.081987742085,-25.531964814435],"to":[-57.082543297625,-25.532520369975]},"geometry":{"type":"Point","coordinates":[-57.081987742085,-25.531964814435]}},{"type":"Feature","properties":{"category":"flow_arrow","class":"tributary","from":[-57.081987742085,-25.531964814435],"to":[-57.082543297625,-25.532520369975]},"geometry":{"type":"Point","coordinates":[-57.081987742085,-25.531964814435]}},{"type":"Feature","properties":{"category":"flow_arrow","class":"tributary","from":[-57.081987742085,-25.531964814435],"to":[-57.082543297625,-25.532520369975]},"geometry":{"type":"Point","coordinates":[-57.081987742085,-25.531964814435]}},{"type":"Feature","properties":{"category":"flow_arrow","class":"tributary","from":[-57.082543297625,-25.541964814154998],"to":[-57.082543297625,-25.541409258615]},"geometry":{"type":"Point","coordinates":[-57.082543297625,-25.541964814154998]}},{"type":"Feature","properties":{"category":"flow_arrow","class":"tributary","from":[-57.081432186545,-25.549187036175],"to":[-57.079209964385,-25.546409258475]},"geometry":{"type":"Point","coordinates":[-57.081432186545,-25.549187036175]}},{"type":"Feature","properties":{"category":"flow_arrow","class":"tributary","from":[-57.078098853305,-25.541409258615],"to":[-57.078098853305,-25.541964814154998]},"geometry":{"type":"Point","coordinates":[-57.078098853305,-25.541409258615]}},{"type":"Feature","properties":{"category":"flow_arrow","class":"tributary","from":[-57.078098853305,-25.541409258615],"to":[-57.078098853305,-25.541964814154998]},"geometry":{"type":"Point","coordinates":[-57.078098853305,-25.541409258615]}},{"type":"Feature","properties":{"category":"flow_arrow","class":"tributary","from":[-57.078098853305,-25.541409258615],"to":[-57.078098853305,-25.541964814154998]},"geometry":{"type":"Point","coordinates":[-57.078098853305,-25.541409258615]}},{"type":"Feature","properties":{"category":"flow_arrow","class":"tributary","from":[-57.078098853305,-25.541409258615],"to":[-57.078098853305,-25.541964814154998]},"geometry":{"type":"Point","coordinates":[-57.078098853305,-25.541409258615]}},{"type":"Feature","properties":{"category":"flow_arrow","class":"tributary","from":[-57.081432186545,-25.594742590455],"to":[-57.081987742085,-25.596409257075]},"geometry":{"type":"Point","coordinates":[-57.081432186545,-25.594742590455]}},{"type":"Feature","properties":{"category":"flow_arrow","class":"tributary","from":[-57.072543297905,-25.520298148094998],"to":[-57.075321075605,-25.518631481474998]},"geometry":{"type":"Point","coordinates":[-57.072543297905,-25.520298148094998]}},{"type":"Feature","properties":{"category":"flow_arrow","class":"tributary","from":[-57.075876631145,-25.518631481474998],"to":[-57.076432186685,-25.518631481474998]},"geometry":{"type":"Point","coordinates":[-57.075876631145,-25.518631481474998]}},{"type":"Feature","properties":{"category":"flow_arrow","class":"tributary","from":[-57.075876631145,-25.518631481474998],"to":[-57.076432186685,-25.518631481474998]},"geometry":{"type":"Point","coordinates":[-57.075876631145,-25.518631481474998]}},{"type":"Feature","properties":{"category":"flow_arrow","class":"tributary","from":[-57.075876631145,-25.518631481474998],"to":[-57.076432186685,-25.518631481474998]},"geometry":{"type":"Point","coordinates":[-57.075876631145,-25.518631481474998]}},{"type":"Feature","properties":{"category":"flow_arrow","class":"tributary","from":[-57.075876631145,-25.518631481474998],"to":[-57.076432186685,-25.518631481474998]},"geometry":{"type":"Point","coordinates":[-57.075876631145,-25.518631481474998]}},{"type":"Feature","properties":{"category":"flow_arrow","class":"main","from":[-57.072543297905,-25.556409258195],"to":[-57.073654408985,-25.553631480495]},"geometry":{"type":"Point","coordinates":[-57.072543297905,-25.556409258195]}},{"type":"Feature","properties":{"category":"flow_arrow","class":"main","from":[-57.076432186685,-25.543075925234998],"to":[-57.076432186685,-25.543631480774998]},"geometry":{"type":"Point","coordinates":[-57.076432186685,-25.543075925234998]}},{"type":"Feature","properties":{"category":"flow_arrow","class":"main","from":[-57.076432186685,-25.543075925234998],"to":[-57.076432186685,-25.543631480774998]},"geometry":{"type":"Point","coordinates":[-57.076432186685,-25.543075925234998]}},{"type":"Feature","properties":{"category":"flow_arrow","class":"main","from":[-57.076432186685,-25.543075925234998],"to":[-57.076432186685,-25.543631480774998]},"geometry":{"type":"Point","coordinates":[-57.076432186685,-25.543075925234998]}},{"type":"Feature","properties":{"category":"flow_arrow","class":"main","from":[-57.076432186685,-25.543075925234998],"to":[-57.076432186685,-25.543631480774998]},"geometry":{"type":"Point","coordinates":[-57.076432186685,-25.543075925234998]}},{"type":"Feature","properties":{"category":"flow_arrow","class":"main","from":[-57.076432186685,-25.543075925234998],"to":[-57.076432186685,-25.543631480774998]},"geometry":{"type":"Point","coordinates":[-57.076432186685,-25.543075925234998]}},{"type":"Feature","properties":{"category":"flow_arrow","class":"main","from":[-57.076432186685,-25.543075925234998],"to":[-57.076432186685,-25.543631480774998]},"geometry":{"type":"Point","coordinates":[-57.076432186685,-25.543075925234998]}},{"type":"Feature","properties":{"category":"flow_arrow","class":"main","from":[-57.076432186685,-25.543075925234998],"to":[-57.076432186685,-25.543631480774998]},"geometry":{"type":"Point","coordinates":[-57.076432186685,-25.543075925234998]}},{"type":"Feature","properties":{"category":"flow_arrow","class":"tributary","from":[-57.071987742365,-25.623075922995],"to":[-57.074765520065,-25.623075922995]},"geometry":{"type":"Point","coordinates":[-57.071987742365,-25.623075922995]}},{"type":"Feature","properties":{"category":"flow_arrow","class":"tributary","from":[-57.084765519785,-25.630298145015],"to":[-57.084765519785,-25.629742589475]},"geometry":{"type":"Point","coordinates":[-57.084765519785,-25.630298145015]}},{"type":"Feature","properties":{"category":"flow_arrow","class":"tributary","from":[-57.084765519785,-25.630298145015],"to":[-57.084765519785,-25.629742589475]},"geometry":{"type":"Point","coordinates":[-57.084765519785,-25.630298145015]}},{"type":"Feature","properties":{"category":"flow_arrow","class":"tributary","from":[-57.084765519785,-25.630298145015],"to":[-57.084765519785,-25.629742589475]},"geometry":{"type":"Point","coordinates":[-57.084765519785,-25.630298145015]}},{"type":"Feature","properties":{"category":"flow_arrow","class":"tributary","from":[-57.084765519785,-25.630298145015],"to":[-57.084765519785,-25.629742589475]},"geometry":{"type":"Point","coordinates":[-57.084765519785,-25.630298145015]}},{"type":"Feature","properties":{"category":"flow_arrow","class":"tributary","from":[-57.068098853585,-25.675853699295],"to":[-57.070876631285,-25.674742588215]},"geometry":{"type":"Point","coordinates":[-57.068098853585,-25.675853699295]}},{"type":"Feature","properties":{"category":"flow_arrow","class":"tributary","from":[-57.073654408985,-25.675298143755],"to":[-57.073654408985,-25.675853699295]},"geometry":{"type":"Point","coordinates":[-57.073654408985,-25.675298143755]}},{"type":"Feature","properties":{"category":"flow_arrow","class":"tributary","from":[-57.073654408985,-25.675298143755],"to":[-57.073654408985,-25.675853699295]},"geometry":{"type":"Point","coordinates":[-57.073654408985,-25.675298143755]}},{"type":"Feature","properties":{"category":"flow_arrow","class":"tributary","from":[-57.073654408985,-25.675298143755],"to":[-57.073654408985,-25.675853699295]},"geometry":{"type":"Point","coordinates":[-57.073654408985,-25.675298143755]}},{"type":"Feature","properties":{"category":"flow_arrow","class":"tributary","from":[-57.073654408985,-25.675298143755],"to":[-57.073654408985,-25.675853699295]},"geometry":{"type":"Point","coordinates":[-57.073654408985,-25.675298143755]}},{"type":"Feature","properties":{"category":"flow_arrow","class":"tributary","from":[-57.065876631425,-25.646409255675],"to":[-57.068654409125,-25.646409255675]},"geometry":{"type":"Point","coordinates":[-57.065876631425,-25.646409255675]}},{"type":"Feature","properties":{"category":"flow_arrow","class":"tributary","from":[-57.069209964665,-25.646409255675],"to":[-57.068654409125,-25.646409255675]},"geometry":{"type":"Point","coordinates":[-57.069209964665,-25.646409255675]}},{"type":"Feature","properties":{"category":"flow_arrow","class":"tributary","from":[-57.069209964665,-25.646409255675],"to":[-57.068654409125,-25.646409255675]},"geometry":{"type":"Point","coordinates":[-57.069209964665,-25.646409255675]}},{"type":"Feature","properties":{"category":"flow_arrow","class":"tributary","from":[-57.069209964665,-25.646409255675],"to":[-57.068654409125,-25.646409255675]},"geometry":{"type":"Point","coordinates":[-57.069209964665,-25.646409255675]}},{"type":"Feature","properties":{"category":"flow_arrow","class":"tributary","from":[-57.069209964665,-25.646409255675],"to":[-57.068654409125,-25.646409255675]},"geometry":{"type":"Point","coordinates":[-57.069209964665,-25.646409255675]}},{"type":"Feature","properties":{"category":"flow_arrow","class":"tributary","from":[-57.064765520345,-25.534187036595],"to":[-57.063654409265,-25.531409258895]},"geometry":{"type":"Point","coordinates":[-57.064765520345,-25.534187036595]}},{"type":"Feature","properties":{"category":"flow_arrow","class":"tributary","from":[-57.061432187105,-25.529187036735],"to":[-57.060876631565,-25.529187036735]},"geometry":{"type":"Point","coordinates":[-57.061432187105,-25.529187036735]}},{"type":"Feature","properties":{"category":"flow_arrow","class":"tributary","from":[-57.061432187105,-25.529187036735],"to":[-57.060876631565,-25.529187036735]},"geometry":{"type":"Point","coordinates":[-57.061432187105,-25.529187036735]}},{"type":"Feature","properties":{"category":"flow_arrow","class":"tributary","from":[-57.061432187105,-25.529187036735],"to":[-57.060876631565,-25.529187036735]},"geometry":{"type":"Point","coordinates":[-57.061432187105,-25.529187036735]}},{"type":"Feature","properties":{"category":"flow_arrow","class":"tributary","from":[-57.061432187105,-25.529187036735],"to":[-57.060876631565,-25.529187036735]},"geometry":{"type":"Point","coordinates":[-57.061432187105,-25.529187036735]}},{"type":"Feature","properties":{"category":"flow_arrow","class":"tributary","from":[-57.064765520345,-25.666964810655],"to":[-57.066432186965,-25.666964810655]},"geometry":{"type":"Point","coordinates":[-57.064765520345,-25.666964810655]}},{"type":"Feature","properties":{"category":"flow_arrow","class":"tributary","from":[-57.065876631425,-25.666964810655],"to":[-57.066432186965,-25.666964810655]},"geometry":{"type":"Point","coordinates":[-57.065876631425,-25.666964810655]}},{"type":"Feature","properties":{"category":"flow_arrow","class":"tributary","from":[-57.065876631425,-25.666964810655],"to":[-57.066432186965,-25.666964810655]},"geometry":{"type":"Point","coordinates":[-57.065876631425,-25.666964810655]}},{"type":"Feature","properties":{"category":"flow_arrow","class":"tributary","from":[-57.065876631425,-25.666964810655],"to":[-57.066432186965,-25.666964810655]},"geometry":{"type":"Point","coordinates":[-57.065876631425,-25.666964810655]}},{"type":"Feature","properties":{"category":"flow_arrow","class":"tributary","from":[-57.065876631425,-25.666964810655],"to":[-57.066432186965,-25.666964810655]},"geometry":{"type":"Point","coordinates":[-57.065876631425,-25.666964810655]}},{"type":"Feature","properties":{"category":"flow_arrow","class":"tributary","from":[-57.062543298185,-25.572520368855],"to":[-57.065321075885,-25.572520368855]},"geometry":{"type":"Point","coordinates":[-57.062543298185,-25.572520368855]}},{"type":"Feature","properties":{"category":"flow_arrow","class":"tributary","from":[-57.062543298185,-25.589742590594998],"to":[-57.064765520345,-25.590853701674998]},"geometry":{"type":"Point","coordinates":[-57.062543298185,-25.589742590594998]}},{"type":"Feature","properties":{"category":"flow_arrow","class":"tributary","from":[-57.061987742645,-25.688631476715],"to":[-57.064765520345,-25.690298143335]},"geometry":{"type":"Point","coordinates":[-57.061987742645,-25.688631476715]}},{"type":"Feature","properties":{"category":"flow_arrow","class":"tributary","from":[-57.061432187105,-25.565298146834998],"to":[-57.061987742645,-25.565298146834998]},"geometry":{"type":"Point","coordinates":[-57.061432187105,-25.565298146834998]}},{"type":"Feature","properties":{"category":"flow_arrow","class":"tributary","from":[-57.060321076025,-25.543631480774998],"to":[-57.060876631565,-25.543075925234998]},"geometry":{"type":"Point","coordinates":[-57.060321076025,-25.543631480774998]}},{"type":"Feature","properties":{"category":"flow_arrow","class":"tributary","from":[-57.059209964945,-25.667520366195],"to":[-57.061432187105,-25.665298144035]},"geometry":{"type":"Point","coordinates":[-57.059209964945,-25.667520366195]}},{"type":"Feature","properties":{"category":"flow_arrow","class":"tributary","from":[-57.058098853865,-25.652520366615],"to":[-57.058654409405,-25.655298144315]},"geometry":{"type":"Point","coordinates":[-57.058098853865,-25.652520366615]}},{"type":"Feature","properties":{"category":"flow_arrow","class":"tributary","from":[-57.056987742785,-25.626409256235],"to":[-57.057543298325,-25.626964811775]},"geometry":{"type":"Point","coordinates":[-57.056987742785,-25.626409256235]}},{"type":"Feature","properties":{"category":"flow_arrow","class":"tributary","from":[-57.056987742785,-25.696409254275],"to":[-57.057543298325,-25.698631476435]},"geometry":{"type":"Point","coordinates":[-57.056987742785,-25.696409254275]}},{"type":"Feature","properties":{"category":"flow_arrow","class":"tributary","from":[-57.053098854005,-25.665298144035],"to":[-57.053654409545,-25.664742588495]},"geometry":{"type":"Point","coordinates":[-57.053098854005,-25.665298144035]}},{"type":"Feature","properties":{"category":"flow_arrow","class":"tributary","from":[-57.051987742925,-25.540298147535],"to":[-57.051987742925,-25.539742591995]},"geometry":{"type":"Point","coordinates":[-57.051987742925,-25.540298147535]}},{"type":"Feature","properties":{"category":"flow_arrow","class":"tributary","from":[-57.050876631845,-25.599187034775],"to":[-57.053098854005,-25.601409256935]},"geometry":{"type":"Point","coordinates":[-57.050876631845,-25.599187034775]}},{"type":"Feature","properties":{"category":"flow_arrow","class":"tributary","from":[-57.050321076304996,-25.630853700555],"to":[-57.050876631845,-25.630298145015]},"geometry":{"type":"Point","coordinates":[-57.050321076304996,-25.630853700555]}},{"type":"Feature","properties":{"category":"flow_arrow","class":"tributary","from":[-57.049209965225,-25.519742592554998],"to":[-57.051432187385,-25.518631481474998]},"geometry":{"type":"Point","coordinates":[-57.049209965225,-25.519742592554998]}},{"type":"Feature","properties":{"category":"flow_arrow","class":"tributary","from":[-57.050876631845,-25.518631481474998],"to":[-57.051432187385,-25.518631481474998]},"geometry":{"type":"Point","coordinates":[-57.050876631845,-25.518631481474998]}},{"type":"Feature","properties":{"category":"flow_arrow","class":"tributary","from":[-57.050876631845,-25.518631481474998],"to":[-57.051432187385,-25.518631481474998]},"geometry":{"type":"Point","coordinates":[-57.050876631845,-25.518631481474998]}},{"type":"Feature","properties":{"category":"flow_arrow","class":"tributary","from":[-57.050876631845,-25.518631481474998],"to":[-57.051432187385,-25.518631481474998]},"geometry":{"type":"Point","coordinates":[-57.050876631845,-25.518631481474998]}},{"type":"Feature","properties":{"category":"flow_arrow","class":"tributary","from":[-57.050876631845,-25.518631481474998],"to":[-57.051432187385,-25.518631481474998]},"geometry":{"type":"Point","coordinates":[-57.050876631845,-25.518631481474998]}},{"type":"Feature","properties":{"category":"flow_arrow","class":"tributary","from":[-57.048654409685,-25.630298145015],"to":[-57.049209965225,-25.629742589475]},"geometry":{"type":"Point","coordinates":[-57.048654409685,-25.630298145015]}},{"type":"Feature","properties":{"category":"flow_arrow","class":"tributary","from":[-57.043654409825,-25.529187036735],"to":[-57.040876632125,-25.528075925655]},"geometry":{"type":"Point","coordinates":[-57.043654409825,-25.529187036735]}},{"type":"Feature","properties":{"category":"flow_arrow","class":"tributary","from":[-57.043654409825,-25.613631478814998],"to":[-57.040876632125,-25.611964812194998]},"geometry":{"type":"Point","coordinates":[-57.043654409825,-25.613631478814998]}},{"type":"Feature","properties":{"category":"flow_arrow","class":"tributary","from":[-57.039765521045,-25.588075923974998],"to":[-57.036987743345,-25.586964812895]},"geometry":{"type":"Point","coordinates":[-57.039765521045,-25.588075923974998]}},{"type":"Feature","properties":{"category":"flow_arrow","class":"tributary","from":[-57.035321076725,-25.584742590735],"to":[-57.035321076725,-25.584187035195]},"geometry":{"type":"Point","coordinates":[-57.035321076725,-25.584742590735]}},{"type":"Feature","properties":{"category":"flow_arrow","class":"tributary","from":[-57.035321076725,-25.584742590735],"to":[-57.035321076725,-25.584187035195]},"geometry":{"type":"Point","coordinates":[-57.035321076725,-25.584742590735]}},{"type":"Feature","properties":{"category":"flow_arrow","class":"tributary","from":[-57.035321076725,-25.584742590735],"to":[-57.035321076725,-25.584187035195]},"geometry":{"type":"Point","coordinates":[-57.035321076725,-25.584742590735]}},{"type":"Feature","properties":{"category":"flow_arrow","class":"tributary","from":[-57.035321076725,-25.584742590735],"to":[-57.035321076725,-25.584187035195]},"geometry":{"type":"Point","coordinates":[-57.035321076725,-25.584742590735]}},{"type":"Feature","properties":{"category":"flow_arrow","class":"main","from":[-57.039765521045,-25.630853700555],"to":[-57.038098854425,-25.628075922855]},"geometry":{"type":"Point","coordinates":[-57.039765521045,-25.630853700555]}},{"type":"Feature","properties":{"category":"flow_arrow","class":"main","from":[-57.027543299164996,-25.619187034215],"to":[-57.026987743625,-25.619187034215]},"geometry":{"type":"Point","coordinates":[-57.027543299164996,-25.619187034215]}},{"type":"Feature","properties":{"category":"flow_arrow","class":"main","from":[-57.027543299164996,-25.619187034215],"to":[-57.026987743625,-25.619187034215]},"geometry":{"type":"Point","coordinates":[-57.027543299164996,-25.619187034215]}},{"type":"Feature","properties":{"category":"flow_arrow","class":"main","from":[-57.027543299164996,-25.619187034215],"to":[-57.026987743625,-25.619187034215]},"geometry":{"type":"Point","coordinates":[-57.027543299164996,-25.619187034215]}},{"type":"Feature","properties":{"category":"flow_arrow","class":"main","from":[-57.027543299164996,-25.619187034215],"to":[-57.026987743625,-25.619187034215]},"geometry":{"type":"Point","coordinates":[-57.027543299164996,-25.619187034215]}},{"type":"Feature","properties":{"category":"flow_arrow","class":"main","from":[-57.027543299164996,-25.619187034215],"to":[-57.026987743625,-25.619187034215]},"geometry":{"type":"Point","coordinates":[-57.027543299164996,-25.619187034215]}},{"type":"Feature","properties":{"category":"flow_arrow","class":"main","from":[-57.027543299164996,-25.619187034215],"to":[-57.026987743625,-25.619187034215]},"geometry":{"type":"Point","coordinates":[-57.027543299164996,-25.619187034215]}},{"type":"Feature","properties":{"category":"flow_arrow","class":"main","from":[-57.027543299164996,-25.619187034215],"to":[-57.026987743625,-25.619187034215]},"geometry":{"type":"Point","coordinates":[-57.027543299164996,-25.619187034215]}},{"type":"Feature","properties":{"category":"flow_arrow","class":"tributary","from":[-57.038654409965,-25.619187034215],"to":[-57.036432187805,-25.617520367595]},"geometry":{"type":"Point","coordinates":[-57.038654409965,-25.619187034215]}},{"type":"Feature","properties":{"category":"flow_arrow","class":"tributary","from":[-57.036432187805,-25.621409256375],"to":[-57.034209965645,-25.619742589755]},"geometry":{"type":"Point","coordinates":[-57.036432187805,-25.621409256375]}},{"type":"Feature","properties":{"category":"flow_arrow","class":"tributary","from":[-57.034209965645,-25.694742587655],"to":[-57.036987743345,-25.695298143195]},"geometry":{"type":"Point","coordinates":[-57.034209965645,-25.694742587655]}},{"type":"Feature","properties":{"category":"flow_arrow","class":"tributary","from":[-57.032543299025,-25.636964811494998],"to":[-57.031432187945,-25.634742589334998]},"geometry":{"type":"Point","coordinates":[-57.032543299025,-25.636964811494998]}},{"type":"Feature","properties":{"category":"flow_arrow","class":"tributary","from":[-57.027543299164996,-25.522520370255],"to":[-57.028098854705,-25.519742592554998]},"geometry":{"type":"Point","coordinates":[-57.027543299164996,-25.522520370255]}},{"type":"Feature","properties":{"category":"flow_arrow","class":"tributary","from":[-57.028654410245,-25.518631481474998],"to":[-57.028098854705,-25.518631481474998]},"geometry":{"type":"Point","coordinates":[-57.028654410245,-25.518631481474998]}},{"type":"Feature","properties":{"category":"flow_arrow","class":"tributary","from":[-57.028654410245,-25.518631481474998],"to":[-57.028098854705,-25.518631481474998]},"geometry":{"type":"Point","coordinates":[-57.028654410245,-25.518631481474998]}},{"type":"Feature","properties":{"category":"flow_arrow","class":"tributary","from":[-57.028654410245,-25.518631481474998],"to":[-57.028098854705,-25.518631481474998]},"geometry":{"type":"Point","coordinates":[-57.028654410245,-25.518631481474998]}},{"type":"Feature","properties":{"category":"flow_arrow","class":"tributary","from":[-57.028654410245,-25.518631481474998],"to":[-57.028098854705,-25.518631481474998]},"geometry":{"type":"Point","coordinates":[-57.028654410245,-25.518631481474998]}},{"type":"Feature","properties":{"category":"flow_arrow","class":"tributary","from":[-57.026987743625,-25.591409257215],"to":[-57.029209965785,-25.589187035054998]},"geometry":{"type":"Point","coordinates":[-57.026987743625,-25.591409257215]}},{"type":"Feature","properties":{"category":"flow_arrow","class":"tributary","from":[-57.028098854705,-25.588075923974998],"to":[-57.028654410245,-25.588075923974998]},"geometry":{"type":"Point","coordinates":[-57.028098854705,-25.588075923974998]}},{"type":"Feature","properties":{"category":"flow_arrow","class":"tributary","from":[-57.028098854705,-25.588075923974998],"to":[-57.028654410245,-25.588075923974998]},"geometry":{"type":"Point","coordinates":[-57.028098854705,-25.588075923974998]}},{"type":"Feature","properties":{"category":"flow_arrow","class":"tributary","from":[-57.028098854705,-25.588075923974998],"to":[-57.028654410245,-25.588075923974998]},"geometry":{"type":"Point","coordinates":[-57.028098854705,-25.588075923974998]}},{"type":"Feature","properties":{"category":"flow_arrow","class":"tributary","from":[-57.028098854705,-25.588075923974998],"to":[-57.028654410245,-25.588075923974998]},"geometry":{"type":"Point","coordinates":[-57.028098854705,-25.588075923974998]}},{"type":"Feature","properties":{"category":"flow_arrow","class":"tributary","from":[-57.026987743625,-25.684187032395],"to":[-57.027543299164996,-25.684187032395]},"geometry":{"type":"Point","coordinates":[-57.026987743625,-25.684187032395]}},{"type":"Feature","properties":{"category":"flow_arrow","class":"tributary","from":[-57.023098854845,-25.673631477135],"to":[-57.025321077005,-25.675853699295]},"geometry":{"type":"Point","coordinates":[-57.023098854845,-25.673631477135]}},{"type":"Feature","properties":{"category":"flow_arrow","class":"tributary","from":[-57.016987743905,-25.592520368295],"to":[-57.014209966205,-25.591964812755]},"geometry":{"type":"Point","coordinates":[-57.016987743905,-25.592520368295]}},{"type":"Feature","properties":{"category":"flow_arrow","class":"tributary","from":[-57.013654410665,-25.591964812755],"to":[-57.014209966205,-25.591964812755]},"geometry":{"type":"Point","coordinates":[-57.013654410665,-25.591964812755]}},{"type":"Feature","properties":{"category":"flow_arrow","class":"tributary","from":[-57.013654410665,-25.591964812755],"to":[-57.014209966205,-25.591964812755]},"geometry":{"type":"Point","coordinates":[-57.013654410665,-25.591964812755]}},{"type":"Feature","properties":{"category":"flow_arrow","class":"tributary","from":[-57.013654410665,-25.591964812755],"to":[-57.014209966205,-25.591964812755]},"geometry":{"type":"Point","coordinates":[-57.013654410665,-25.591964812755]}},{"type":"Feature","properties":{"category":"flow_arrow","class":"tributary","from":[-57.013654410665,-25.591964812755],"to":[-57.014209966205,-25.591964812755]},"geometry":{"type":"Point","coordinates":[-57.013654410665,-25.591964812755]}},{"type":"Feature","properties":{"category":"flow_arrow","class":"tributary","from":[-57.015876632825,-25.524742592415],"to":[-57.013654410665,-25.523075925795]},"geometry":{"type":"Point","coordinates":[-57.015876632825,-25.524742592415]}},{"type":"Feature","properties":{"category":"flow_arrow","class":"tributary","from":[-57.004209966485,-25.518631481474998],"to":[-57.004765522025,-25.518631481474998]},"geometry":{"type":"Point","coordinates":[-57.004209966485,-25.518631481474998]}},{"type":"Feature","properties":{"category":"flow_arrow","class":"tributary","from":[-57.004209966485,-25.518631481474998],"to":[-57.004765522025,-25.518631481474998]},"geometry":{"type":"Point","coordinates":[-57.004209966485,-25.518631481474998]}},{"type":"Feature","properties":{"category":"flow_arrow","class":"tributary","from":[-57.004209966485,-25.518631481474998],"to":[-57.004765522025,-25.518631481474998]},"geometry":{"type":"Point","coordinates":[-57.004209966485,-25.518631481474998]}},{"type":"Feature","properties":{"category":"flow_arrow","class":"tributary","from":[-57.004209966485,-25.518631481474998],"to":[-57.004765522025,-25.518631481474998]},"geometry":{"type":"Point","coordinates":[-57.004209966485,-25.518631481474998]}},{"type":"Feature","properties":{"category":"flow_arrow","class":"main","from":[-57.013654410665,-25.694742587655],"to":[-57.016432188365,-25.696409254275]},"geometry":{"type":"Point","coordinates":[-57.013654410665,-25.694742587655]}},{"type":"Feature","properties":{"category":"flow_arrow","class":"main","from":[-57.013098855125,-25.671964810515],"to":[-57.013654410665,-25.669187032815]},"geometry":{"type":"Point","coordinates":[-57.013098855125,-25.671964810515]}},{"type":"Feature","properties":{"category":"flow_arrow","class":"tributary","from":[-57.009209966345,-25.518631481474998],"to":[-57.008098855265,-25.518631481474998]},"geometry":{"type":"Point","coordinates":[-57.009209966345,-25.518631481474998]}},{"type":"Feature","properties":{"category":"flow_arrow","class":"tributary","from":[-57.003098855405,-25.554187036035],"to":[-57.005321077565,-25.556409258195]},"geometry":{"type":"Point","coordinates":[-57.003098855405,-25.554187036035]}},{"type":"Feature","properties":{"category":"flow_arrow","class":"tributary","from":[-57.003098855405,-25.595853701535],"to":[-57.002543299865,-25.595853701535]},"geometry":{"type":"Point","coordinates":[-57.003098855405,-25.595853701535]}},{"type":"Feature","properties":{"category":"flow_arrow","class":"tributary","from":[-57.003098855405,-25.683631476855],"to":[-57.003098855405,-25.683075921314998]},"geometry":{"type":"Point","coordinates":[-57.003098855405,-25.683631476855]}},{"type":"Feature","properties":{"category":"flow_arrow","class":"tributary","from":[-57.002543299865,-25.668075921735],"to":[-56.999765522165,-25.666964810655]},"geometry":{"type":"Point","coordinates":[-57.002543299865,-25.668075921735]}},{"type":"Feature","properties":{"category":"flow_arrow","class":"tributary","from":[-56.999765522165,-25.574187035475],"to":[-56.998654411085,-25.574187035475]},"geometry":{"type":"Point","coordinates":[-56.999765522165,-25.574187035475]}},{"type":"Feature","properties":{"category":"flow_arrow","class":"tributary","from":[-56.998654411085,-25.523075925795],"to":[-56.996987744465,-25.522520370255]},"geometry":{"type":"Point","coordinates":[-56.998654411085,-25.523075925795]}},{"type":"Feature","properties":{"category":"flow_arrow","class":"tributary","from":[-56.992543300145,-25.663075921875],"to":[-56.993098855685,-25.663075921875]},"geometry":{"type":"Point","coordinates":[-56.992543300145,-25.663075921875]}},{"type":"Feature","properties":{"category":"flow_arrow","class":"tributary","from":[-56.993654411225,-25.663631477415],"to":[-56.993098855685,-25.663075921875]},"geometry":{"type":"Point","coordinates":[-56.993654411225,-25.663631477415]}},{"type":"Feature","properties":{"category":"flow_arrow","class":"tributary","from":[-56.993654411225,-25.663631477415],"to":[-56.993098855685,-25.663075921875]},"geometry":{"type":"Point","coordinates":[-56.993654411225,-25.663631477415]}},{"type":"Feature","properties":{"category":"flow_arrow","class":"tributary","from":[-56.993654411225,-25.663631477415],"to":[-56.993098855685,-25.663075921875]},"geometry":{"type":"Point","coordinates":[-56.993654411225,-25.663631477415]}},{"type":"Feature","properties":{"category":"flow_arrow","class":"tributary","from":[-56.993654411225,-25.663631477415],"to":[-56.993098855685,-25.663075921875]},"geometry":{"type":"Point","coordinates":[-56.993654411225,-25.663631477415]}},{"type":"Feature","properties":{"category":"flow_arrow","class":"tributary","from":[-56.988654411365,-25.537520369835],"to":[-56.985876633665,-25.536409258755]},"geometry":{"type":"Point","coordinates":[-56.988654411365,-25.537520369835]}},{"type":"Feature","properties":{"category":"flow_arrow","class":"tributary","from":[-56.986987744745,-25.652520366615],"to":[-56.989765522445,-25.650853699995]},"geometry":{"type":"Point","coordinates":[-56.986987744745,-25.652520366615]}},{"type":"Feature","properties":{"category":"flow_arrow","class":"tributary","from":[-56.990321077985,-25.650853699995],"to":[-56.990321077985,-25.650298144455]},"geometry":{"type":"Point","coordinates":[-56.990321077985,-25.650853699995]}},{"type":"Feature","properties":{"category":"flow_arrow","class":"tributary","from":[-56.990321077985,-25.650853699995],"to":[-56.990321077985,-25.650298144455]},"geometry":{"type":"Point","coordinates":[-56.990321077985,-25.650853699995]}},{"type":"Feature","properties":{"category":"flow_arrow","class":"tributary","from":[-56.990321077985,-25.650853699995],"to":[-56.990321077985,-25.650298144455]},"geometry":{"type":"Point","coordinates":[-56.990321077985,-25.650853699995]}},{"type":"Feature","properties":{"category":"flow_arrow","class":"tributary","from":[-56.990321077985,-25.650853699995],"to":[-56.990321077985,-25.650298144455]},"geometry":{"type":"Point","coordinates":[-56.990321077985,-25.650853699995]}},{"type":"Feature","properties":{"category":"flow_arrow","class":"tributary","from":[-56.979765522725,-25.524742592415],"to":[-56.980321078265,-25.521964814715]},"geometry":{"type":"Point","coordinates":[-56.979765522725,-25.524742592415]}},{"type":"Feature","properties":{"category":"flow_arrow","class":"tributary","from":[-56.979765522725,-25.519187037014998],"to":[-56.979765522725,-25.518631481474998]},"geometry":{"type":"Point","coordinates":[-56.979765522725,-25.519187037014998]}},{"type":"Feature","properties":{"category":"flow_arrow","class":"tributary","from":[-56.979765522725,-25.519187037014998],"to":[-56.979765522725,-25.518631481474998]},"geometry":{"type":"Point","coordinates":[-56.979765522725,-25.519187037014998]}},{"type":"Feature","properties":{"category":"flow_arrow","class":"tributary","from":[-56.979765522725,-25.519187037014998],"to":[-56.979765522725,-25.518631481474998]},"geometry":{"type":"Point","coordinates":[-56.979765522725,-25.519187037014998]}},{"type":"Feature","properties":{"category":"flow_arrow","class":"tributary","from":[-56.979765522725,-25.519187037014998],"to":[-56.979765522725,-25.518631481474998]},"geometry":{"type":"Point","coordinates":[-56.979765522725,-25.519187037014998]}},{"type":"Feature","properties":{"category":"flow_arrow","class":"tributary","from":[-56.975321078405,-25.555298147115],"to":[-56.972543300705,-25.553631480495]},"geometry":{"type":"Point","coordinates":[-56.975321078405,-25.555298147115]}},{"type":"Feature","properties":{"category":"flow_arrow","class":"tributary","from":[-56.974765522865,-25.645853700135],"to":[-56.976987745025,-25.643075922435]},"geometry":{"type":"Point","coordinates":[-56.974765522865,-25.645853700135]}},{"type":"Feature","properties":{"category":"flow_arrow","class":"tributary","from":[-56.971432189625,-25.663075921875],"to":[-56.971432189625,-25.662520366335]},"geometry":{"type":"Point","coordinates":[-56.971432189625,-25.663075921875]}},{"type":"Feature","properties":{"category":"flow_arrow","class":"tributary","from":[-56.969765523005,-25.590853701674998],"to":[-56.969765523005,-25.588075923974998]},"geometry":{"type":"Point","coordinates":[-56.969765523005,-25.590853701674998]}},{"type":"Feature","properties":{"category":"flow_arrow","class":"tributary","from":[-56.963098856525,-25.573631479935],"to":[-56.963098856525,-25.573075924395]},"geometry":{"type":"Point","coordinates":[-56.963098856525,-25.573631479935]}},{"type":"Feature","properties":{"category":"flow_arrow","class":"tributary","from":[-56.963098856525,-25.573631479935],"to":[-56.963098856525,-25.573075924395]},"geometry":{"type":"Point","coordinates":[-56.963098856525,-25.573631479935]}},{"type":"Feature","properties":{"category":"flow_arrow","class":"tributary","from":[-56.963098856525,-25.573631479935],"to":[-56.963098856525,-25.573075924395]},"geometry":{"type":"Point","coordinates":[-56.963098856525,-25.573631479935]}},{"type":"Feature","properties":{"category":"flow_arrow","class":"tributary","from":[-56.963098856525,-25.573631479935],"to":[-56.963098856525,-25.573075924395]},"geometry":{"type":"Point","coordinates":[-56.963098856525,-25.573631479935]}},{"type":"Feature","properties":{"category":"flow_arrow","class":"tributary","from":[-56.968654411925,-25.655298144315],"to":[-56.970876634085,-25.653075922155]},"geometry":{"type":"Point","coordinates":[-56.968654411925,-25.655298144315]}},{"type":"Feature","properties":{"category":"flow_arrow","class":"tributary","from":[-56.965321078685,-25.614187034354998],"to":[-56.965876634225,-25.613631478814998]},"geometry":{"type":"Point","coordinates":[-56.965321078685,-25.614187034354998]}},{"type":"Feature","properties":{"category":"flow_arrow","class":"tributary","from":[-56.966432189765,-25.614187034354998],"to":[-56.965876634225,-25.613631478814998]},"geometry":{"type":"Point","coordinates":[-56.966432189765,-25.614187034354998]}},{"type":"Feature","properties":{"category":"flow_arrow","class":"tributary","from":[-56.966432189765,-25.614187034354998],"to":[-56.965876634225,-25.613631478814998]},"geometry":{"type":"Point","coordinates":[-56.966432189765,-25.614187034354998]}},{"type":"Feature","properties":{"category":"flow_arrow","class":"tributary","from":[-56.966432189765,-25.614187034354998],"to":[-56.965876634225,-25.613631478814998]},"geometry":{"type":"Point","coordinates":[-56.966432189765,-25.614187034354998]}},{"type":"Feature","properties":{"category":"flow_arrow","class":"tributary","from":[-56.966432189765,-25.614187034354998],"to":[-56.965876634225,-25.613631478814998]},"geometry":{"type":"Point","coordinates":[-56.966432189765,-25.614187034354998]}},{"type":"Feature","properties":{"category":"flow_arrow","class":"tributary","from":[-56.964209967605,-25.693631476575],"to":[-56.966432189765,-25.692520365495]},"geometry":{"type":"Point","coordinates":[-56.964209967605,-25.693631476575]}},{"type":"Feature","properties":{"category":"flow_arrow","class":"tributary","from":[-56.966987745305,-25.693075921035],"to":[-56.967543300845,-25.693075921035]},"geometry":{"type":"Point","coordinates":[-56.966987745305,-25.693075921035]}},{"type":"Feature","properties":{"category":"flow_arrow","class":"tributary","from":[-56.966987745305,-25.693075921035],"to":[-56.967543300845,-25.693075921035]},"geometry":{"type":"Point","coordinates":[-56.966987745305,-25.693075921035]}},{"type":"Feature","properties":{"category":"flow_arrow","class":"tributary","from":[-56.966987745305,-25.693075921035],"to":[-56.967543300845,-25.693075921035]},"geometry":{"type":"Point","coordinates":[-56.966987745305,-25.693075921035]}},{"type":"Feature","properties":{"category":"flow_arrow","class":"tributary","from":[-56.966987745305,-25.693075921035],"to":[-56.967543300845,-25.693075921035]},"geometry":{"type":"Point","coordinates":[-56.966987745305,-25.693075921035]}},{"type":"Feature","properties":{"category":"flow_arrow","class":"tributary","from":[-56.963654412065,-25.534742592135],"to":[-56.961432189905,-25.533631481055]},"geometry":{"type":"Point","coordinates":[-56.963654412065,-25.534742592135]}},{"type":"Feature","properties":{"category":"flow_arrow","class":"tributary","from":[-56.963654412065,-25.644742589055],"to":[-56.964209967605,-25.644742589055]},"geometry":{"type":"Point","coordinates":[-56.963654412065,-25.644742589055]}},{"type":"Feature","properties":{"category":"flow_arrow","class":"tributary","from":[-56.964765523145,-25.644742589055],"to":[-56.964209967605,-25.644742589055]},"geometry":{"type":"Point","coordinates":[-56.964765523145,-25.644742589055]}},{"type":"Feature","properties":{"category":"flow_arrow","class":"tributary","from":[-56.964765523145,-25.644742589055],"to":[-56.964209967605,-25.644742589055]},"geometry":{"type":"Point","coordinates":[-56.964765523145,-25.644742589055]}},{"type":"Feature","properties":{"category":"flow_arrow","class":"tributary","from":[-56.964765523145,-25.644742589055],"to":[-56.964209967605,-25.644742589055]},"geometry":{"type":"Point","coordinates":[-56.964765523145,-25.644742589055]}},{"type":"Feature","properties":{"category":"flow_arrow","class":"tributary","from":[-56.964765523145,-25.644742589055],"to":[-56.964209967605,-25.644742589055]},"geometry":{"type":"Point","coordinates":[-56.964765523145,-25.644742589055]}},{"type":"Feature","properties":{"category":"flow_arrow","class":"tributary","from":[-56.955876634505,-25.579187035335],"to":[-56.957543301125,-25.578075924255]},"geometry":{"type":"Point","coordinates":[-56.955876634505,-25.579187035335]}},{"type":"Feature","properties":{"category":"flow_arrow","class":"tributary","from":[-56.956987745584996,-25.578075924255],"to":[-56.957543301125,-25.578075924255]},"geometry":{"type":"Point","coordinates":[-56.956987745584996,-25.578075924255]}},{"type":"Feature","properties":{"category":"flow_arrow","class":"tributary","from":[-56.956987745584996,-25.578075924255],"to":[-56.957543301125,-25.578075924255]},"geometry":{"type":"Point","coordinates":[-56.956987745584996,-25.578075924255]}},{"type":"Feature","properties":{"category":"flow_arrow","class":"tributary","from":[-56.956987745584996,-25.578075924255],"to":[-56.957543301125,-25.578075924255]},"geometry":{"type":"Point","coordinates":[-56.956987745584996,-25.578075924255]}},{"type":"Feature","properties":{"category":"flow_arrow","class":"tributary","from":[-56.956987745584996,-25.578075924255],"to":[-56.957543301125,-25.578075924255]},"geometry":{"type":"Point","coordinates":[-56.956987745584996,-25.578075924255]}},{"type":"Feature","properties":{"category":"flow_arrow","class":"tributary","from":[-56.954765523425,-25.577520368715],"to":[-56.956987745584996,-25.575853702095]},"geometry":{"type":"Point","coordinates":[-56.954765523425,-25.577520368715]}},{"type":"Feature","properties":{"category":"flow_arrow","class":"tributary","from":[-56.950876634645,-25.605298145715],"to":[-56.950876634645,-25.604742590175]},"geometry":{"type":"Point","coordinates":[-56.950876634645,-25.605298145715]}},{"type":"Feature","properties":{"category":"flow_arrow","class":"tributary","from":[-56.950321079105,-25.604742590175],"to":[-56.950876634645,-25.604742590175]},"geometry":{"type":"Point","coordinates":[-56.950321079105,-25.604742590175]}},{"type":"Feature","properties":{"category":"flow_arrow","class":"tributary","from":[-56.950321079105,-25.604742590175],"to":[-56.950876634645,-25.604742590175]},"geometry":{"type":"Point","coordinates":[-56.950321079105,-25.604742590175]}},{"type":"Feature","properties":{"category":"flow_arrow","class":"tributary","from":[-56.950321079105,-25.604742590175],"to":[-56.950876634645,-25.604742590175]},"geometry":{"type":"Point","coordinates":[-56.950321079105,-25.604742590175]}},{"type":"Feature","properties":{"category":"flow_arrow","class":"tributary","from":[-56.950321079105,-25.604742590175],"to":[-56.950876634645,-25.604742590175]},"geometry":{"type":"Point","coordinates":[-56.950321079105,-25.604742590175]}},{"type":"Feature","properties":{"category":"flow_arrow","class":"tributary","from":[-56.950321079105,-25.557520369275],"to":[-56.950321079105,-25.554742591575]},"geometry":{"type":"Point","coordinates":[-56.950321079105,-25.557520369275]}},{"type":"Feature","properties":{"category":"flow_arrow","class":"tributary","from":[-56.952543301265,-25.548631480635],"to":[-56.953098856805,-25.549187036175]},"geometry":{"type":"Point","coordinates":[-56.952543301265,-25.548631480635]}},{"type":"Feature","properties":{"category":"flow_arrow","class":"tributary","from":[-56.952543301265,-25.548631480635],"to":[-56.953098856805,-25.549187036175]},"geometry":{"type":"Point","coordinates":[-56.952543301265,-25.548631480635]}},{"type":"Feature","properties":{"category":"flow_arrow","class":"tributary","from":[-56.952543301265,-25.548631480635],"to":[-56.953098856805,-25.549187036175]},"geometry":{"type":"Point","coordinates":[-56.952543301265,-25.548631480635]}},{"type":"Feature","properties":{"category":"flow_arrow","class":"tributary","from":[-56.952543301265,-25.548631480635],"to":[-56.953098856805,-25.549187036175]},"geometry":{"type":"Point","coordinates":[-56.952543301265,-25.548631480635]}},{"type":"Feature","properties":{"category":"flow_arrow","class":"tributary","from":[-56.950321079105,-25.634187033794998],"to":[-56.950321079105,-25.633631478255]},"geometry":{"type":"Point","coordinates":[-56.950321079105,-25.634187033794998]}},{"type":"Feature","properties":{"category":"flow_arrow","class":"tributary","from":[-56.950321079105,-25.633075922715],"to":[-56.950321079105,-25.633631478255]},"geometry":{"type":"Point","coordinates":[-56.950321079105,-25.633075922715]}},{"type":"Feature","properties":{"category":"flow_arrow","class":"tributary","from":[-56.950321079105,-25.633075922715],"to":[-56.950321079105,-25.633631478255]},"geometry":{"type":"Point","coordinates":[-56.950321079105,-25.633075922715]}},{"type":"Feature","properties":{"category":"flow_arrow","class":"tributary","from":[-56.950321079105,-25.633075922715],"to":[-56.950321079105,-25.633631478255]},"geometry":{"type":"Point","coordinates":[-56.950321079105,-25.633075922715]}},{"type":"Feature","properties":{"category":"flow_arrow","class":"tributary","from":[-56.950321079105,-25.633075922715],"to":[-56.950321079105,-25.633631478255]},"geometry":{"type":"Point","coordinates":[-56.950321079105,-25.633075922715]}}]}