{"type":"FeatureCollection","name":"hansen_gain_10km","metadata":{"source":"Hansen GFC v1.12","bbox":[-25.698062,-57.129997,-25.5184,-56.930765],"license":"CC-BY-4.0","pixel_count":277,"feature_count":136,"generated_utc":"2026-07-05"},"features":[{"type":"Feature","properties":{"category":"hansen_gfc","layer":"forest_gain_2000_2012","color":"#22c55e","source":"Hansen GFC v1.12","area_ha":0.07},"geometry":{"type":"Polygon","coordinates":[[[-57.05199999999999,-25.51925],[-57.05199999999999,-25.519],[-57.05175,-25.519],[-57.05175,-25.51925],[-57.05199999999999,-25.51925]]]}},{"type":"Feature","properties":{"category":"hansen_gfc","layer":"forest_gain_2000_2012","color":"#22c55e","source":"Hansen GFC v1.12","area_ha":0.07},"geometry":{"type":"Polygon","coordinates":[[[-57.044,-25.521749999999997],[-57.044,-25.522],[-57.04425,-25.522],[-57.04425,-25.521749999999997],[-57.044,-25.521749999999997]]]}},{"type":"Feature","properties":{"category":"hansen_gfc","layer":"forest_gain_2000_2012","color":"#22c55e","source":"Hansen GFC v1.12","area_ha":0.14},"geometry":{"type":"Polygon","coordinates":[[[-57.07874999999999,-25.528499999999998],[-57.07874999999999,-25.52875],[-57.079249999999995,-25.52875],[-57.079249999999995,-25.528499999999998],[-57.07874999999999,-25.528499999999998]]]}},{"type":"Feature","properties":{"category":"hansen_gfc","layer":"forest_gain_2000_2012","color":"#22c55e","source":"Hansen GFC v1.12","area_ha":0.14},"geometry":{"type":"Polygon","coordinates":[[[-56.97599999999999,-25.52975],[-56.97599999999999,-25.53025],[-56.97624999999999,-25.53025],[-56.97624999999999,-25.52975],[-56.97599999999999,-25.52975]]]}},{"type":"Feature","properties":{"category":"hansen_gfc","layer":"forest_gain_2000_2012","color":"#22c55e","source":"Hansen GFC v1.12","area_ha":0.21},"geometry":{"type":"Polygon","coordinates":[[[-57.000499999999995,-25.5355],[-57.000499999999995,-25.535999999999998],[-57.001,-25.535999999999998],[-57.001,-25.535749999999997],[-57.00075,-25.535749999999997],[-57.00075,-25.5355],[-57.000499999999995,-25.5355]]]}},{"type":"Feature","properties":{"category":"hansen_gfc","layer":"forest_gain_2000_2012","color":"#22c55e","source":"Hansen GFC v1.12","area_ha":0.14},"geometry":{"type":"Polygon","coordinates":[[[-57.004749999999994,-25.538749999999997],[-57.004749999999994,-25.538999999999998],[-57.00525,-25.538999999999998],[-57.00525,-25.538749999999997],[-57.004749999999994,-25.538749999999997]]]}},{"type":"Feature","properties":{"category":"hansen_gfc","layer":"forest_gain_2000_2012","color":"#22c55e","source":"Hansen GFC v1.12","area_ha":0.07},"geometry":{"type":"Polygon","coordinates":[[[-57.092749999999995,-25.541749999999997],[-57.092749999999995,-25.541999999999998],[-57.092999999999996,-25.541999999999998],[-57.092999999999996,-25.541749999999997],[-57.092749999999995,-25.541749999999997]]]}},{"type":"Feature","properties":{"category":"hansen_gfc","layer":"forest_gain_2000_2012","color":"#22c55e","source":"Hansen GFC v1.12","area_ha":0.07},"geometry":{"type":"Polygon","coordinates":[[[-57.11899999999999,-25.54375],[-57.11899999999999,-25.543999999999997],[-57.119249999999994,-25.543999999999997],[-57.119249999999994,-25.54375],[-57.11899999999999,-25.54375]]]}},{"type":"Feature","properties":{"category":"hansen_gfc","layer":"forest_gain_2000_2012","color":"#22c55e","source":"Hansen GFC v1.12","area_ha":0.07},"geometry":{"type":"Polygon","coordinates":[[[-57.061749999999996,-25.543999999999997],[-57.061749999999996,-25.544249999999998],[-57.062,-25.544249999999998],[-57.062,-25.543999999999997],[-57.061749999999996,-25.543999999999997]]]}},{"type":"Feature","properties":{"category":"hansen_gfc","layer":"forest_gain_2000_2012","color":"#22c55e","source":"Hansen GFC v1.12","area_ha":0.07},"geometry":{"type":"Polygon","coordinates":[[[-57.07375,-25.55275],[-57.07375,-25.552999999999997],[-57.074,-25.552999999999997],[-57.074,-25.55275],[-57.07375,-25.55275]]]}},{"type":"Feature","properties":{"category":"hansen_gfc","layer":"forest_gain_2000_2012","color":"#22c55e","source":"Hansen GFC v1.12","area_ha":0.21},"geometry":{"type":"Polygon","coordinates":[[[-57.10975,-25.5535],[-57.10975,-25.553749999999997],[-57.110499999999995,-25.553749999999997],[-57.110499999999995,-25.5535],[-57.10975,-25.5535]]]}},{"type":"Feature","properties":{"category":"hansen_gfc","layer":"forest_gain_2000_2012","color":"#22c55e","source":"Hansen GFC v1.12","area_ha":0.07},"geometry":{"type":"Polygon","coordinates":[[[-57.11575,-25.55625],[-57.11575,-25.5565],[-57.11599999999999,-25.5565],[-57.11599999999999,-25.55625],[-57.11575,-25.55625]]]}},{"type":"Feature","properties":{"category":"hansen_gfc","layer":"forest_gain_2000_2012","color":"#22c55e","source":"Hansen GFC v1.12","area_ha":0.07},"geometry":{"type":"Polygon","coordinates":[[[-57.04624999999999,-25.5565],[-57.04624999999999,-25.556749999999997],[-57.046499999999995,-25.556749999999997],[-57.046499999999995,-25.5565],[-57.04624999999999,-25.5565]]]}},{"type":"Feature","properties":{"category":"hansen_gfc","layer":"forest_gain_2000_2012","color":"#22c55e","source":"Hansen GFC v1.12","area_ha":0.07},"geometry":{"type":"Polygon","coordinates":[[[-57.04275,-25.556749999999997],[-57.04275,-25.557],[-57.04299999999999,-25.557],[-57.04299999999999,-25.556749999999997],[-57.04275,-25.556749999999997]]]}},{"type":"Feature","properties":{"category":"hansen_gfc","layer":"forest_gain_2000_2012","color":"#22c55e","source":"Hansen GFC v1.12","area_ha":0.14},"geometry":{"type":"Polygon","coordinates":[[[-56.968999999999994,-25.55725],[-56.968999999999994,-25.55775],[-56.969249999999995,-25.55775],[-56.969249999999995,-25.55725],[-56.968999999999994,-25.55725]]]}},{"type":"Feature","properties":{"category":"hansen_gfc","layer":"forest_gain_2000_2012","color":"#22c55e","source":"Hansen GFC v1.12","area_ha":0.28},"geometry":{"type":"Polygon","coordinates":[[[-57.05799999999999,-25.557],[-57.05799999999999,-25.558],[-57.058249999999994,-25.558],[-57.058249999999994,-25.557],[-57.05799999999999,-25.557]]]}},{"type":"Feature","properties":{"category":"hansen_gfc","layer":"forest_gain_2000_2012","color":"#22c55e","source":"Hansen GFC v1.12","area_ha":0.07},"geometry":{"type":"Polygon","coordinates":[[[-57.02824999999999,-25.5585],[-57.02824999999999,-25.55875],[-57.028499999999994,-25.55875],[-57.028499999999994,-25.5585],[-57.02824999999999,-25.5585]]]}},{"type":"Feature","properties":{"category":"hansen_gfc","layer":"forest_gain_2000_2012","color":"#22c55e","source":"Hansen GFC v1.12","area_ha":0.07},"geometry":{"type":"Polygon","coordinates":[[[-57.056749999999994,-25.55875],[-57.056749999999994,-25.558999999999997],[-57.056999999999995,-25.558999999999997],[-57.056999999999995,-25.55875],[-57.056749999999994,-25.55875]]]}},{"type":"Feature","properties":{"category":"hansen_gfc","layer":"forest_gain_2000_2012","color":"#22c55e","source":"Hansen GFC v1.12","area_ha":0.21},"geometry":{"type":"Polygon","coordinates":[[[-57.09674999999999,-25.558999999999997],[-57.09674999999999,-25.5595],[-57.097249999999995,-25.5595],[-57.097249999999995,-25.55925],[-57.096999999999994,-25.55925],[-57.096999999999994,-25.558999999999997],[-57.09674999999999,-25.558999999999997]]]}},{"type":"Feature","properties":{"category":"hansen_gfc","layer":"forest_gain_2000_2012","color":"#22c55e","source":"Hansen GFC v1.12","area_ha":0.07},"geometry":{"type":"Polygon","coordinates":[[[-57.12025,-25.560499999999998],[-57.12025,-25.56075],[-57.12049999999999,-25.56075],[-57.12049999999999,-25.560499999999998],[-57.12025,-25.560499999999998]]]}},{"type":"Feature","properties":{"category":"hansen_gfc","layer":"forest_gain_2000_2012","color":"#22c55e","source":"Hansen GFC v1.12","area_ha":0.07},"geometry":{"type":"Polygon","coordinates":[[[-57.09374999999999,-25.561],[-57.09374999999999,-25.561249999999998],[-57.093999999999994,-25.561249999999998],[-57.093999999999994,-25.561],[-57.09374999999999,-25.561]]]}},{"type":"Feature","properties":{"category":"hansen_gfc","layer":"forest_gain_2000_2012","color":"#22c55e","source":"Hansen GFC v1.12","area_ha":0.14},"geometry":{"type":"Polygon","coordinates":[[[-57.101499999999994,-25.56475],[-57.101499999999994,-25.56525],[-57.101749999999996,-25.56525],[-57.101749999999996,-25.56475],[-57.101499999999994,-25.56475]]]}},{"type":"Feature","properties":{"category":"hansen_gfc","layer":"forest_gain_2000_2012","color":"#22c55e","source":"Hansen GFC v1.12","area_ha":0.07},"geometry":{"type":"Polygon","coordinates":[[[-57.101749999999996,-25.565499999999997],[-57.101749999999996,-25.565749999999998],[-57.102,-25.565749999999998],[-57.102,-25.565499999999997],[-57.101749999999996,-25.565499999999997]]]}},{"type":"Feature","properties":{"category":"hansen_gfc","layer":"forest_gain_2000_2012","color":"#22c55e","source":"Hansen GFC v1.12","area_ha":0.14},"geometry":{"type":"Polygon","coordinates":[[[-56.985749999999996,-25.565749999999998],[-56.985749999999996,-25.566],[-56.98625,-25.566],[-56.98625,-25.565749999999998],[-56.985749999999996,-25.565749999999998]]]}},{"type":"Feature","properties":{"category":"hansen_gfc","layer":"forest_gain_2000_2012","color":"#22c55e","source":"Hansen GFC v1.12","area_ha":0.07},"geometry":{"type":"Polygon","coordinates":[[[-57.0365,-25.568499999999997],[-57.0365,-25.568749999999998],[-57.03675,-25.568749999999998],[-57.03675,-25.568499999999997],[-57.0365,-25.568499999999997]]]}},{"type":"Feature","properties":{"category":"hansen_gfc","layer":"forest_gain_2000_2012","color":"#22c55e","source":"Hansen GFC v1.12","area_ha":0.21},"geometry":{"type":"Polygon","coordinates":[[[-57.10225,-25.568749999999998],[-57.10225,-25.569],[-57.102999999999994,-25.569],[-57.102999999999994,-25.568749999999998],[-57.10225,-25.568749999999998]]]}},{"type":"Feature","properties":{"category":"hansen_gfc","layer":"forest_gain_2000_2012","color":"#22c55e","source":"Hansen GFC v1.12","area_ha":0.14},"geometry":{"type":"Polygon","coordinates":[[[-57.111999999999995,-25.572249999999997],[-57.111999999999995,-25.57275],[-57.112249999999996,-25.57275],[-57.112249999999996,-25.572249999999997],[-57.111999999999995,-25.572249999999997]]]}},{"type":"Feature","properties":{"category":"hansen_gfc","layer":"forest_gain_2000_2012","color":"#22c55e","source":"Hansen GFC v1.12","area_ha":0.07},"geometry":{"type":"Polygon","coordinates":[[[-56.998999999999995,-25.576749999999997],[-56.998999999999995,-25.576999999999998],[-56.999249999999996,-25.576999999999998],[-56.999249999999996,-25.576749999999997],[-56.998999999999995,-25.576749999999997]]]}},{"type":"Feature","properties":{"category":"hansen_gfc","layer":"forest_gain_2000_2012","color":"#22c55e","source":"Hansen GFC v1.12","area_ha":0.35},"geometry":{"type":"Polygon","coordinates":[[[-56.997749999999996,-25.5765],[-56.99699999999999,-25.5765],[-56.99699999999999,-25.576749999999997],[-56.997249999999994,-25.576749999999997],[-56.997249999999994,-25.576999999999998],[-56.997749999999996,-25.576999999999998],[-56.997749999999996,-25.5765]]]}},{"type":"Feature","properties":{"category":"hansen_gfc","layer":"forest_gain_2000_2012","color":"#22c55e","source":"Hansen GFC v1.12","area_ha":0.35},"geometry":{"type":"Polygon","coordinates":[[[-56.997249999999994,-25.577749999999998],[-56.997249999999994,-25.578],[-56.998,-25.578],[-56.998,-25.57725],[-56.997749999999996,-25.57725],[-56.997749999999996,-25.577749999999998],[-56.997249999999994,-25.577749999999998]]]}},{"type":"Feature","properties":{"category":"hansen_gfc","layer":"forest_gain_2000_2012","color":"#22c55e","source":"Hansen GFC v1.12","area_ha":0.07},"geometry":{"type":"Polygon","coordinates":[[[-57.10375,-25.577749999999998],[-57.10375,-25.578],[-57.10399999999999,-25.578],[-57.10399999999999,-25.577749999999998],[-57.10375,-25.577749999999998]]]}},{"type":"Feature","properties":{"category":"hansen_gfc","layer":"forest_gain_2000_2012","color":"#22c55e","source":"Hansen GFC v1.12","area_ha":0.07},"geometry":{"type":"Polygon","coordinates":[[[-57.04299999999999,-25.5785],[-57.04299999999999,-25.57875],[-57.04324999999999,-25.57875],[-57.04324999999999,-25.5785],[-57.04299999999999,-25.5785]]]}},{"type":"Feature","properties":{"category":"hansen_gfc","layer":"forest_gain_2000_2012","color":"#22c55e","source":"Hansen GFC v1.12","area_ha":0.14},"geometry":{"type":"Polygon","coordinates":[[[-57.042249999999996,-25.5785],[-57.042249999999996,-25.57875],[-57.04275,-25.57875],[-57.04275,-25.5785],[-57.042249999999996,-25.5785]]]}},{"type":"Feature","properties":{"category":"hansen_gfc","layer":"forest_gain_2000_2012","color":"#22c55e","source":"Hansen GFC v1.12","area_ha":0.35},"geometry":{"type":"Polygon","coordinates":[[[-57.070499999999996,-25.5785],[-57.070499999999996,-25.578999999999997],[-57.07124999999999,-25.578999999999997],[-57.07124999999999,-25.57875],[-57.071,-25.57875],[-57.071,-25.5785],[-57.070499999999996,-25.5785]]]}},{"type":"Feature","properties":{"category":"hansen_gfc","layer":"forest_gain_2000_2012","color":"#22c55e","source":"Hansen GFC v1.12","area_ha":0.07},"geometry":{"type":"Polygon","coordinates":[[[-57.05799999999999,-25.57875],[-57.05799999999999,-25.578999999999997],[-57.058249999999994,-25.578999999999997],[-57.058249999999994,-25.57875],[-57.05799999999999,-25.57875]]]}},{"type":"Feature","properties":{"category":"hansen_gfc","layer":"forest_gain_2000_2012","color":"#22c55e","source":"Hansen GFC v1.12","area_ha":0.28},"geometry":{"type":"Polygon","coordinates":[[[-57.013999999999996,-25.579749999999997],[-57.013999999999996,-25.58025],[-57.0145,-25.58025],[-57.0145,-25.579749999999997],[-57.013999999999996,-25.579749999999997]]]}},{"type":"Feature","properties":{"category":"hansen_gfc","layer":"forest_gain_2000_2012","color":"#22c55e","source":"Hansen GFC v1.12","area_ha":0.28},"geometry":{"type":"Polygon","coordinates":[[[-57.016,-25.58225],[-57.016,-25.582749999999997],[-57.01649999999999,-25.582749999999997],[-57.01649999999999,-25.58225],[-57.016,-25.58225]]]}},{"type":"Feature","properties":{"category":"hansen_gfc","layer":"forest_gain_2000_2012","color":"#22c55e","source":"Hansen GFC v1.12","area_ha":0.07},"geometry":{"type":"Polygon","coordinates":[[[-57.034,-25.583],[-57.034,-25.58325],[-57.03424999999999,-25.58325],[-57.03424999999999,-25.583],[-57.034,-25.583]]]}},{"type":"Feature","properties":{"category":"hansen_gfc","layer":"forest_gain_2000_2012","color":"#22c55e","source":"Hansen GFC v1.12","area_ha":0.07},"geometry":{"type":"Polygon","coordinates":[[[-57.086749999999995,-25.58525],[-57.086749999999995,-25.5855],[-57.086999999999996,-25.5855],[-57.086999999999996,-25.58525],[-57.086749999999995,-25.58525]]]}},{"type":"Feature","properties":{"category":"hansen_gfc","layer":"forest_gain_2000_2012","color":"#22c55e","source":"Hansen GFC v1.12","area_ha":0.07},"geometry":{"type":"Polygon","coordinates":[[[-57.071749999999994,-25.59125],[-57.071749999999994,-25.5915],[-57.071999999999996,-25.5915],[-57.071999999999996,-25.59125],[-57.071749999999994,-25.59125]]]}},{"type":"Feature","properties":{"category":"hansen_gfc","layer":"forest_gain_2000_2012","color":"#22c55e","source":"Hansen GFC v1.12","area_ha":0.07},"geometry":{"type":"Polygon","coordinates":[[[-57.021499999999996,-25.59275],[-57.021499999999996,-25.593],[-57.02175,-25.593],[-57.02175,-25.59275],[-57.021499999999996,-25.59275]]]}},{"type":"Feature","properties":{"category":"hansen_gfc","layer":"forest_gain_2000_2012","color":"#22c55e","source":"Hansen GFC v1.12","area_ha":0.07},"geometry":{"type":"Polygon","coordinates":[[[-57.077749999999995,-25.593],[-57.077749999999995,-25.593249999999998],[-57.077999999999996,-25.593249999999998],[-57.077999999999996,-25.593],[-57.077749999999995,-25.593]]]}},{"type":"Feature","properties":{"category":"hansen_gfc","layer":"forest_gain_2000_2012","color":"#22c55e","source":"Hansen GFC v1.12","area_ha":0.14},"geometry":{"type":"Polygon","coordinates":[[[-57.07975,-25.593249999999998],[-57.07975,-25.5935],[-57.08024999999999,-25.5935],[-57.08024999999999,-25.593249999999998],[-57.07975,-25.593249999999998]]]}},{"type":"Feature","properties":{"category":"hansen_gfc","layer":"forest_gain_2000_2012","color":"#22c55e","source":"Hansen GFC v1.12","area_ha":0.7},"geometry":{"type":"Polygon","coordinates":[[[-57.079249999999995,-25.593999999999998],[-57.079249999999995,-25.5945],[-57.07899999999999,-25.5945],[-57.07899999999999,-25.594749999999998],[-57.079249999999995,-25.594749999999998],[-57.079249999999995,-25.59525],[-57.07899999999999,-25.59525],[-57.07899999999999,-25.595499999999998],[-57.079499999999996,-25.595499999999998],[-57.079499999999996,-25.5945],[-57.07975,-25.5945],[-57.07975,-25.593999999999998],[-57.079249999999995,-25.593999999999998]]]}},{"type":"Feature","properties":{"category":"hansen_gfc","layer":"forest_gain_2000_2012","color":"#22c55e","source":"Hansen GFC v1.12","area_ha":0.14},"geometry":{"type":"Polygon","coordinates":[[[-57.07424999999999,-25.595499999999998],[-57.07424999999999,-25.59575],[-57.074749999999995,-25.59575],[-57.074749999999995,-25.595499999999998],[-57.07424999999999,-25.595499999999998]]]}},{"type":"Feature","properties":{"category":"hansen_gfc","layer":"forest_gain_2000_2012","color":"#22c55e","source":"Hansen GFC v1.12","area_ha":0.07},"geometry":{"type":"Polygon","coordinates":[[[-56.97599999999999,-25.596],[-56.97599999999999,-25.596249999999998],[-56.97624999999999,-25.596249999999998],[-56.97624999999999,-25.596],[-56.97599999999999,-25.596]]]}},{"type":"Feature","properties":{"category":"hansen_gfc","layer":"forest_gain_2000_2012","color":"#22c55e","source":"Hansen GFC v1.12","area_ha":0.14},"geometry":{"type":"Polygon","coordinates":[[[-57.12175,-25.597749999999998],[-57.12175,-25.598],[-57.122249999999994,-25.598],[-57.122249999999994,-25.597749999999998],[-57.12175,-25.597749999999998]]]}},{"type":"Feature","properties":{"category":"hansen_gfc","layer":"forest_gain_2000_2012","color":"#22c55e","source":"Hansen GFC v1.12","area_ha":0.07},"geometry":{"type":"Polygon","coordinates":[[[-56.96075,-25.60025],[-56.96075,-25.600499999999997],[-56.961,-25.600499999999997],[-56.961,-25.60025],[-56.96075,-25.60025]]]}},{"type":"Feature","properties":{"category":"hansen_gfc","layer":"forest_gain_2000_2012","color":"#22c55e","source":"Hansen GFC v1.12","area_ha":0.07},"geometry":{"type":"Polygon","coordinates":[[[-57.07874999999999,-25.603749999999998],[-57.07874999999999,-25.604],[-57.07899999999999,-25.604],[-57.07899999999999,-25.603749999999998],[-57.07874999999999,-25.603749999999998]]]}},{"type":"Feature","properties":{"category":"hansen_gfc","layer":"forest_gain_2000_2012","color":"#22c55e","source":"Hansen GFC v1.12","area_ha":0.07},"geometry":{"type":"Polygon","coordinates":[[[-57.062749999999994,-25.603749999999998],[-57.062749999999994,-25.604],[-57.062999999999995,-25.604],[-57.062999999999995,-25.603749999999998],[-57.062749999999994,-25.603749999999998]]]}},{"type":"Feature","properties":{"category":"hansen_gfc","layer":"forest_gain_2000_2012","color":"#22c55e","source":"Hansen GFC v1.12","area_ha":0.07},"geometry":{"type":"Polygon","coordinates":[[[-57.062,-25.603749999999998],[-57.062,-25.604],[-57.06225,-25.604],[-57.06225,-25.603749999999998],[-57.062,-25.603749999999998]]]}},{"type":"Feature","properties":{"category":"hansen_gfc","layer":"forest_gain_2000_2012","color":"#22c55e","source":"Hansen GFC v1.12","area_ha":0.21},"geometry":{"type":"Polygon","coordinates":[[[-56.954249999999995,-25.604499999999998],[-56.954249999999995,-25.605249999999998],[-56.954499999999996,-25.605249999999998],[-56.954499999999996,-25.604499999999998],[-56.954249999999995,-25.604499999999998]]]}},{"type":"Feature","properties":{"category":"hansen_gfc","layer":"forest_gain_2000_2012","color":"#22c55e","source":"Hansen GFC v1.12","area_ha":0.28},"geometry":{"type":"Polygon","coordinates":[[[-56.95224999999999,-25.606749999999998],[-56.95224999999999,-25.607249999999997],[-56.952749999999995,-25.607249999999997],[-56.952749999999995,-25.606749999999998],[-56.95224999999999,-25.606749999999998]]]}},{"type":"Feature","properties":{"category":"hansen_gfc","layer":"forest_gain_2000_2012","color":"#22c55e","source":"Hansen GFC v1.12","area_ha":0.07},"geometry":{"type":"Polygon","coordinates":[[[-57.07149999999999,-25.607],[-57.07149999999999,-25.607249999999997],[-57.071749999999994,-25.607249999999997],[-57.071749999999994,-25.607],[-57.07149999999999,-25.607]]]}},{"type":"Feature","properties":{"category":"hansen_gfc","layer":"forest_gain_2000_2012","color":"#22c55e","source":"Hansen GFC v1.12","area_ha":0.14},"geometry":{"type":"Polygon","coordinates":[[[-57.07075,-25.607249999999997],[-57.07075,-25.60775],[-57.071,-25.60775],[-57.071,-25.607249999999997],[-57.07075,-25.607249999999997]]]}},{"type":"Feature","properties":{"category":"hansen_gfc","layer":"forest_gain_2000_2012","color":"#22c55e","source":"Hansen GFC v1.12","area_ha":0.21},"geometry":{"type":"Polygon","coordinates":[[[-57.049749999999996,-25.607999999999997],[-57.049749999999996,-25.608249999999998],[-57.05049999999999,-25.608249999999998],[-57.05049999999999,-25.607999999999997],[-57.049749999999996,-25.607999999999997]]]}},{"type":"Feature","properties":{"category":"hansen_gfc","layer":"forest_gain_2000_2012","color":"#22c55e","source":"Hansen GFC v1.12","area_ha":0.14},"geometry":{"type":"Polygon","coordinates":[[[-57.105999999999995,-25.608249999999998],[-57.105999999999995,-25.6085],[-57.1065,-25.6085],[-57.1065,-25.608249999999998],[-57.105999999999995,-25.608249999999998]]]}},{"type":"Feature","properties":{"category":"hansen_gfc","layer":"forest_gain_2000_2012","color":"#22c55e","source":"Hansen GFC v1.12","area_ha":0.14},"geometry":{"type":"Polygon","coordinates":[[[-57.058499999999995,-25.608249999999998],[-57.058499999999995,-25.6085],[-57.059,-25.6085],[-57.059,-25.608249999999998],[-57.058499999999995,-25.608249999999998]]]}},{"type":"Feature","properties":{"category":"hansen_gfc","layer":"forest_gain_2000_2012","color":"#22c55e","source":"Hansen GFC v1.12","area_ha":0.07},"geometry":{"type":"Polygon","coordinates":[[[-56.994499999999995,-25.609499999999997],[-56.994249999999994,-25.609499999999997],[-56.994249999999994,-25.60975],[-56.994499999999995,-25.60975],[-56.994499999999995,-25.609499999999997]]]}},{"type":"Feature","properties":{"category":"hansen_gfc","layer":"forest_gain_2000_2012","color":"#22c55e","source":"Hansen GFC v1.12","area_ha":0.14},"geometry":{"type":"Polygon","coordinates":[[[-57.053749999999994,-25.60975],[-57.053749999999994,-25.610249999999997],[-57.053999999999995,-25.610249999999997],[-57.053999999999995,-25.60975],[-57.053749999999994,-25.60975]]]}},{"type":"Feature","properties":{"category":"hansen_gfc","layer":"forest_gain_2000_2012","color":"#22c55e","source":"Hansen GFC v1.12","area_ha":0.07},"geometry":{"type":"Polygon","coordinates":[[[-57.038,-25.610249999999997],[-57.038,-25.6105],[-57.03825,-25.6105],[-57.03825,-25.610249999999997],[-57.038,-25.610249999999997]]]}},{"type":"Feature","properties":{"category":"hansen_gfc","layer":"forest_gain_2000_2012","color":"#22c55e","source":"Hansen GFC v1.12","area_ha":0.14},"geometry":{"type":"Polygon","coordinates":[[[-57.05349999999999,-25.6105],[-57.05349999999999,-25.610999999999997],[-57.053749999999994,-25.610999999999997],[-57.053749999999994,-25.6105],[-57.05349999999999,-25.6105]]]}},{"type":"Feature","properties":{"category":"hansen_gfc","layer":"forest_gain_2000_2012","color":"#22c55e","source":"Hansen GFC v1.12","area_ha":0.49},"geometry":{"type":"Polygon","coordinates":[[[-56.993249999999996,-25.610999999999997],[-56.993249999999996,-25.611749999999997],[-56.9935,-25.611749999999997],[-56.9935,-25.6115],[-56.99399999999999,-25.6115],[-56.99399999999999,-25.610999999999997],[-56.993249999999996,-25.610999999999997]]]}},{"type":"Feature","properties":{"category":"hansen_gfc","layer":"forest_gain_2000_2012","color":"#22c55e","source":"Hansen GFC v1.12","area_ha":0.07},"geometry":{"type":"Polygon","coordinates":[[[-57.073249999999994,-25.6115],[-57.073249999999994,-25.611749999999997],[-57.073499999999996,-25.611749999999997],[-57.073499999999996,-25.6115],[-57.073249999999994,-25.6115]]]}},{"type":"Feature","properties":{"category":"hansen_gfc","layer":"forest_gain_2000_2012","color":"#22c55e","source":"Hansen GFC v1.12","area_ha":0.07},"geometry":{"type":"Polygon","coordinates":[[[-57.054249999999996,-25.612],[-57.054249999999996,-25.61225],[-57.0545,-25.61225],[-57.0545,-25.612],[-57.054249999999996,-25.612]]]}},{"type":"Feature","properties":{"category":"hansen_gfc","layer":"forest_gain_2000_2012","color":"#22c55e","source":"Hansen GFC v1.12","area_ha":0.14},"geometry":{"type":"Polygon","coordinates":[[[-57.06475,-25.6135],[-57.06475,-25.61375],[-57.06525,-25.61375],[-57.06525,-25.6135],[-57.06475,-25.6135]]]}},{"type":"Feature","properties":{"category":"hansen_gfc","layer":"forest_gain_2000_2012","color":"#22c55e","source":"Hansen GFC v1.12","area_ha":0.07},"geometry":{"type":"Polygon","coordinates":[[[-57.060249999999996,-25.613999999999997],[-57.060249999999996,-25.61425],[-57.0605,-25.61425],[-57.0605,-25.613999999999997],[-57.060249999999996,-25.613999999999997]]]}},{"type":"Feature","properties":{"category":"hansen_gfc","layer":"forest_gain_2000_2012","color":"#22c55e","source":"Hansen GFC v1.12","area_ha":0.14},"geometry":{"type":"Polygon","coordinates":[[[-57.12949999999999,-25.61425],[-57.12949999999999,-25.6145],[-57.129997,-25.6145],[-57.129997,-25.61425],[-57.12949999999999,-25.61425]]]}},{"type":"Feature","properties":{"category":"hansen_gfc","layer":"forest_gain_2000_2012","color":"#22c55e","source":"Hansen GFC v1.12","area_ha":0.14},"geometry":{"type":"Polygon","coordinates":[[[-57.125499999999995,-25.61425],[-57.125499999999995,-25.6145],[-57.126,-25.6145],[-57.126,-25.61425],[-57.125499999999995,-25.61425]]]}},{"type":"Feature","properties":{"category":"hansen_gfc","layer":"forest_gain_2000_2012","color":"#22c55e","source":"Hansen GFC v1.12","area_ha":0.14},"geometry":{"type":"Polygon","coordinates":[[[-57.059749999999994,-25.616],[-57.059749999999994,-25.616249999999997],[-57.060249999999996,-25.616249999999997],[-57.060249999999996,-25.616],[-57.059749999999994,-25.616]]]}},{"type":"Feature","properties":{"category":"hansen_gfc","layer":"forest_gain_2000_2012","color":"#22c55e","source":"Hansen GFC v1.12","area_ha":0.07},"geometry":{"type":"Polygon","coordinates":[[[-57.050999999999995,-25.616],[-57.050999999999995,-25.616249999999997],[-57.051249999999996,-25.616249999999997],[-57.051249999999996,-25.616],[-57.050999999999995,-25.616]]]}},{"type":"Feature","properties":{"category":"hansen_gfc","layer":"forest_gain_2000_2012","color":"#22c55e","source":"Hansen GFC v1.12","area_ha":0.07},"geometry":{"type":"Polygon","coordinates":[[[-57.03525,-25.616],[-57.03525,-25.616249999999997],[-57.0355,-25.616249999999997],[-57.0355,-25.616],[-57.03525,-25.616]]]}},{"type":"Feature","properties":{"category":"hansen_gfc","layer":"forest_gain_2000_2012","color":"#22c55e","source":"Hansen GFC v1.12","area_ha":0.21},"geometry":{"type":"Polygon","coordinates":[[[-57.11024999999999,-25.6165],[-57.11024999999999,-25.61675],[-57.111,-25.61675],[-57.111,-25.6165],[-57.11024999999999,-25.6165]]]}},{"type":"Feature","properties":{"category":"hansen_gfc","layer":"forest_gain_2000_2012","color":"#22c55e","source":"Hansen GFC v1.12","area_ha":0.07},"geometry":{"type":"Polygon","coordinates":[[[-57.11299999999999,-25.618],[-57.11299999999999,-25.61825],[-57.113249999999994,-25.61825],[-57.113249999999994,-25.618],[-57.11299999999999,-25.618]]]}},{"type":"Feature","properties":{"category":"hansen_gfc","layer":"forest_gain_2000_2012","color":"#22c55e","source":"Hansen GFC v1.12","area_ha":0.07},"geometry":{"type":"Polygon","coordinates":[[[-57.104499999999994,-25.61825],[-57.104499999999994,-25.618499999999997],[-57.104749999999996,-25.618499999999997],[-57.104749999999996,-25.61825],[-57.104499999999994,-25.61825]]]}},{"type":"Feature","properties":{"category":"hansen_gfc","layer":"forest_gain_2000_2012","color":"#22c55e","source":"Hansen GFC v1.12","area_ha":0.07},"geometry":{"type":"Polygon","coordinates":[[[-57.11299999999999,-25.619],[-57.11299999999999,-25.619249999999997],[-57.113249999999994,-25.619249999999997],[-57.113249999999994,-25.619],[-57.11299999999999,-25.619]]]}},{"type":"Feature","properties":{"category":"hansen_gfc","layer":"forest_gain_2000_2012","color":"#22c55e","source":"Hansen GFC v1.12","area_ha":0.07},"geometry":{"type":"Polygon","coordinates":[[[-57.03124999999999,-25.619],[-57.03124999999999,-25.619249999999997],[-57.031499999999994,-25.619249999999997],[-57.031499999999994,-25.619],[-57.03124999999999,-25.619]]]}},{"type":"Feature","properties":{"category":"hansen_gfc","layer":"forest_gain_2000_2012","color":"#22c55e","source":"Hansen GFC v1.12","area_ha":0.14},"geometry":{"type":"Polygon","coordinates":[[[-57.11299999999999,-25.61975],[-57.11299999999999,-25.62025],[-57.113249999999994,-25.62025],[-57.113249999999994,-25.61975],[-57.11299999999999,-25.61975]]]}},{"type":"Feature","properties":{"category":"hansen_gfc","layer":"forest_gain_2000_2012","color":"#22c55e","source":"Hansen GFC v1.12","area_ha":0.14},"geometry":{"type":"Polygon","coordinates":[[[-56.973,-25.61975],[-56.973,-25.62025],[-56.97324999999999,-25.62025],[-56.97324999999999,-25.61975],[-56.973,-25.61975]]]}},{"type":"Feature","properties":{"category":"hansen_gfc","layer":"forest_gain_2000_2012","color":"#22c55e","source":"Hansen GFC v1.12","area_ha":0.14},"geometry":{"type":"Polygon","coordinates":[[[-57.03075,-25.62025],[-57.03075,-25.6205],[-57.03124999999999,-25.6205],[-57.03124999999999,-25.62025],[-57.03075,-25.62025]]]}},{"type":"Feature","properties":{"category":"hansen_gfc","layer":"forest_gain_2000_2012","color":"#22c55e","source":"Hansen GFC v1.12","area_ha":0.07},"geometry":{"type":"Polygon","coordinates":[[[-57.039249999999996,-25.620749999999997],[-57.039249999999996,-25.621],[-57.0395,-25.621],[-57.0395,-25.620749999999997],[-57.039249999999996,-25.620749999999997]]]}},{"type":"Feature","properties":{"category":"hansen_gfc","layer":"forest_gain_2000_2012","color":"#22c55e","source":"Hansen GFC v1.12","area_ha":0.07},"geometry":{"type":"Polygon","coordinates":[[[-57.056,-25.621],[-57.056,-25.62125],[-57.05625,-25.62125],[-57.05625,-25.621],[-57.056,-25.621]]]}},{"type":"Feature","properties":{"category":"hansen_gfc","layer":"forest_gain_2000_2012","color":"#22c55e","source":"Hansen GFC v1.12","area_ha":0.14},"geometry":{"type":"Polygon","coordinates":[[[-57.0755,-25.62125],[-57.0755,-25.62175],[-57.07574999999999,-25.62175],[-57.07574999999999,-25.62125],[-57.0755,-25.62125]]]}},{"type":"Feature","properties":{"category":"hansen_gfc","layer":"forest_gain_2000_2012","color":"#22c55e","source":"Hansen GFC v1.12","area_ha":0.21},"geometry":{"type":"Polygon","coordinates":[[[-57.02824999999999,-25.62125],[-57.02824999999999,-25.621499999999997],[-57.028,-25.621499999999997],[-57.028,-25.62175],[-57.028499999999994,-25.62175],[-57.028499999999994,-25.62125],[-57.02824999999999,-25.62125]]]}},{"type":"Feature","properties":{"category":"hansen_gfc","layer":"forest_gain_2000_2012","color":"#22c55e","source":"Hansen GFC v1.12","area_ha":0.14},"geometry":{"type":"Polygon","coordinates":[[[-56.986999999999995,-25.621499999999997],[-56.986999999999995,-25.622],[-56.987249999999996,-25.622],[-56.987249999999996,-25.621499999999997],[-56.986999999999995,-25.621499999999997]]]}},{"type":"Feature","properties":{"category":"hansen_gfc","layer":"forest_gain_2000_2012","color":"#22c55e","source":"Hansen GFC v1.12","area_ha":0.21},"geometry":{"type":"Polygon","coordinates":[[[-57.06325,-25.622],[-57.06325,-25.62275],[-57.0635,-25.62275],[-57.0635,-25.622],[-57.06325,-25.622]]]}},{"type":"Feature","properties":{"category":"hansen_gfc","layer":"forest_gain_2000_2012","color":"#22c55e","source":"Hansen GFC v1.12","area_ha":0.14},"geometry":{"type":"Polygon","coordinates":[[[-56.997249999999994,-25.6235],[-56.997249999999994,-25.623749999999998],[-56.997749999999996,-25.623749999999998],[-56.997749999999996,-25.6235],[-56.997249999999994,-25.6235]]]}},{"type":"Feature","properties":{"category":"hansen_gfc","layer":"forest_gain_2000_2012","color":"#22c55e","source":"Hansen GFC v1.12","area_ha":0.07},"geometry":{"type":"Polygon","coordinates":[[[-57.0235,-25.624],[-57.0235,-25.623749999999998],[-57.02325,-25.623749999999998],[-57.02325,-25.624],[-57.0235,-25.624]]]}},{"type":"Feature","properties":{"category":"hansen_gfc","layer":"forest_gain_2000_2012","color":"#22c55e","source":"Hansen GFC v1.12","area_ha":0.21},"geometry":{"type":"Polygon","coordinates":[[[-56.98475,-25.623749999999998],[-56.98475,-25.624],[-56.985499999999995,-25.624],[-56.985499999999995,-25.623749999999998],[-56.98475,-25.623749999999998]]]}},{"type":"Feature","properties":{"category":"hansen_gfc","layer":"forest_gain_2000_2012","color":"#22c55e","source":"Hansen GFC v1.12","area_ha":0.07},"geometry":{"type":"Polygon","coordinates":[[[-57.052249999999994,-25.62425],[-57.052249999999994,-25.624],[-57.05199999999999,-25.624],[-57.05199999999999,-25.62425],[-57.052249999999994,-25.62425]]]}},{"type":"Feature","properties":{"category":"hansen_gfc","layer":"forest_gain_2000_2012","color":"#22c55e","source":"Hansen GFC v1.12","area_ha":0.21},"geometry":{"type":"Polygon","coordinates":[[[-57.0395,-25.62475],[-57.0395,-25.6255],[-57.03975,-25.6255],[-57.03975,-25.62475],[-57.0395,-25.62475]]]}},{"type":"Feature","properties":{"category":"hansen_gfc","layer":"forest_gain_2000_2012","color":"#22c55e","source":"Hansen GFC v1.12","area_ha":0.07},"geometry":{"type":"Polygon","coordinates":[[[-57.024499999999996,-25.62575],[-57.024499999999996,-25.625999999999998],[-57.02475,-25.625999999999998],[-57.02475,-25.62575],[-57.024499999999996,-25.62575]]]}},{"type":"Feature","properties":{"category":"hansen_gfc","layer":"forest_gain_2000_2012","color":"#22c55e","source":"Hansen GFC v1.12","area_ha":0.07},"geometry":{"type":"Polygon","coordinates":[[[-57.03675,-25.625999999999998],[-57.0365,-25.625999999999998],[-57.0365,-25.62625],[-57.03675,-25.62625],[-57.03675,-25.625999999999998]]]}},{"type":"Feature","properties":{"category":"hansen_gfc","layer":"forest_gain_2000_2012","color":"#22c55e","source":"Hansen GFC v1.12","area_ha":0.35},"geometry":{"type":"Polygon","coordinates":[[[-56.98524999999999,-25.62575],[-56.98524999999999,-25.625999999999998],[-56.98475,-25.625999999999998],[-56.98475,-25.62625],[-56.985749999999996,-25.62625],[-56.985749999999996,-25.625999999999998],[-56.985499999999995,-25.625999999999998],[-56.985499999999995,-25.62575],[-56.98524999999999,-25.62575]]]}},{"type":"Feature","properties":{"category":"hansen_gfc","layer":"forest_gain_2000_2012","color":"#22c55e","source":"Hansen GFC v1.12","area_ha":0.21},"geometry":{"type":"Polygon","coordinates":[[[-56.991749999999996,-25.625999999999998],[-56.991749999999996,-25.62625],[-56.991499999999995,-25.62625],[-56.991499999999995,-25.6265],[-56.992,-25.6265],[-56.992,-25.625999999999998],[-56.991749999999996,-25.625999999999998]]]}},{"type":"Feature","properties":{"category":"hansen_gfc","layer":"forest_gain_2000_2012","color":"#22c55e","source":"Hansen GFC v1.12","area_ha":0.07},"geometry":{"type":"Polygon","coordinates":[[[-57.07825,-25.626749999999998],[-57.07825,-25.627],[-57.0785,-25.627],[-57.0785,-25.626749999999998],[-57.07825,-25.626749999999998]]]}},{"type":"Feature","properties":{"category":"hansen_gfc","layer":"forest_gain_2000_2012","color":"#22c55e","source":"Hansen GFC v1.12","area_ha":0.07},"geometry":{"type":"Polygon","coordinates":[[[-56.96874999999999,-25.626749999999998],[-56.96874999999999,-25.627],[-56.968999999999994,-25.627],[-56.968999999999994,-25.626749999999998],[-56.96874999999999,-25.626749999999998]]]}},{"type":"Feature","properties":{"category":"hansen_gfc","layer":"forest_gain_2000_2012","color":"#22c55e","source":"Hansen GFC v1.12","area_ha":0.07},"geometry":{"type":"Polygon","coordinates":[[[-57.041999999999994,-25.627],[-57.041999999999994,-25.62725],[-57.042249999999996,-25.62725],[-57.042249999999996,-25.627],[-57.041999999999994,-25.627]]]}},{"type":"Feature","properties":{"category":"hansen_gfc","layer":"forest_gain_2000_2012","color":"#22c55e","source":"Hansen GFC v1.12","area_ha":0.07},"geometry":{"type":"Polygon","coordinates":[[[-57.010999999999996,-25.627],[-57.010999999999996,-25.62725],[-57.01125,-25.62725],[-57.01125,-25.627],[-57.010999999999996,-25.627]]]}},{"type":"Feature","properties":{"category":"hansen_gfc","layer":"forest_gain_2000_2012","color":"#22c55e","source":"Hansen GFC v1.12","area_ha":0.07},"geometry":{"type":"Polygon","coordinates":[[[-57.04275,-25.62775],[-57.04275,-25.627999999999997],[-57.04299999999999,-25.627999999999997],[-57.04299999999999,-25.62775],[-57.04275,-25.62775]]]}},{"type":"Feature","properties":{"category":"hansen_gfc","layer":"forest_gain_2000_2012","color":"#22c55e","source":"Hansen GFC v1.12","area_ha":0.14},"geometry":{"type":"Polygon","coordinates":[[[-56.9965,-25.629749999999998],[-56.9965,-25.630249999999997],[-56.99675,-25.630249999999997],[-56.99675,-25.629749999999998],[-56.9965,-25.629749999999998]]]}},{"type":"Feature","properties":{"category":"hansen_gfc","layer":"forest_gain_2000_2012","color":"#22c55e","source":"Hansen GFC v1.12","area_ha":0.14},"geometry":{"type":"Polygon","coordinates":[[[-56.997249999999994,-25.63075],[-56.997249999999994,-25.630999999999997],[-56.997749999999996,-25.630999999999997],[-56.997749999999996,-25.63075],[-56.997249999999994,-25.63075]]]}},{"type":"Feature","properties":{"category":"hansen_gfc","layer":"forest_gain_2000_2012","color":"#22c55e","source":"Hansen GFC v1.12","area_ha":0.07},"geometry":{"type":"Polygon","coordinates":[[[-56.99675,-25.630999999999997],[-56.99675,-25.631249999999998],[-56.99699999999999,-25.631249999999998],[-56.99699999999999,-25.630999999999997],[-56.99675,-25.630999999999997]]]}},{"type":"Feature","properties":{"category":"hansen_gfc","layer":"forest_gain_2000_2012","color":"#22c55e","source":"Hansen GFC v1.12","area_ha":0.07},"geometry":{"type":"Polygon","coordinates":[[[-57.032,-25.6315],[-57.032,-25.631749999999997],[-57.03225,-25.631749999999997],[-57.03225,-25.6315],[-57.032,-25.6315]]]}},{"type":"Feature","properties":{"category":"hansen_gfc","layer":"forest_gain_2000_2012","color":"#22c55e","source":"Hansen GFC v1.12","area_ha":0.07},"geometry":{"type":"Polygon","coordinates":[[[-56.995999999999995,-25.6315],[-56.995999999999995,-25.631749999999997],[-56.996249999999996,-25.631749999999997],[-56.996249999999996,-25.6315],[-56.995999999999995,-25.6315]]]}},{"type":"Feature","properties":{"category":"hansen_gfc","layer":"forest_gain_2000_2012","color":"#22c55e","source":"Hansen GFC v1.12","area_ha":0.07},"geometry":{"type":"Polygon","coordinates":[[[-57.071,-25.633249999999997],[-57.071,-25.633499999999998],[-57.07124999999999,-25.633499999999998],[-57.07124999999999,-25.633249999999997],[-57.071,-25.633249999999997]]]}},{"type":"Feature","properties":{"category":"hansen_gfc","layer":"forest_gain_2000_2012","color":"#22c55e","source":"Hansen GFC v1.12","area_ha":0.14},"geometry":{"type":"Polygon","coordinates":[[[-57.065999999999995,-25.634749999999997],[-57.065999999999995,-25.63525],[-57.06625,-25.63525],[-57.06625,-25.634749999999997],[-57.065999999999995,-25.634749999999997]]]}},{"type":"Feature","properties":{"category":"hansen_gfc","layer":"forest_gain_2000_2012","color":"#22c55e","source":"Hansen GFC v1.12","area_ha":0.14},"geometry":{"type":"Polygon","coordinates":[[[-57.034,-25.634749999999997],[-57.034,-25.63525],[-57.03424999999999,-25.63525],[-57.03424999999999,-25.634749999999997],[-57.034,-25.634749999999997]]]}},{"type":"Feature","properties":{"category":"hansen_gfc","layer":"forest_gain_2000_2012","color":"#22c55e","source":"Hansen GFC v1.12","area_ha":0.07},"geometry":{"type":"Polygon","coordinates":[[[-57.06549999999999,-25.635499999999997],[-57.06549999999999,-25.635749999999998],[-57.065749999999994,-25.635749999999998],[-57.065749999999994,-25.635499999999997],[-57.06549999999999,-25.635499999999997]]]}},{"type":"Feature","properties":{"category":"hansen_gfc","layer":"forest_gain_2000_2012","color":"#22c55e","source":"Hansen GFC v1.12","area_ha":0.14},"geometry":{"type":"Polygon","coordinates":[[[-57.04575,-25.637249999999998],[-57.04575,-25.637749999999997],[-57.04599999999999,-25.637749999999997],[-57.04599999999999,-25.637249999999998],[-57.04575,-25.637249999999998]]]}},{"type":"Feature","properties":{"category":"hansen_gfc","layer":"forest_gain_2000_2012","color":"#22c55e","source":"Hansen GFC v1.12","area_ha":0.14},"geometry":{"type":"Polygon","coordinates":[[[-57.06775,-25.638749999999998],[-57.06775,-25.639],[-57.06824999999999,-25.639],[-57.06824999999999,-25.638749999999998],[-57.06775,-25.638749999999998]]]}},{"type":"Feature","properties":{"category":"hansen_gfc","layer":"forest_gain_2000_2012","color":"#22c55e","source":"Hansen GFC v1.12","area_ha":0.14},"geometry":{"type":"Polygon","coordinates":[[[-56.98074999999999,-25.642249999999997],[-56.98074999999999,-25.64275],[-56.980999999999995,-25.64275],[-56.980999999999995,-25.642249999999997],[-56.98074999999999,-25.642249999999997]]]}},{"type":"Feature","properties":{"category":"hansen_gfc","layer":"forest_gain_2000_2012","color":"#22c55e","source":"Hansen GFC v1.12","area_ha":0.21},"geometry":{"type":"Polygon","coordinates":[[[-57.015499999999996,-25.64325],[-57.01474999999999,-25.64325],[-57.01474999999999,-25.6435],[-57.015499999999996,-25.6435],[-57.015499999999996,-25.64325]]]}},{"type":"Feature","properties":{"category":"hansen_gfc","layer":"forest_gain_2000_2012","color":"#22c55e","source":"Hansen GFC v1.12","area_ha":0.14},"geometry":{"type":"Polygon","coordinates":[[[-56.983,-25.64475],[-56.983,-25.645249999999997],[-56.98325,-25.645249999999997],[-56.98325,-25.64475],[-56.983,-25.64475]]]}},{"type":"Feature","properties":{"category":"hansen_gfc","layer":"forest_gain_2000_2012","color":"#22c55e","source":"Hansen GFC v1.12","area_ha":0.21},"geometry":{"type":"Polygon","coordinates":[[[-57.030499999999996,-25.645999999999997],[-57.030499999999996,-25.64625],[-57.03075,-25.64625],[-57.03075,-25.6465],[-57.031,-25.6465],[-57.031,-25.645999999999997],[-57.030499999999996,-25.645999999999997]]]}},{"type":"Feature","properties":{"category":"hansen_gfc","layer":"forest_gain_2000_2012","color":"#22c55e","source":"Hansen GFC v1.12","area_ha":0.07},"geometry":{"type":"Polygon","coordinates":[[[-56.971999999999994,-25.646749999999997],[-56.971999999999994,-25.647],[-56.972249999999995,-25.647],[-56.972249999999995,-25.646749999999997],[-56.971999999999994,-25.646749999999997]]]}},{"type":"Feature","properties":{"category":"hansen_gfc","layer":"forest_gain_2000_2012","color":"#22c55e","source":"Hansen GFC v1.12","area_ha":0.35},"geometry":{"type":"Polygon","coordinates":[[[-56.977,-25.647],[-56.977,-25.64725],[-56.976749999999996,-25.64725],[-56.976749999999996,-25.64775],[-56.97725,-25.64775],[-56.97725,-25.647],[-56.977,-25.647]]]}},{"type":"Feature","properties":{"category":"hansen_gfc","layer":"forest_gain_2000_2012","color":"#22c55e","source":"Hansen GFC v1.12","area_ha":0.07},"geometry":{"type":"Polygon","coordinates":[[[-57.080999999999996,-25.651249999999997],[-57.080999999999996,-25.6515],[-57.08125,-25.6515],[-57.08125,-25.651249999999997],[-57.080999999999996,-25.651249999999997]]]}},{"type":"Feature","properties":{"category":"hansen_gfc","layer":"forest_gain_2000_2012","color":"#22c55e","source":"Hansen GFC v1.12","area_ha":0.07},"geometry":{"type":"Polygon","coordinates":[[[-57.07075,-25.65225],[-57.07075,-25.651999999999997],[-57.070499999999996,-25.651999999999997],[-57.070499999999996,-25.65225],[-57.07075,-25.65225]]]}},{"type":"Feature","properties":{"category":"hansen_gfc","layer":"forest_gain_2000_2012","color":"#22c55e","source":"Hansen GFC v1.12","area_ha":0.07},"geometry":{"type":"Polygon","coordinates":[[[-56.93299999999999,-25.653499999999998],[-56.93299999999999,-25.65325],[-56.93275,-25.65325],[-56.93275,-25.653499999999998],[-56.93299999999999,-25.653499999999998]]]}},{"type":"Feature","properties":{"category":"hansen_gfc","layer":"forest_gain_2000_2012","color":"#22c55e","source":"Hansen GFC v1.12","area_ha":0.21},"geometry":{"type":"Polygon","coordinates":[[[-56.9755,-25.654249999999998],[-56.9755,-25.6545],[-56.97624999999999,-25.6545],[-56.97624999999999,-25.654249999999998],[-56.9755,-25.654249999999998]]]}},{"type":"Feature","properties":{"category":"hansen_gfc","layer":"forest_gain_2000_2012","color":"#22c55e","source":"Hansen GFC v1.12","area_ha":0.14},"geometry":{"type":"Polygon","coordinates":[[[-56.975249999999996,-25.65475],[-56.975249999999996,-25.65525],[-56.9755,-25.65525],[-56.9755,-25.65475],[-56.975249999999996,-25.65475]]]}},{"type":"Feature","properties":{"category":"hansen_gfc","layer":"forest_gain_2000_2012","color":"#22c55e","source":"Hansen GFC v1.12","area_ha":0.07},"geometry":{"type":"Polygon","coordinates":[[[-56.97449999999999,-25.65525],[-56.97449999999999,-25.6555],[-56.97474999999999,-25.6555],[-56.97474999999999,-25.65525],[-56.97449999999999,-25.65525]]]}},{"type":"Feature","properties":{"category":"hansen_gfc","layer":"forest_gain_2000_2012","color":"#22c55e","source":"Hansen GFC v1.12","area_ha":0.21},"geometry":{"type":"Polygon","coordinates":[[[-56.95524999999999,-25.65825],[-56.95524999999999,-25.6585],[-56.955999999999996,-25.6585],[-56.955999999999996,-25.65825],[-56.95524999999999,-25.65825]]]}},{"type":"Feature","properties":{"category":"hansen_gfc","layer":"forest_gain_2000_2012","color":"#22c55e","source":"Hansen GFC v1.12","area_ha":0.07},"geometry":{"type":"Polygon","coordinates":[[[-57.03124999999999,-25.6665],[-57.03124999999999,-25.666749999999997],[-57.031499999999994,-25.666749999999997],[-57.031499999999994,-25.6665],[-57.03124999999999,-25.6665]]]}},{"type":"Feature","properties":{"category":"hansen_gfc","layer":"forest_gain_2000_2012","color":"#22c55e","source":"Hansen GFC v1.12","area_ha":0.07},"geometry":{"type":"Polygon","coordinates":[[[-56.995999999999995,-25.669249999999998],[-56.995999999999995,-25.6695],[-56.996249999999996,-25.6695],[-56.996249999999996,-25.669249999999998],[-56.995999999999995,-25.669249999999998]]]}},{"type":"Feature","properties":{"category":"hansen_gfc","layer":"forest_gain_2000_2012","color":"#22c55e","source":"Hansen GFC v1.12","area_ha":0.14},"geometry":{"type":"Polygon","coordinates":[[[-57.02775,-25.6755],[-57.02775,-25.675749999999997],[-57.02824999999999,-25.675749999999997],[-57.02824999999999,-25.6755],[-57.02775,-25.6755]]]}},{"type":"Feature","properties":{"category":"hansen_gfc","layer":"forest_gain_2000_2012","color":"#22c55e","source":"Hansen GFC v1.12","area_ha":0.14},"geometry":{"type":"Polygon","coordinates":[[[-57.034749999999995,-25.683],[-57.034749999999995,-25.683249999999997],[-57.03525,-25.683249999999997],[-57.03525,-25.683],[-57.034749999999995,-25.683]]]}},{"type":"Feature","properties":{"category":"hansen_gfc","layer":"forest_gain_2000_2012","color":"#22c55e","source":"Hansen GFC v1.12","area_ha":0.07},"geometry":{"type":"Polygon","coordinates":[[[-56.969249999999995,-25.68375],[-56.969249999999995,-25.683999999999997],[-56.9695,-25.683999999999997],[-56.9695,-25.68375],[-56.969249999999995,-25.68375]]]}},{"type":"Feature","properties":{"category":"hansen_gfc","layer":"forest_gain_2000_2012","color":"#22c55e","source":"Hansen GFC v1.12","area_ha":0.07},"geometry":{"type":"Polygon","coordinates":[[[-56.961,-25.686249999999998],[-56.961,-25.686],[-56.96075,-25.686],[-56.96075,-25.686249999999998],[-56.961,-25.686249999999998]]]}},{"type":"Feature","properties":{"category":"hansen_gfc","layer":"forest_gain_2000_2012","color":"#22c55e","source":"Hansen GFC v1.12","area_ha":0.21},"geometry":{"type":"Polygon","coordinates":[[[-56.96724999999999,-25.693749999999998],[-56.96724999999999,-25.694],[-56.967999999999996,-25.694],[-56.967999999999996,-25.693749999999998],[-56.96724999999999,-25.693749999999998]]]}},{"type":"Feature","properties":{"category":"hansen_gfc","layer":"forest_gain_2000_2012","color":"#22c55e","source":"Hansen GFC v1.12","area_ha":0.28},"geometry":{"type":"Polygon","coordinates":[[[-56.968999999999994,-25.69475],[-56.968999999999994,-25.695249999999998],[-56.9695,-25.695249999999998],[-56.9695,-25.69475],[-56.968999999999994,-25.69475]]]}},{"type":"Feature","properties":{"category":"hansen_gfc","layer":"forest_gain_2000_2012","color":"#22c55e","source":"Hansen GFC v1.12","area_ha":0.07},"geometry":{"type":"Polygon","coordinates":[[[-56.94774999999999,-25.69625],[-56.94774999999999,-25.696499999999997],[-56.94799999999999,-25.696499999999997],[-56.94799999999999,-25.69625],[-56.94774999999999,-25.69625]]]}},{"type":"Feature","properties":{"category":"hansen_gfc","layer":"forest_gain_2000_2012","color":"#22c55e","source":"Hansen GFC v1.12","area_ha":0.07},"geometry":{"type":"Polygon","coordinates":[[[-57.03424999999999,-25.696749999999998],[-57.03424999999999,-25.697],[-57.034499999999994,-25.697],[-57.034499999999994,-25.696749999999998],[-57.03424999999999,-25.696749999999998]]]}},{"type":"Feature","properties":{"category":"hansen_gfc","layer":"forest_gain_2000_2012","color":"#22c55e","source":"Hansen GFC v1.12","area_ha":0.07},"geometry":{"type":"Polygon","coordinates":[[[-56.965999999999994,-25.697],[-56.965999999999994,-25.697249999999997],[-56.966249999999995,-25.697249999999997],[-56.966249999999995,-25.697],[-56.965999999999994,-25.697]]]}},{"type":"Feature","properties":{"category":"hansen_gfc","layer":"forest_gain_2000_2012","color":"#22c55e","source":"Hansen GFC v1.12","area_ha":0.28},"geometry":{"type":"Polygon","coordinates":[[[-56.96724999999999,-25.697249999999997],[-56.96724999999999,-25.69775],[-56.967749999999995,-25.69775],[-56.967749999999995,-25.697249999999997],[-56.96724999999999,-25.697249999999997]]]}}]}