{"type":"FeatureCollection","name":"local_quebradas_10km","metadata":{"source":"Derived from Wesley's GPS walking track + Copernicus GLO-30 DEM local-minima detection","method":"Local elevation minima along walking track, chained in walk order","license":"Client-provided GPS data"},"features":[{"type":"Feature","properties":{"category":"local_quebrada","name":"LQV quebrada (ground-truth)","description":"GPS-derived quebrada polyline from local elevation minima along Wes's walk","color":"#1d4ed8","stroke_width":4,"vertex_count":3,"length_m":1187.3,"elev_min_m":156.7,"elev_max_m":226.6,"captured_dates":"2026-06-22 + 2026-06-28","captured_by":"Wesley van de Camp","source_quality":"ground-truth (not DEM-derived)"},"geometry":{"type":"LineString","coordinates":[[-57.0300967,-25.6156994],[-57.033588,-25.6113051],[-57.0296353,-25.6073985]]}}]}