{"type":"FeatureCollection","name":"jrc_waterbodies_10km","metadata":{"source":"JRC Global Surface Water (occurrence, 1984-2024)","bbox":[-25.698062,-57.129997,-25.5184,-56.930765],"method":"Polygonise connected components at 3 thresholds","thresholds_pct":[50,20,10],"generated_utc":"2026-07-05","feature_count":1},"features":[{"type":"Feature","properties":{"name":"JRC waterbody 1","category":"jrc_waterbody","audit_class":"rare","audit_color":"#67e8f9","audit_jrc_occurrence_mean":19.5,"audit_jrc_occurrence_max":20.0,"audit_threshold":10,"audit_area_ha":0.14},"geometry":{"type":"Polygon","coordinates":[[[-57.1145,-25.64575],[-57.1145,-25.645999999999997],[-57.114,-25.645999999999997],[-57.114,-25.64575],[-57.1145,-25.64575]]]}}]}