{"type":"FeatureCollection","name":"jrc_waterbodies_20km","metadata":{"source":"JRC Global Surface Water (occurrence, 1984-2024)","bbox":[-25.787336,-57.231502,-25.427336,-56.839502],"method":"Polygonise connected components at 3 thresholds","thresholds_pct":[50,20,10],"generated_utc":"2026-07-05","feature_count":3},"features":[{"type":"Feature","properties":{"name":"JRC waterbody 1","category":"jrc_waterbody","audit_class":"seasonal","audit_color":"#0284c7","audit_jrc_occurrence_mean":22.5,"audit_jrc_occurrence_max":24.0,"audit_threshold":20,"audit_area_ha":0.14},"geometry":{"type":"Polygon","coordinates":[[[-57.040499999999994,-25.77525],[-57.040499999999994,-25.775499999999997],[-57.04,-25.775499999999997],[-57.04,-25.77525],[-57.040499999999994,-25.77525]]]}},{"type":"Feature","properties":{"name":"JRC waterbody 2","category":"jrc_waterbody","audit_class":"rare","audit_color":"#67e8f9","audit_jrc_occurrence_mean":11.0,"audit_jrc_occurrence_max":11.0,"audit_threshold":10,"audit_area_ha":0.14},"geometry":{"type":"Polygon","coordinates":[[[-57.153,-25.54025],[-57.153,-25.540499999999998],[-57.152499999999996,-25.540499999999998],[-57.152499999999996,-25.54025],[-57.153,-25.54025]]]}},{"type":"Feature","properties":{"name":"JRC waterbody 3","category":"jrc_waterbody","audit_class":"rare","audit_color":"#67e8f9","audit_jrc_occurrence_mean":19.5,"audit_jrc_occurrence_max":20.0,"audit_threshold":10,"audit_area_ha":0.14},"geometry":{"type":"Polygon","coordinates":[[[-57.1145,-25.64575],[-57.1145,-25.645999999999997],[-57.114,-25.645999999999997],[-57.114,-25.64575],[-57.1145,-25.64575]]]}}]}