{
 "type": "FeatureCollection",
 "features": [
  {
   "type": "Feature",
   "properties": {
    "bounds": {
     "minlat": -25.609959,
     "minlon": -57.0364048,
     "maxlat": -25.6091116,
     "maxlon": -57.035297
    },
    "tags": {
     "landuse": "farmland"
    }
   },
   "geometry": {
    "type": "LineString",
    "coordinates": [
     [
      -57.0360845,
      -25.609959
     ],
     [
      -57.0356474,
      -25.6094085
     ],
     [
      -57.0355412,
      -25.6094803
     ],
     [
      -57.0357677,
      -25.609817
     ],
     [
      -57.0356509,
      -25.6098904
     ],
     [
      -57.0355784,
      -25.6097404
     ],
     [
      -57.0355182,
      -25.6097867
     ],
     [
      -57.035297,
      -25.609501
     ],
     [
      -57.0355713,
      -25.6093079
     ],
     [
      -57.035497,
      -25.6092186
     ],
     [
      -57.035704,
      -25.6091116
     ],
     [
      -57.0359323,
      -25.6093973
     ],
     [
      -57.036019,
      -25.6093047
     ],
     [
      -57.0361942,
      -25.6093319
     ],
     [
      -57.0364048,
      -25.6095553
     ],
     [
      -57.0360845,
      -25.609959
     ]
    ]
   }
  },
  {
   "type": "Feature",
   "properties": {
    "bounds": {
     "minlat": -25.6099026,
     "minlon": -57.0382154,
     "maxlat": -25.6095918,
     "maxlon": -57.0377916
    },
    "tags": {
     "landuse": "farmland"
    }
   },
   "geometry": {
    "type": "LineString",
    "coordinates": [
     [
      -57.0379593,
      -25.6095918
     ],
     [
      -57.0377916,
      -25.6097708
     ],
     [
      -57.038084,
      -25.6099026
     ],
     [
      -57.0382154,
      -25.6097176
     ],
     [
      -57.0379593,
      -25.6095918
     ]
    ]
   }
  }
 ],
 "description": "Within 500m of LQV polygon. 2 of 2 features kept.",
 "name": "osm_landcover_zones_v2",
 "crs": {
  "type": "name",
  "properties": {
   "name": "urn:ogc:def:crs:OGC:1.3:CRS84"
  }
 }
}