{
 "type": "FeatureCollection",
 "features": [
  {
   "type": "Feature",
   "properties": {
    "bounds": {
     "minlat": -25.6348354,
     "minlon": -57.0472598,
     "maxlat": -25.6112847,
     "maxlon": -57.0437327
    },
    "tags": {
     "highway": "residential",
     "surface": "unpaved"
    }
   },
   "geometry": {
    "type": "LineString",
    "coordinates": [
     [
      -57.0472598,
      -25.6348354
     ],
     [
      -57.0470659,
      -25.634389
     ],
     [
      -57.046659,
      -25.6332746
     ],
     [
      -57.0463398,
      -25.632393
     ],
     [
      -57.046085,
      -25.6317026
     ],
     [
      -57.0456773,
      -25.6306771
     ],
     [
      -57.0452482,
      -25.6292744
     ],
     [
      -57.0452106,
      -25.6290374
     ],
     [
      -57.0452213,
      -25.6281474
     ],
     [
      -57.0453125,
      -25.627746
     ],
     [
      -57.0454788,
      -25.6273252
     ],
     [
      -57.0455432,
      -25.6270736
     ],
     [
      -57.0454788,
      -25.626735
     ],
     [
      -57.045275,
      -25.626232
     ],
     [
      -57.045275,
      -25.6261401
     ],
     [
      -57.0452964,
      -25.6261014
     ],
     [
      -57.0453823,
      -25.6260337
     ],
     [
      -57.045747,
      -25.6259128
     ],
     [
      -57.045908,
      -25.6258684
     ],
     [
      -57.0461051,
      -25.6257801
     ],
     [
      -57.0462044,
      -25.6256967
     ],
     [
      -57.0462768,
      -25.6255903
     ],
     [
      -57.0462956,
      -25.6254814
     ],
     [
      -57.0462795,
      -25.6252638
     ],
     [
      -57.0462245,
      -25.6250498
     ],
     [
      -57.046148,
      -25.624924
     ],
     [
      -57.0460984,
      -25.6248587
     ],
     [
      -57.0460542,
      -25.6246834
     ],
     [
      -57.0459361,
      -25.6242384
     ],
     [
      -57.0457216,
      -25.6236096
     ],
     [
      -57.0455419,
      -25.6230836
     ],
     [
      -57.0453514,
      -25.6226942
     ],
     [
      -57.04533,
      -25.622583
     ],
     [
      -57.0453125,
      -25.6224923
     ],
     [
      -57.0453501,
      -25.6223532
     ],
     [
      -57.0453487,
      -25.6222565
     ],
     [
      -57.0453206,
      -25.6221501
     ],
     [
      -57.0452642,
      -25.6219784
     ],
     [
      -57.045165,
      -25.6216458
     ],
     [
      -57.0449772,
      -25.6211077
     ],
     [
      -57.0446903,
      -25.6200311
     ],
     [
      -57.0442799,
      -25.6186526
     ],
     [
      -57.0442477,
      -25.618285
     ],
     [
      -57.0444891,
      -25.6178835
     ],
     [
      -57.0445159,
      -25.6177287
     ],
     [
      -57.0444783,
      -25.6175401
     ],
     [
      -57.0444408,
      -25.6174434
     ],
     [
      -57.0443067,
      -25.6172063
     ],
     [
      -57.0442852,
      -25.6171096
     ],
     [
      -57.0442852,
      -25.6169548
     ],
     [
      -57.0443281,
      -25.6167904
     ],
     [
      -57.044532,
      -25.6165485
     ],
     [
      -57.0445534,
      -25.6164711
     ],
     [
      -57.0445266,
      -25.6164083
     ],
     [
      -57.0444301,
      -25.6163647
     ],
     [
      -57.0439312,
      -25.6163357
     ],
     [
      -57.0438346,
      -25.6163187
     ],
     [
      -57.0438071,
      -25.6163077
     ],
     [
      -57.0437826,
      -25.6162918
     ],
     [
      -57.0437622,
      -25.6162719
     ],
     [
      -57.0437461,
      -25.6162474
     ],
     [
      -57.0437361,
      -25.6162204
     ],
     [
      -57.0437327,
      -25.6161921
     ],
     [
      -57.0437595,
      -25.616001
     ],
     [
      -57.0437945,
      -25.6159399
     ],
     [
      -57.0438249,
      -25.615877
     ],
     [
      -57.0438507,
      -25.6158123
     ],
     [
      -57.0438779,
      -25.6157238
     ],
     [
      -57.0438963,
      -25.6156334
     ],
     [
      -57.043896,
      -25.6155377
     ],
     [
      -57.0439044,
      -25.6154423
     ],
     [
      -57.0439234,
      -25.6153385
     ],
     [
      -57.0439526,
      -25.6152367
     ],
     [
      -57.0439903,
      -25.6151275
     ],
     [
      -57.0440341,
      -25.6150202
     ],
     [
      -57.0440841,
      -25.614915
     ],
     [
      -57.0441467,
      -25.614801
     ],
     [
      -57.0442165,
      -25.6146904
     ],
     [
      -57.0442933,
      -25.6145837
     ],
     [
      -57.0443346,
      -25.6145316
     ],
     [
      -57.0443808,
      -25.614483
     ],
     [
      -57.0444316,
      -25.6144381
     ],
     [
      -57.0444864,
      -25.6143975
     ],
     [
      -57.0445539,
      -25.6143563
     ],
     [
      -57.0446256,
      -25.6143214
     ],
     [
      -57.0447008,
      -25.6142931
     ],
     [
      -57.0447788,
      -25.6142717
     ],
     [
      -57.0448366,
      -25.6142527
     ],
     [
      -57.0448899,
      -25.614225
     ],
     [
      -57.044937,
      -25.6141895
     ],
     [
      -57.0449688,
      -25.6141567
     ],
     [
      -57.0449954,
      -25.6141203
     ],
     [
      -57.0450162,
      -25.614081
     ],
     [
      -57.0450309,
      -25.6140395
     ],
     [
      -57.0450953,
      -25.6138339
     ],
     [
      -57.0451945,
      -25.6135679
     ],
     [
      -57.0452294,
      -25.6134924
     ],
     [
      -57.045258,
      -25.6134149
     ],
     [
      -57.0452803,
      -25.6133357
     ],
     [
      -57.045296,
      -25.6132561
     ],
     [
      -57.0453053,
      -25.6131756
     ],
     [
      -57.0453081,
      -25.6130948
     ],
     [
      -57.0453045,
      -25.613014
     ],
     [
      -57.0453124,
      -25.6129621
     ],
     [
      -57.0453259,
      -25.6129112
     ],
     [
      -57.0453447,
      -25.6128616
     ],
     [
      -57.0453731,
      -25.6128066
     ],
     [
      -57.0454081,
      -25.6127548
     ],
     [
      -57.0454493,
      -25.6127068
     ],
     [
      -57.0454921,
      -25.612655
     ],
     [
      -57.0455297,
      -25.6126
     ],
     [
      -57.045562,
      -25.6125424
     ],
     [
      -57.0455857,
      -25.6124899
     ],
     [
      -57.0456049,
      -25.612436
     ],
     [
      -57.0456988,
      -25.6122981
     ],
     [
      -57.0457739,
      -25.6121868
     ],
     [
      -57.0457989,
      -25.6121262
     ],
     [
      -57.0458168,
      -25.6120635
     ],
     [
      -57.0458274,
      -25.6119985
     ],
     [
      -57.0458302,
      -25.6119329
     ],
     [
      -57.0458865,
      -25.6117829
     ],
     [
      -57.0461279,
      -25.6112847
     ]
    ]
   }
  },
  {
   "type": "Feature",
   "properties": {
    "bounds": {
     "minlat": -25.6172949,
     "minlon": -57.0391005,
     "maxlat": -25.6166008,
     "maxlon": -57.0326002
    },
    "tags": {
     "highway": "service",
     "surface": "unpaved"
    }
   },
   "geometry": {
    "type": "LineString",
    "coordinates": [
     [
      -57.0391005,
      -25.6168919
     ],
     [
      -57.0385695,
      -25.6166404
     ],
     [
      -57.0380008,
      -25.6166887
     ],
     [
      -57.037738,
      -25.6167807
     ],
     [
      -57.0373678,
      -25.6169596
     ],
     [
      -57.0372981,
      -25.6169805
     ],
     [
      -57.0372257,
      -25.6169636
     ],
     [
      -57.0371868,
      -25.6169309
     ],
     [
      -57.0371827,
      -25.6168693
     ],
     [
      -57.0371908,
      -25.6167943
     ],
     [
      -57.0371801,
      -25.6167205
     ],
     [
      -57.0371318,
      -25.6166492
     ],
     [
      -57.0370714,
      -25.6166117
     ],
     [
      -57.0370191,
      -25.6166008
     ],
     [
      -57.0368475,
      -25.6166597
     ],
     [
      -57.0364988,
      -25.616829
     ],
     [
      -57.0361876,
      -25.617008
     ],
     [
      -57.0360482,
      -25.617066
     ],
     [
      -57.035737,
      -25.6172353
     ],
     [
      -57.0355023,
      -25.6172949
     ],
     [
      -57.0352905,
      -25.6172804
     ],
     [
      -57.0348546,
      -25.6172635
     ],
     [
      -57.0347607,
      -25.6172538
     ],
     [
      -57.0346776,
      -25.6172212
     ],
     [
      -57.0345783,
      -25.6171655
     ],
     [
      -57.0344992,
      -25.6171365
     ],
     [
      -57.0343745,
      -25.6171337
     ],
     [
      -57.0328982,
      -25.61717
     ],
     [
      -57.0326002,
      -25.6171837
     ]
    ]
   }
  }
 ]
}