{
 "type": "FeatureCollection",
 "features": [
  {
   "type": "Feature",
   "properties": {
    "bounds": {
     "minlat": -25.6125016,
     "minlon": -57.0363577,
     "maxlat": -25.6123821,
     "maxlon": -57.0362376
    },
    "tags": {
     "building": "house"
    }
   },
   "geometry": {
    "type": "LineString",
    "coordinates": [
     [
      -57.0362853,
      -25.6123821
     ],
     [
      -57.0362376,
      -25.6124155
     ],
     [
      -57.0362946,
      -25.6125016
     ],
     [
      -57.0363577,
      -25.6124655
     ],
     [
      -57.0362853,
      -25.6123821
     ]
    ]
   }
  },
  {
   "type": "Feature",
   "properties": {
    "bounds": {
     "minlat": -25.6130648,
     "minlon": -57.0332943,
     "maxlat": -25.6130043,
     "maxlon": -57.0332252
    },
    "tags": {
     "building": "house"
    }
   },
   "geometry": {
    "type": "LineString",
    "coordinates": [
     [
      -57.0332943,
      -25.6130272
     ],
     [
      -57.0332496,
      -25.6130043
     ],
     [
      -57.0332252,
      -25.6130446
     ],
     [
      -57.0332638,
      -25.6130648
     ],
     [
      -57.0332943,
      -25.6130272
     ]
    ]
   }
  },
  {
   "type": "Feature",
   "properties": {
    "bounds": {
     "minlat": -25.6129182,
     "minlon": -57.0334996,
     "maxlat": -25.6128568,
     "maxlon": -57.0333522
    },
    "tags": {
     "building": "house"
    }
   },
   "geometry": {
    "type": "LineString",
    "coordinates": [
     [
      -57.0334965,
      -25.6128568
     ],
     [
      -57.0333522,
      -25.6128678
     ],
     [
      -57.0333543,
      -25.6129182
     ],
     [
      -57.0334996,
      -25.6129053
     ],
     [
      -57.0334965,
      -25.6128568
     ]
    ]
   }
  },
  {
   "type": "Feature",
   "properties": {
    "bounds": {
     "minlat": -25.6113152,
     "minlon": -57.0356419,
     "maxlat": -25.6112483,
     "maxlon": -57.0355725
    },
    "tags": {
     "building": "house"
    }
   },
   "geometry": {
    "type": "LineString",
    "coordinates": [
     [
      -57.035611,
      -25.6112483
     ],
     [
      -57.0355906,
      -25.6112578
     ],
     [
      -57.035597,
      -25.6112731
     ],
     [
      -57.0355725,
      -25.6112868
     ],
     [
      -57.0356017,
      -25.6113152
     ],
     [
      -57.0356419,
      -25.6112894
     ],
     [
      -57.035611,
      -25.6112483
     ]
    ]
   }
  },
  {
   "type": "Feature",
   "properties": {
    "bounds": {
     "minlat": -25.6112847,
     "minlon": -57.0356974,
     "maxlat": -25.611211,
     "maxlon": -57.0356145
    },
    "tags": {
     "building": "house"
    }
   },
   "geometry": {
    "type": "LineString",
    "coordinates": [
     [
      -57.0356647,
      -25.611211
     ],
     [
      -57.0356145,
      -25.6112415
     ],
     [
      -57.0356478,
      -25.6112847
     ],
     [
      -57.0356974,
      -25.6112536
     ],
     [
      -57.0356647,
      -25.611211
     ]
    ]
   }
  },
  {
   "type": "Feature",
   "properties": {
    "bounds": {
     "minlat": -25.6092821,
     "minlon": -57.035515,
     "maxlat": -25.609224,
     "maxlon": -57.035444
    },
    "tags": {
     "building": "house"
    }
   },
   "geometry": {
    "type": "LineString",
    "coordinates": [
     [
      -57.035515,
      -25.6092506
     ],
     [
      -57.0354829,
      -25.609224
     ],
     [
      -57.035444,
      -25.609247
     ],
     [
      -57.0354802,
      -25.6092821
     ],
     [
      -57.035515,
      -25.6092506
     ]
    ]
   }
  },
  {
   "type": "Feature",
   "properties": {
    "bounds": {
     "minlat": -25.6092652,
     "minlon": -57.035389,
     "maxlat": -25.6091599,
     "maxlon": -57.035283
    },
    "tags": {
     "building": "house"
    }
   },
   "geometry": {
    "type": "LineString",
    "coordinates": [
     [
      -57.035389,
      -25.6092325
     ],
     [
      -57.0353286,
      -25.6091599
     ],
     [
      -57.035283,
      -25.6091914
     ],
     [
      -57.035338,
      -25.6092652
     ],
     [
      -57.035389,
      -25.6092325
     ]
    ]
   }
  },
  {
   "type": "Feature",
   "properties": {
    "bounds": {
     "minlat": -25.6100013,
     "minlon": -57.0353464,
     "maxlat": -25.6099033,
     "maxlon": -57.0352566
    },
    "tags": {
     "building": "house"
    }
   },
   "geometry": {
    "type": "LineString",
    "coordinates": [
     [
      -57.0352566,
      -25.6099384
     ],
     [
      -57.0352955,
      -25.6100013
     ],
     [
      -57.0353464,
      -25.6099674
     ],
     [
      -57.0353008,
      -25.6099033
     ],
     [
      -57.0352566,
      -25.6099384
     ]
    ]
   }
  },
  {
   "type": "Feature",
   "properties": {
    "bounds": {
     "minlat": -25.6109158,
     "minlon": -57.0332694,
     "maxlat": -25.6107922,
     "maxlon": -57.0331179
    },
    "tags": {
     "building": "house"
    }
   },
   "geometry": {
    "type": "LineString",
    "coordinates": [
     [
      -57.0332437,
      -25.6107922
     ],
     [
      -57.0331179,
      -25.6108194
     ],
     [
      -57.0331436,
      -25.6109158
     ],
     [
      -57.0332694,
      -25.6108886
     ],
     [
      -57.0332437,
      -25.6107922
     ]
    ]
   }
  },
  {
   "type": "Feature",
   "properties": {
    "bounds": {
     "minlat": -25.6107365,
     "minlon": -57.0332256,
     "maxlat": -25.6106087,
     "maxlon": -57.0331275
    },
    "tags": {
     "building": "house"
    }
   },
   "geometry": {
    "type": "LineString",
    "coordinates": [
     [
      -57.0331967,
      -25.6106087
     ],
     [
      -57.0331275,
      -25.610623
     ],
     [
      -57.0331564,
      -25.6107365
     ],
     [
      -57.0332256,
      -25.6107222
     ],
     [
      -57.0331967,
      -25.6106087
     ]
    ]
   }
  },
  {
   "type": "Feature",
   "properties": {
    "bounds": {
     "minlat": -25.6029301,
     "minlon": -57.0388732,
     "maxlat": -25.6028103,
     "maxlon": -57.0387134
    },
    "tags": {
     "building": "house"
    }
   },
   "geometry": {
    "type": "LineString",
    "coordinates": [
     [
      -57.0388498,
      -25.6028103
     ],
     [
      -57.0388732,
      -25.6029017
     ],
     [
      -57.0387368,
      -25.6029301
     ],
     [
      -57.0387134,
      -25.6028387
     ],
     [
      -57.0388498,
      -25.6028103
     ]
    ]
   }
  },
  {
   "type": "Feature",
   "properties": {
    "bounds": {
     "minlat": -25.6029359,
     "minlon": -57.039003,
     "maxlat": -25.6028353,
     "maxlon": -57.0389153
    },
    "tags": {
     "building": "house"
    }
   },
   "geometry": {
    "type": "LineString",
    "coordinates": [
     [
      -57.0389858,
      -25.6028353
     ],
     [
      -57.0389153,
      -25.6028464
     ],
     [
      -57.0389325,
      -25.6029359
     ],
     [
      -57.039003,
      -25.6029248
     ],
     [
      -57.0389858,
      -25.6028353
     ]
    ]
   }
  },
  {
   "type": "Feature",
   "properties": {
    "bounds": {
     "minlat": -25.6031826,
     "minlon": -57.0390585,
     "maxlat": -25.6031263,
     "maxlon": -57.0389806
    },
    "tags": {
     "building": "house"
    }
   },
   "geometry": {
    "type": "LineString",
    "coordinates": [
     [
      -57.0390491,
      -25.6031263
     ],
     [
      -57.0389806,
      -25.603138
     ],
     [
      -57.03899,
      -25.6031826
     ],
     [
      -57.0390585,
      -25.6031708
     ],
     [
      -57.0390491,
      -25.6031263
     ]
    ]
   }
  },
  {
   "type": "Feature",
   "properties": {
    "bounds": {
     "minlat": -25.6032575,
     "minlon": -57.0391795,
     "maxlat": -25.6031528,
     "maxlon": -57.0390609
    },
    "tags": {
     "building": "house"
    }
   },
   "geometry": {
    "type": "LineString",
    "coordinates": [
     [
      -57.0391585,
      -25.6031528
     ],
     [
      -57.0390609,
      -25.6031724
     ],
     [
      -57.0390819,
      -25.6032575
     ],
     [
      -57.0391795,
      -25.603238
     ],
     [
      -57.0391585,
      -25.6031528
     ]
    ]
   }
  },
  {
   "type": "Feature",
   "properties": {
    "bounds": {
     "minlat": -25.6032294,
     "minlon": -57.0389333,
     "maxlat": -25.6031643,
     "maxlon": -57.0388491
    },
    "tags": {
     "building": "house"
    }
   },
   "geometry": {
    "type": "LineString",
    "coordinates": [
     [
      -57.0389229,
      -25.6031643
     ],
     [
      -57.0388491,
      -25.603176
     ],
     [
      -57.0388595,
      -25.6032294
     ],
     [
      -57.0389333,
      -25.6032177
     ],
     [
      -57.0389229,
      -25.6031643
     ]
    ]
   }
  },
  {
   "type": "Feature",
   "properties": {
    "bounds": {
     "minlat": -25.6100861,
     "minlon": -57.0389333,
     "maxlat": -25.609968,
     "maxlon": -57.0388013
    },
    "tags": {
     "building": "house"
    }
   },
   "geometry": {
    "type": "LineString",
    "coordinates": [
     [
      -57.0388522,
      -25.609968
     ],
     [
      -57.0388013,
      -25.6100386
     ],
     [
      -57.0388824,
      -25.6100861
     ],
     [
      -57.0389333,
      -25.6100155
     ],
     [
      -57.0388522,
      -25.609968
     ]
    ]
   }
  }
 ],
 "description": "Within 500m of LQV polygon. 16 of 31 features kept.",
 "name": "osm_buildings_near",
 "crs": {
  "type": "name",
  "properties": {
   "name": "urn:ogc:def:crs:OGC:1.3:CRS84"
  }
 }
}