{
  "type": "FeatureCollection",
  "features": [
    {
      "type": "Feature",
      "geometry": {
        "type": "Point",
        "coordinates": [
          -57.01902777776062,
          -25.625138888904488
        ]
      },
      "properties": {
        "elevation_m": 287.0,
        "drop_to_lowest_neighbor_m": 28.0
      }
    },
    {
      "type": "Feature",
      "geometry": {
        "type": "Point",
        "coordinates": [
          -57.018749999982845,
          -25.625138888904488
        ]
      },
      "properties": {
        "elevation_m": 296.0,
        "drop_to_lowest_neighbor_m": 28.0
      }
    },
    {
      "type": "Feature",
      "geometry": {
        "type": "Point",
        "coordinates": [
          -57.01652777776062,
          -25.626805555571156
        ]
      },
      "properties": {
        "elevation_m": 235.0,
        "drop_to_lowest_neighbor_m": 27.0
      }
    },
    {
      "type": "Feature",
      "geometry": {
        "type": "Point",
        "coordinates": [
          -57.015972222205065,
          -25.626805555571156
        ]
      },
      "properties": {
        "elevation_m": 234.0,
        "drop_to_lowest_neighbor_m": 26.0
      }
    },
    {
      "type": "Feature",
      "geometry": {
        "type": "Point",
        "coordinates": [
          -57.01847222220507,
          -25.625416666682266
        ]
      },
      "properties": {
        "elevation_m": 275.0,
        "drop_to_lowest_neighbor_m": 25.0
      }
    },
    {
      "type": "Feature",
      "geometry": {
        "type": "Point",
        "coordinates": [
          -57.01986111109396,
          -25.625416666682266
        ]
      },
      "properties": {
        "elevation_m": 226.0,
        "drop_to_lowest_neighbor_m": 24.0
      }
    },
    {
      "type": "Feature",
      "geometry": {
        "type": "Point",
        "coordinates": [
          -57.018749999982845,
          -25.625694444460045
        ]
      },
      "properties": {
        "elevation_m": 245.0,
        "drop_to_lowest_neighbor_m": 24.0
      }
    },
    {
      "type": "Feature",
      "geometry": {
        "type": "Point",
        "coordinates": [
          -57.01819444442729,
          -25.625694444460045
        ]
      },
      "properties": {
        "elevation_m": 260.0,
        "drop_to_lowest_neighbor_m": 24.0
      }
    },
    {
      "type": "Feature",
      "geometry": {
        "type": "Point",
        "coordinates": [
          -57.02041666664951,
          -25.624583333348934
        ]
      },
      "properties": {
        "elevation_m": 207.0,
        "drop_to_lowest_neighbor_m": 23.0
      }
    },
    {
      "type": "Feature",
      "geometry": {
        "type": "Point",
        "coordinates": [
          -57.01986111109396,
          -25.625138888904488
        ]
      },
      "properties": {
        "elevation_m": 236.0,
        "drop_to_lowest_neighbor_m": 23.0
      }
    },
    {
      "type": "Feature",
      "geometry": {
        "type": "Point",
        "coordinates": [
          -57.0193055555384,
          -25.625138888904488
        ]
      },
      "properties": {
        "elevation_m": 271.0,
        "drop_to_lowest_neighbor_m": 23.0
      }
    },
    {
      "type": "Feature",
      "geometry": {
        "type": "Point",
        "coordinates": [
          -57.015972222205065,
          -25.625138888904488
        ]
      },
      "properties": {
        "elevation_m": 298.0,
        "drop_to_lowest_neighbor_m": 23.0
      }
    },
    {
      "type": "Feature",
      "geometry": {
        "type": "Point",
        "coordinates": [
          -57.018749999982845,
          -25.625416666682266
        ]
      },
      "properties": {
        "elevation_m": 268.0,
        "drop_to_lowest_neighbor_m": 23.0
      }
    },
    {
      "type": "Feature",
      "geometry": {
        "type": "Point",
        "coordinates": [
          -57.01819444442729,
          -25.625416666682266
        ]
      },
      "properties": {
        "elevation_m": 283.0,
        "drop_to_lowest_neighbor_m": 23.0
      }
    },
    {
      "type": "Feature",
      "geometry": {
        "type": "Point",
        "coordinates": [
          -57.015972222205065,
          -25.625416666682266
        ]
      },
      "properties": {
        "elevation_m": 290.0,
        "drop_to_lowest_neighbor_m": 23.0
      }
    },
    {
      "type": "Feature",
      "geometry": {
        "type": "Point",
        "coordinates": [
          -57.01569444442729,
          -25.625416666682266
        ]
      },
      "properties": {
        "elevation_m": 267.0,
        "drop_to_lowest_neighbor_m": 23.0
      }
    },
    {
      "type": "Feature",
      "geometry": {
        "type": "Point",
        "coordinates": [
          -57.01902777776062,
          -25.625694444460045
        ]
      },
      "properties": {
        "elevation_m": 237.0,
        "drop_to_lowest_neighbor_m": 23.0
      }
    },
    {
      "type": "Feature",
      "geometry": {
        "type": "Point",
        "coordinates": [
          -57.01847222220507,
          -25.625694444460045
        ]
      },
      "properties": {
        "elevation_m": 250.0,
        "drop_to_lowest_neighbor_m": 23.0
      }
    },
    {
      "type": "Feature",
      "geometry": {
        "type": "Point",
        "coordinates": [
          -57.01791666664951,
          -25.625694444460045
        ]
      },
      "properties": {
        "elevation_m": 271.0,
        "drop_to_lowest_neighbor_m": 23.0
      }
    },
    {
      "type": "Feature",
      "geometry": {
        "type": "Point",
        "coordinates": [
          -57.015972222205065,
          -25.625694444460045
        ]
      },
      "properties": {
        "elevation_m": 285.0,
        "drop_to_lowest_neighbor_m": 23.0
      }
    },
    {
      "type": "Feature",
      "geometry": {
        "type": "Point",
        "coordinates": [
          -57.01819444442729,
          -25.61958333334893
        ]
      },
      "properties": {
        "elevation_m": 257.0,
        "drop_to_lowest_neighbor_m": 22.0
      }
    },
    {
      "type": "Feature",
      "geometry": {
        "type": "Point",
        "coordinates": [
          -57.02097222220507,
          -25.621805555571154
        ]
      },
      "properties": {
        "elevation_m": 241.0,
        "drop_to_lowest_neighbor_m": 22.0
      }
    },
    {
      "type": "Feature",
      "geometry": {
        "type": "Point",
        "coordinates": [
          -57.02069444442729,
          -25.622083333348932
        ]
      },
      "properties": {
        "elevation_m": 235.0,
        "drop_to_lowest_neighbor_m": 22.0
      }
    },
    {
      "type": "Feature",
      "geometry": {
        "type": "Point",
        "coordinates": [
          -57.01958333331618,
          -25.624861111126712
        ]
      },
      "properties": {
        "elevation_m": 264.0,
        "drop_to_lowest_neighbor_m": 22.0
      }
    },
    {
      "type": "Feature",
      "geometry": {
        "type": "Point",
        "coordinates": [
          -57.01902777776062,
          -25.625416666682266
        ]
      },
      "properties": {
        "elevation_m": 259.0,
        "drop_to_lowest_neighbor_m": 22.0
      }
    },
    {
      "type": "Feature",
      "geometry": {
        "type": "Point",
        "coordinates": [
          -57.01569444442729,
          -25.625972222237824
        ]
      },
      "properties": {
        "elevation_m": 259.0,
        "drop_to_lowest_neighbor_m": 22.0
      }
    },
    {
      "type": "Feature",
      "geometry": {
        "type": "Point",
        "coordinates": [
          -57.01652777776062,
          -25.626527777793378
        ]
      },
      "properties": {
        "elevation_m": 257.0,
        "drop_to_lowest_neighbor_m": 22.0
      }
    },
    {
      "type": "Feature",
      "geometry": {
        "type": "Point",
        "coordinates": [
          -57.01569444442729,
          -25.626805555571156
        ]
      },
      "properties": {
        "elevation_m": 225.0,
        "drop_to_lowest_neighbor_m": 22.0
      }
    },
    {
      "type": "Feature",
      "geometry": {
        "type": "Point",
        "coordinates": [
          -57.0168055555384,
          -25.619305555571156
        ]
      },
      "properties": {
        "elevation_m": 279.0,
        "drop_to_lowest_neighbor_m": 21.0
      }
    },
    {
      "type": "Feature",
      "geometry": {
        "type": "Point",
        "coordinates": [
          -57.02041666664951,
          -25.62236111112671
        ]
      },
      "properties": {
        "elevation_m": 225.0,
        "drop_to_lowest_neighbor_m": 21.0
      }
    },
    {
      "type": "Feature",
      "geometry": {
        "type": "Point",
        "coordinates": [
          -57.01986111109396,
          -25.624861111126712
        ]
      },
      "properties": {
        "elevation_m": 242.0,
        "drop_to_lowest_neighbor_m": 21.0
      }
    },
    {
      "type": "Feature",
      "geometry": {
        "type": "Point",
        "coordinates": [
          -57.0193055555384,
          -25.624861111126712
        ]
      },
      "properties": {
        "elevation_m": 285.0,
        "drop_to_lowest_neighbor_m": 21.0
      }
    },
    {
      "type": "Feature",
      "geometry": {
        "type": "Point",
        "coordinates": [
          -57.01763888887174,
          -25.625694444460045
        ]
      },
      "properties": {
        "elevation_m": 280.0,
        "drop_to_lowest_neighbor_m": 21.0
      }
    },
    {
      "type": "Feature",
      "geometry": {
        "type": "Point",
        "coordinates": [
          -57.0168055555384,
          -25.626527777793378
        ]
      },
      "properties": {
        "elevation_m": 251.0,
        "drop_to_lowest_neighbor_m": 21.0
      }
    },
    {
      "type": "Feature",
      "geometry": {
        "type": "Point",
        "coordinates": [
          -57.01624999998285,
          -25.626527777793378
        ]
      },
      "properties": {
        "elevation_m": 258.0,
        "drop_to_lowest_neighbor_m": 21.0
      }
    },
    {
      "type": "Feature",
      "geometry": {
        "type": "Point",
        "coordinates": [
          -57.01986111109396,
          -25.61958333334893
        ]
      },
      "properties": {
        "elevation_m": 241.0,
        "drop_to_lowest_neighbor_m": 20.0
      }
    },
    {
      "type": "Feature",
      "geometry": {
        "type": "Point",
        "coordinates": [
          -57.015972222205065,
          -25.61958333334893
        ]
      },
      "properties": {
        "elevation_m": 322.0,
        "drop_to_lowest_neighbor_m": 20.0
      }
    },
    {
      "type": "Feature",
      "geometry": {
        "type": "Point",
        "coordinates": [
          -57.01652777776062,
          -25.61986111112671
        ]
      },
      "properties": {
        "elevation_m": 317.0,
        "drop_to_lowest_neighbor_m": 20.0
      }
    },
    {
      "type": "Feature",
      "geometry": {
        "type": "Point",
        "coordinates": [
          -57.020138888871735,
          -25.62013888890449
        ]
      },
      "properties": {
        "elevation_m": 267.0,
        "drop_to_lowest_neighbor_m": 20.0
      }
    },
    {
      "type": "Feature",
      "geometry": {
        "type": "Point",
        "coordinates": [
          -57.02208333331618,
          -25.62097222223782
        ]
      },
      "properties": {
        "elevation_m": 226.0,
        "drop_to_lowest_neighbor_m": 20.0
      }
    },
    {
      "type": "Feature",
      "geometry": {
        "type": "Point",
        "coordinates": [
          -57.02124999998284,
          -25.621805555571154
        ]
      },
      "properties": {
        "elevation_m": 225.0,
        "drop_to_lowest_neighbor_m": 20.0
      }
    },
    {
      "type": "Feature",
      "geometry": {
        "type": "Point",
        "coordinates": [
          -57.02041666664951,
          -25.622083333348932
        ]
      },
      "properties": {
        "elevation_m": 245.0,
        "drop_to_lowest_neighbor_m": 20.0
      }
    },
    {
      "type": "Feature",
      "geometry": {
        "type": "Point",
        "coordinates": [
          -57.02069444442729,
          -25.62236111112671
        ]
      },
      "properties": {
        "elevation_m": 213.0,
        "drop_to_lowest_neighbor_m": 20.0
      }
    },
    {
      "type": "Feature",
      "geometry": {
        "type": "Point",
        "coordinates": [
          -57.01902777776062,
          -25.6237500000156
        ]
      },
      "properties": {
        "elevation_m": 288.0,
        "drop_to_lowest_neighbor_m": 20.0
      }
    },
    {
      "type": "Feature",
      "geometry": {
        "type": "Point",
        "coordinates": [
          -57.01958333331618,
          -25.624305555571155
        ]
      },
      "properties": {
        "elevation_m": 264.0,
        "drop_to_lowest_neighbor_m": 20.0
      }
    },
    {
      "type": "Feature",
      "geometry": {
        "type": "Point",
        "coordinates": [
          -57.01902777776062,
          -25.624305555571155
        ]
      },
      "properties": {
        "elevation_m": 303.0,
        "drop_to_lowest_neighbor_m": 20.0
      }
    },
    {
      "type": "Feature",
      "geometry": {
        "type": "Point",
        "coordinates": [
          -57.01791666664951,
          -25.624861111126712
        ]
      },
      "properties": {
        "elevation_m": 326.0,
        "drop_to_lowest_neighbor_m": 20.0
      }
    },
    {
      "type": "Feature",
      "geometry": {
        "type": "Point",
        "coordinates": [
          -57.01958333331618,
          -25.625138888904488
        ]
      },
      "properties": {
        "elevation_m": 256.0,
        "drop_to_lowest_neighbor_m": 20.0
      }
    },
    {
      "type": "Feature",
      "geometry": {
        "type": "Point",
        "coordinates": [
          -57.01569444442729,
          -25.625138888904488
        ]
      },
      "properties": {
        "elevation_m": 275.0,
        "drop_to_lowest_neighbor_m": 20.0
      }
    },
    {
      "type": "Feature",
      "geometry": {
        "type": "Point",
        "coordinates": [
          -57.01791666664951,
          -25.625972222237824
        ]
      },
      "properties": {
        "elevation_m": 248.0,
        "drop_to_lowest_neighbor_m": 20.0
      }
    }
  ]
}