{"type": "FeatureCollection", "features": [{"type": "Feature", "geometry": {"type": "Point", "coordinates": [-57.03762, -25.607361]}, "properties": {"estimated_density_class": 2, "density_label": "sparse", "method": "NDVI-class-density-sampled-from-raster-UTM21S", "source": "Sentinel-2 S2B_21JVM_20260512_0_L2A"}}, {"type": "Feature", "geometry": {"type": "Point", "coordinates": [-57.036133, -25.608451]}, "properties": {"estimated_density_class": 2, "density_label": "sparse", "method": "NDVI-class-density-sampled-from-raster-UTM21S", "source": "Sentinel-2 S2B_21JVM_20260512_0_L2A"}}, {"type": "Feature", "geometry": {"type": "Point", "coordinates": [-57.036996, -25.607922]}, "properties": {"estimated_density_class": 2, "density_label": "sparse", "method": "NDVI-class-density-sampled-from-raster-UTM21S", "source": "Sentinel-2 S2B_21JVM_20260512_0_L2A"}}, {"type": "Feature", "geometry": {"type": "Point", "coordinates": [-57.037789, -25.607179]}, "properties": {"estimated_density_class": 2, "density_label": "sparse", "method": "NDVI-class-density-sampled-from-raster-UTM21S", "source": "Sentinel-2 S2B_21JVM_20260512_0_L2A"}}, {"type": "Feature", "geometry": {"type": "Point", "coordinates": [-57.03324, -25.610636]}, "properties": {"estimated_density_class": 2, "density_label": "sparse", "method": "NDVI-class-density-sampled-from-raster-UTM21S", "source": "Sentinel-2 S2B_21JVM_20260512_0_L2A"}}, {"type": "Feature", "geometry": {"type": "Point", "coordinates": [-57.03573, -25.608616]}, "properties": {"estimated_density_class": 2, "density_label": "sparse", "method": "NDVI-class-density-sampled-from-raster-UTM21S", "source": "Sentinel-2 S2B_21JVM_20260512_0_L2A"}}, {"type": "Feature", "geometry": {"type": "Point", "coordinates": [-57.033137, -25.610632]}, "properties": {"estimated_density_class": 2, "density_label": "sparse", "method": "NDVI-class-density-sampled-from-raster-UTM21S", "source": "Sentinel-2 S2B_21JVM_20260512_0_L2A"}}, {"type": "Feature", "geometry": {"type": "Point", "coordinates": [-57.036606, -25.608103]}, "properties": {"estimated_density_class": 2, "density_label": "sparse", "method": "NDVI-class-density-sampled-from-raster-UTM21S", "source": "Sentinel-2 S2B_21JVM_20260512_0_L2A"}}, {"type": "Feature", "geometry": {"type": "Point", "coordinates": [-57.033234, -25.610737]}, "properties": {"estimated_density_class": 2, "density_label": "sparse", "method": "NDVI-class-density-sampled-from-raster-UTM21S", "source": "Sentinel-2 S2B_21JVM_20260512_0_L2A"}}, {"type": "Feature", "geometry": {"type": "Point", "coordinates": [-57.037511, -25.607654]}, "properties": {"estimated_density_class": 2, "density_label": "sparse", "method": "NDVI-class-density-sampled-from-raster-UTM21S", "source": "Sentinel-2 S2B_21JVM_20260512_0_L2A"}}, {"type": "Feature", "geometry": {"type": "Point", "coordinates": [-57.034134, -25.610561]}, "properties": {"estimated_density_class": 2, "density_label": "sparse", "method": "NDVI-class-density-sampled-from-raster-UTM21S", "source": "Sentinel-2 S2B_21JVM_20260512_0_L2A"}}, {"type": "Feature", "geometry": {"type": "Point", "coordinates": [-57.037296, -25.607714]}, "properties": {"estimated_density_class": 2, "density_label": "sparse", "method": "NDVI-class-density-sampled-from-raster-UTM21S", "source": "Sentinel-2 S2B_21JVM_20260512_0_L2A"}}, {"type": "Feature", "geometry": {"type": "Point", "coordinates": [-57.0372, -25.607717]}, "properties": {"estimated_density_class": 2, "density_label": "sparse", "method": "NDVI-class-density-sampled-from-raster-UTM21S", "source": "Sentinel-2 S2B_21JVM_20260512_0_L2A"}}, {"type": "Feature", "geometry": {"type": "Point", "coordinates": [-57.035614, -25.605414]}, "properties": {"estimated_density_class": 2, "density_label": "sparse", "method": "NDVI-class-density-sampled-from-raster-UTM21S", "source": "Sentinel-2 S2B_21JVM_20260512_0_L2A"}}, {"type": "Feature", "geometry": {"type": "Point", "coordinates": [-57.037188, -25.607835]}, "properties": {"estimated_density_class": 2, "density_label": "sparse", "method": "NDVI-class-density-sampled-from-raster-UTM21S", "source": "Sentinel-2 S2B_21JVM_20260512_0_L2A"}}, {"type": "Feature", "geometry": {"type": "Point", "coordinates": [-57.033119, -25.610516]}, "properties": {"estimated_density_class": 2, "density_label": "sparse", "method": "NDVI-class-density-sampled-from-raster-UTM21S", "source": "Sentinel-2 S2B_21JVM_20260512_0_L2A"}}, {"type": "Feature", "geometry": {"type": "Point", "coordinates": [-57.037897, -25.606996]}, "properties": {"estimated_density_class": 2, "density_label": "sparse", "method": "NDVI-class-density-sampled-from-raster-UTM21S", "source": "Sentinel-2 S2B_21JVM_20260512_0_L2A"}}, {"type": "Feature", "geometry": {"type": "Point", "coordinates": [-57.033106, -25.610698]}, "properties": {"estimated_density_class": 2, "density_label": "sparse", "method": "NDVI-class-density-sampled-from-raster-UTM21S", "source": "Sentinel-2 S2B_21JVM_20260512_0_L2A"}}, {"type": "Feature", "geometry": {"type": "Point", "coordinates": [-57.037127, -25.607852]}, "properties": {"estimated_density_class": 2, "density_label": "sparse", "method": "NDVI-class-density-sampled-from-raster-UTM21S", "source": "Sentinel-2 S2B_21JVM_20260512_0_L2A"}}, {"type": "Feature", "geometry": {"type": "Point", "coordinates": [-57.03608, -25.608385]}, "properties": {"estimated_density_class": 2, "density_label": "sparse", "method": "NDVI-class-density-sampled-from-raster-UTM21S", "source": "Sentinel-2 S2B_21JVM_20260512_0_L2A"}}, {"type": "Feature", "geometry": {"type": "Point", "coordinates": [-57.035326, -25.609157]}, "properties": {"estimated_density_class": 2, "density_label": "sparse", "method": "NDVI-class-density-sampled-from-raster-UTM21S", "source": "Sentinel-2 S2B_21JVM_20260512_0_L2A"}}, {"type": "Feature", "geometry": {"type": "Point", "coordinates": [-57.038005, -25.60676]}, "properties": {"estimated_density_class": 2, "density_label": "sparse", "method": "NDVI-class-density-sampled-from-raster-UTM21S", "source": "Sentinel-2 S2B_21JVM_20260512_0_L2A"}}, {"type": "Feature", "geometry": {"type": "Point", "coordinates": [-57.037686, -25.607449]}, "properties": {"estimated_density_class": 2, "density_label": "sparse", "method": "NDVI-class-density-sampled-from-raster-UTM21S", "source": "Sentinel-2 S2B_21JVM_20260512_0_L2A"}}, {"type": "Feature", "geometry": {"type": "Point", "coordinates": [-57.035684, -25.605468]}, "properties": {"estimated_density_class": 2, "density_label": "sparse", "method": "NDVI-class-density-sampled-from-raster-UTM21S", "source": "Sentinel-2 S2B_21JVM_20260512_0_L2A"}}, {"type": "Feature", "geometry": {"type": "Point", "coordinates": [-57.034432, -25.610472]}, "properties": {"estimated_density_class": 2, "density_label": "sparse", "method": "NDVI-class-density-sampled-from-raster-UTM21S", "source": "Sentinel-2 S2B_21JVM_20260512_0_L2A"}}, {"type": "Feature", "geometry": {"type": "Point", "coordinates": [-57.037675, -25.607306]}, "properties": {"estimated_density_class": 2, "density_label": "sparse", "method": "NDVI-class-density-sampled-from-raster-UTM21S", "source": "Sentinel-2 S2B_21JVM_20260512_0_L2A"}}, {"type": "Feature", "geometry": {"type": "Point", "coordinates": [-57.035982, -25.608465]}, "properties": {"estimated_density_class": 2, "density_label": "sparse", "method": "NDVI-class-density-sampled-from-raster-UTM21S", "source": "Sentinel-2 S2B_21JVM_20260512_0_L2A"}}, {"type": "Feature", "geometry": {"type": "Point", "coordinates": [-57.036205, -25.608364]}, "properties": {"estimated_density_class": 2, "density_label": "sparse", "method": "NDVI-class-density-sampled-from-raster-UTM21S", "source": "Sentinel-2 S2B_21JVM_20260512_0_L2A"}}, {"type": "Feature", "geometry": {"type": "Point", "coordinates": [-57.034281, -25.610377]}, "properties": {"estimated_density_class": 2, "density_label": "sparse", "method": "NDVI-class-density-sampled-from-raster-UTM21S", "source": "Sentinel-2 S2B_21JVM_20260512_0_L2A"}}, {"type": "Feature", "geometry": {"type": "Point", "coordinates": [-57.037669, -25.60738]}, "properties": {"estimated_density_class": 2, "density_label": "sparse", "method": "NDVI-class-density-sampled-from-raster-UTM21S", "source": "Sentinel-2 S2B_21JVM_20260512_0_L2A"}}, {"type": "Feature", "geometry": {"type": "Point", "coordinates": [-57.037476, -25.607474]}, "properties": {"estimated_density_class": 2, "density_label": "sparse", "method": "NDVI-class-density-sampled-from-raster-UTM21S", "source": "Sentinel-2 S2B_21JVM_20260512_0_L2A"}}, {"type": "Feature", "geometry": {"type": "Point", "coordinates": [-57.036911, -25.608001]}, "properties": {"estimated_density_class": 2, "density_label": "sparse", "method": "NDVI-class-density-sampled-from-raster-UTM21S", "source": "Sentinel-2 S2B_21JVM_20260512_0_L2A"}}, {"type": "Feature", "geometry": {"type": "Point", "coordinates": [-57.037585, -25.60745]}, "properties": {"estimated_density_class": 2, "density_label": "sparse", "method": "NDVI-class-density-sampled-from-raster-UTM21S", "source": "Sentinel-2 S2B_21JVM_20260512_0_L2A"}}, {"type": "Feature", "geometry": {"type": "Point", "coordinates": [-57.037813, -25.607103]}, "properties": {"estimated_density_class": 2, "density_label": "sparse", "method": "NDVI-class-density-sampled-from-raster-UTM21S", "source": "Sentinel-2 S2B_21JVM_20260512_0_L2A"}}, {"type": "Feature", "geometry": {"type": "Point", "coordinates": [-57.036323, -25.608301]}, "properties": {"estimated_density_class": 2, "density_label": "sparse", "method": "NDVI-class-density-sampled-from-raster-UTM21S", "source": "Sentinel-2 S2B_21JVM_20260512_0_L2A"}}, {"type": "Feature", "geometry": {"type": "Point", "coordinates": [-57.035927, -25.608532]}, "properties": {"estimated_density_class": 2, "density_label": "sparse", "method": "NDVI-class-density-sampled-from-raster-UTM21S", "source": "Sentinel-2 S2B_21JVM_20260512_0_L2A"}}, {"type": "Feature", "geometry": {"type": "Point", "coordinates": [-57.037883, -25.607202]}, "properties": {"estimated_density_class": 2, "density_label": "sparse", "method": "NDVI-class-density-sampled-from-raster-UTM21S", "source": "Sentinel-2 S2B_21JVM_20260512_0_L2A"}}, {"type": "Feature", "geometry": {"type": "Point", "coordinates": [-57.038008, -25.606823]}, "properties": {"estimated_density_class": 2, "density_label": "sparse", "method": "NDVI-class-density-sampled-from-raster-UTM21S", "source": "Sentinel-2 S2B_21JVM_20260512_0_L2A"}}, {"type": "Feature", "geometry": {"type": "Point", "coordinates": [-57.035491, -25.608804]}, "properties": {"estimated_density_class": 2, "density_label": "sparse", "method": "NDVI-class-density-sampled-from-raster-UTM21S", "source": "Sentinel-2 S2B_21JVM_20260512_0_L2A"}}, {"type": "Feature", "geometry": {"type": "Point", "coordinates": [-57.036374, -25.608298]}, "properties": {"estimated_density_class": 2, "density_label": "sparse", "method": "NDVI-class-density-sampled-from-raster-UTM21S", "source": "Sentinel-2 S2B_21JVM_20260512_0_L2A"}}, {"type": "Feature", "geometry": {"type": "Point", "coordinates": [-57.037611, -25.60753]}, "properties": {"estimated_density_class": 2, "density_label": "sparse", "method": "NDVI-class-density-sampled-from-raster-UTM21S", "source": "Sentinel-2 S2B_21JVM_20260512_0_L2A"}}, {"type": "Feature", "geometry": {"type": "Point", "coordinates": [-57.035797, -25.608562]}, "properties": {"estimated_density_class": 2, "density_label": "sparse", "method": "NDVI-class-density-sampled-from-raster-UTM21S", "source": "Sentinel-2 S2B_21JVM_20260512_0_L2A"}}, {"type": "Feature", "geometry": {"type": "Point", "coordinates": [-57.037418, -25.607634]}, "properties": {"estimated_density_class": 2, "density_label": "sparse", "method": "NDVI-class-density-sampled-from-raster-UTM21S", "source": "Sentinel-2 S2B_21JVM_20260512_0_L2A"}}, {"type": "Feature", "geometry": {"type": "Point", "coordinates": [-57.035799, -25.608623]}, "properties": {"estimated_density_class": 2, "density_label": "sparse", "method": "NDVI-class-density-sampled-from-raster-UTM21S", "source": "Sentinel-2 S2B_21JVM_20260512_0_L2A"}}, {"type": "Feature", "geometry": {"type": "Point", "coordinates": [-57.037922, -25.607122]}, "properties": {"estimated_density_class": 2, "density_label": "sparse", "method": "NDVI-class-density-sampled-from-raster-UTM21S", "source": "Sentinel-2 S2B_21JVM_20260512_0_L2A"}}, {"type": "Feature", "geometry": {"type": "Point", "coordinates": [-57.037919, -25.606906]}, "properties": {"estimated_density_class": 2, "density_label": "sparse", "method": "NDVI-class-density-sampled-from-raster-UTM21S", "source": "Sentinel-2 S2B_21JVM_20260512_0_L2A"}}, {"type": "Feature", "geometry": {"type": "Point", "coordinates": [-57.037322, -25.607663]}, "properties": {"estimated_density_class": 2, "density_label": "sparse", "method": "NDVI-class-density-sampled-from-raster-UTM21S", "source": "Sentinel-2 S2B_21JVM_20260512_0_L2A"}}, {"type": "Feature", "geometry": {"type": "Point", "coordinates": [-57.034312, -25.610437]}, "properties": {"estimated_density_class": 2, "density_label": "sparse", "method": "NDVI-class-density-sampled-from-raster-UTM21S", "source": "Sentinel-2 S2B_21JVM_20260512_0_L2A"}}, {"type": "Feature", "geometry": {"type": "Point", "coordinates": [-57.036481, -25.608198]}, "properties": {"estimated_density_class": 2, "density_label": "sparse", "method": "NDVI-class-density-sampled-from-raster-UTM21S", "source": "Sentinel-2 S2B_21JVM_20260512_0_L2A"}}, {"type": "Feature", "geometry": {"type": "Point", "coordinates": [-57.032819, -25.610709]}, "properties": {"estimated_density_class": 3, "density_label": "mid", "method": "NDVI-class-density-sampled-from-raster-UTM21S", "source": "Sentinel-2 S2B_21JVM_20260512_0_L2A"}}, {"type": "Feature", "geometry": {"type": "Point", "coordinates": [-57.034201, -25.609285]}, "properties": {"estimated_density_class": 3, "density_label": "mid", "method": "NDVI-class-density-sampled-from-raster-UTM21S", "source": "Sentinel-2 S2B_21JVM_20260512_0_L2A"}}, {"type": "Feature", "geometry": {"type": "Point", "coordinates": [-57.037921, -25.606755]}, "properties": {"estimated_density_class": 3, "density_label": "mid", "method": "NDVI-class-density-sampled-from-raster-UTM21S", "source": "Sentinel-2 S2B_21JVM_20260512_0_L2A"}}, {"type": "Feature", "geometry": {"type": "Point", "coordinates": [-57.037183, -25.607638]}, "properties": {"estimated_density_class": 3, "density_label": "mid", "method": "NDVI-class-density-sampled-from-raster-UTM21S", "source": "Sentinel-2 S2B_21JVM_20260512_0_L2A"}}, {"type": "Feature", "geometry": {"type": "Point", "coordinates": [-57.034031, -25.610821]}, "properties": {"estimated_density_class": 3, "density_label": "mid", "method": "NDVI-class-density-sampled-from-raster-UTM21S", "source": "Sentinel-2 S2B_21JVM_20260512_0_L2A"}}, {"type": "Feature", "geometry": {"type": "Point", "coordinates": [-57.036425, -25.607929]}, "properties": {"estimated_density_class": 3, "density_label": "mid", "method": "NDVI-class-density-sampled-from-raster-UTM21S", "source": "Sentinel-2 S2B_21JVM_20260512_0_L2A"}}, {"type": "Feature", "geometry": {"type": "Point", "coordinates": [-57.033503, -25.611162]}, "properties": {"estimated_density_class": 3, "density_label": "mid", "method": "NDVI-class-density-sampled-from-raster-UTM21S", "source": "Sentinel-2 S2B_21JVM_20260512_0_L2A"}}, {"type": "Feature", "geometry": {"type": "Point", "coordinates": [-57.036391, -25.606495]}, "properties": {"estimated_density_class": 3, "density_label": "mid", "method": "NDVI-class-density-sampled-from-raster-UTM21S", "source": "Sentinel-2 S2B_21JVM_20260512_0_L2A"}}, {"type": "Feature", "geometry": {"type": "Point", "coordinates": [-57.033202, -25.611256]}, "properties": {"estimated_density_class": 3, "density_label": "mid", "method": "NDVI-class-density-sampled-from-raster-UTM21S", "source": "Sentinel-2 S2B_21JVM_20260512_0_L2A"}}, {"type": "Feature", "geometry": {"type": "Point", "coordinates": [-57.036979, -25.606188]}, "properties": {"estimated_density_class": 3, "density_label": "mid", "method": "NDVI-class-density-sampled-from-raster-UTM21S", "source": "Sentinel-2 S2B_21JVM_20260512_0_L2A"}}, {"type": "Feature", "geometry": {"type": "Point", "coordinates": [-57.036894, -25.605915]}, "properties": {"estimated_density_class": 3, "density_label": "mid", "method": "NDVI-class-density-sampled-from-raster-UTM21S", "source": "Sentinel-2 S2B_21JVM_20260512_0_L2A"}}, {"type": "Feature", "geometry": {"type": "Point", "coordinates": [-57.036998, -25.607568]}, "properties": {"estimated_density_class": 3, "density_label": "mid", "method": "NDVI-class-density-sampled-from-raster-UTM21S", "source": "Sentinel-2 S2B_21JVM_20260512_0_L2A"}}, {"type": "Feature", "geometry": {"type": "Point", "coordinates": [-57.036789, -25.607631]}, "properties": {"estimated_density_class": 3, "density_label": "mid", "method": "NDVI-class-density-sampled-from-raster-UTM21S", "source": "Sentinel-2 S2B_21JVM_20260512_0_L2A"}}, {"type": "Feature", "geometry": {"type": "Point", "coordinates": [-57.033597, -25.611078]}, "properties": {"estimated_density_class": 3, "density_label": "mid", "method": "NDVI-class-density-sampled-from-raster-UTM21S", "source": "Sentinel-2 S2B_21JVM_20260512_0_L2A"}}, {"type": "Feature", "geometry": {"type": "Point", "coordinates": [-57.033888, -25.610926]}, "properties": {"estimated_density_class": 3, "density_label": "mid", "method": "NDVI-class-density-sampled-from-raster-UTM21S", "source": "Sentinel-2 S2B_21JVM_20260512_0_L2A"}}, {"type": "Feature", "geometry": {"type": "Point", "coordinates": [-57.036477, -25.606358]}, "properties": {"estimated_density_class": 3, "density_label": "mid", "method": "NDVI-class-density-sampled-from-raster-UTM21S", "source": "Sentinel-2 S2B_21JVM_20260512_0_L2A"}}, {"type": "Feature", "geometry": {"type": "Point", "coordinates": [-57.035598, -25.608535]}, "properties": {"estimated_density_class": 3, "density_label": "mid", "method": "NDVI-class-density-sampled-from-raster-UTM21S", "source": "Sentinel-2 S2B_21JVM_20260512_0_L2A"}}, {"type": "Feature", "geometry": {"type": "Point", "coordinates": [-57.035913, -25.607023]}, "properties": {"estimated_density_class": 3, "density_label": "mid", "method": "NDVI-class-density-sampled-from-raster-UTM21S", "source": "Sentinel-2 S2B_21JVM_20260512_0_L2A"}}, {"type": "Feature", "geometry": {"type": "Point", "coordinates": [-57.037172, -25.607366]}, "properties": {"estimated_density_class": 3, "density_label": "mid", "method": "NDVI-class-density-sampled-from-raster-UTM21S", "source": "Sentinel-2 S2B_21JVM_20260512_0_L2A"}}, {"type": "Feature", "geometry": {"type": "Point", "coordinates": [-57.036623, -25.607544]}, "properties": {"estimated_density_class": 3, "density_label": "mid", "method": "NDVI-class-density-sampled-from-raster-UTM21S", "source": "Sentinel-2 S2B_21JVM_20260512_0_L2A"}}, {"type": "Feature", "geometry": {"type": "Point", "coordinates": [-57.03708, -25.606001]}, "properties": {"estimated_density_class": 3, "density_label": "mid", "method": "NDVI-class-density-sampled-from-raster-UTM21S", "source": "Sentinel-2 S2B_21JVM_20260512_0_L2A"}}, {"type": "Feature", "geometry": {"type": "Point", "coordinates": [-57.033507, -25.610428]}, "properties": {"estimated_density_class": 3, "density_label": "mid", "method": "NDVI-class-density-sampled-from-raster-UTM21S", "source": "Sentinel-2 S2B_21JVM_20260512_0_L2A"}}, {"type": "Feature", "geometry": {"type": "Point", "coordinates": [-57.034197, -25.610066]}, "properties": {"estimated_density_class": 3, "density_label": "mid", "method": "NDVI-class-density-sampled-from-raster-UTM21S", "source": "Sentinel-2 S2B_21JVM_20260512_0_L2A"}}, {"type": "Feature", "geometry": {"type": "Point", "coordinates": [-57.035388, -25.605483]}, "properties": {"estimated_density_class": 3, "density_label": "mid", "method": "NDVI-class-density-sampled-from-raster-UTM21S", "source": "Sentinel-2 S2B_21JVM_20260512_0_L2A"}}, {"type": "Feature", "geometry": {"type": "Point", "coordinates": [-57.035523, -25.605314]}, "properties": {"estimated_density_class": 3, "density_label": "mid", "method": "NDVI-class-density-sampled-from-raster-UTM21S", "source": "Sentinel-2 S2B_21JVM_20260512_0_L2A"}}, {"type": "Feature", "geometry": {"type": "Point", "coordinates": [-57.035507, -25.608711]}, "properties": {"estimated_density_class": 3, "density_label": "mid", "method": "NDVI-class-density-sampled-from-raster-UTM21S", "source": "Sentinel-2 S2B_21JVM_20260512_0_L2A"}}, {"type": "Feature", "geometry": {"type": "Point", "coordinates": [-57.036596, -25.606475]}, "properties": {"estimated_density_class": 3, "density_label": "mid", "method": "NDVI-class-density-sampled-from-raster-UTM21S", "source": "Sentinel-2 S2B_21JVM_20260512_0_L2A"}}, {"type": "Feature", "geometry": {"type": "Point", "coordinates": [-57.035434, -25.60872]}, "properties": {"estimated_density_class": 3, "density_label": "mid", "method": "NDVI-class-density-sampled-from-raster-UTM21S", "source": "Sentinel-2 S2B_21JVM_20260512_0_L2A"}}, {"type": "Feature", "geometry": {"type": "Point", "coordinates": [-57.036902, -25.606179]}, "properties": {"estimated_density_class": 3, "density_label": "mid", "method": "NDVI-class-density-sampled-from-raster-UTM21S", "source": "Sentinel-2 S2B_21JVM_20260512_0_L2A"}}, {"type": "Feature", "geometry": {"type": "Point", "coordinates": [-57.037182, -25.605382]}, "properties": {"estimated_density_class": 3, "density_label": "mid", "method": "NDVI-class-density-sampled-from-raster-UTM21S", "source": "Sentinel-2 S2B_21JVM_20260512_0_L2A"}}, {"type": "Feature", "geometry": {"type": "Point", "coordinates": [-57.036688, -25.607643]}, "properties": {"estimated_density_class": 3, "density_label": "mid", "method": "NDVI-class-density-sampled-from-raster-UTM21S", "source": "Sentinel-2 S2B_21JVM_20260512_0_L2A"}}, {"type": "Feature", "geometry": {"type": "Point", "coordinates": [-57.035875, -25.608364]}, "properties": {"estimated_density_class": 3, "density_label": "mid", "method": "NDVI-class-density-sampled-from-raster-UTM21S", "source": "Sentinel-2 S2B_21JVM_20260512_0_L2A"}}, {"type": "Feature", "geometry": {"type": "Point", "coordinates": [-57.033293, -25.610801]}, "properties": {"estimated_density_class": 3, "density_label": "mid", "method": "NDVI-class-density-sampled-from-raster-UTM21S", "source": "Sentinel-2 S2B_21JVM_20260512_0_L2A"}}, {"type": "Feature", "geometry": {"type": "Point", "coordinates": [-57.032733, -25.610999]}, "properties": {"estimated_density_class": 3, "density_label": "mid", "method": "NDVI-class-density-sampled-from-raster-UTM21S", "source": "Sentinel-2 S2B_21JVM_20260512_0_L2A"}}, {"type": "Feature", "geometry": {"type": "Point", "coordinates": [-57.034017, -25.610541]}, "properties": {"estimated_density_class": 3, "density_label": "mid", "method": "NDVI-class-density-sampled-from-raster-UTM21S", "source": "Sentinel-2 S2B_21JVM_20260512_0_L2A"}}, {"type": "Feature", "geometry": {"type": "Point", "coordinates": [-57.032628, -25.610711]}, "properties": {"estimated_density_class": 3, "density_label": "mid", "method": "NDVI-class-density-sampled-from-raster-UTM21S", "source": "Sentinel-2 S2B_21JVM_20260512_0_L2A"}}, {"type": "Feature", "geometry": {"type": "Point", "coordinates": [-57.033626, -25.610917]}, "properties": {"estimated_density_class": 3, "density_label": "mid", "method": "NDVI-class-density-sampled-from-raster-UTM21S", "source": "Sentinel-2 S2B_21JVM_20260512_0_L2A"}}, {"type": "Feature", "geometry": {"type": "Point", "coordinates": [-57.034003, -25.610426]}, "properties": {"estimated_density_class": 3, "density_label": "mid", "method": "NDVI-class-density-sampled-from-raster-UTM21S", "source": "Sentinel-2 S2B_21JVM_20260512_0_L2A"}}, {"type": "Feature", "geometry": {"type": "Point", "coordinates": [-57.035696, -25.605557]}, "properties": {"estimated_density_class": 3, "density_label": "mid", "method": "NDVI-class-density-sampled-from-raster-UTM21S", "source": "Sentinel-2 S2B_21JVM_20260512_0_L2A"}}, {"type": "Feature", "geometry": {"type": "Point", "coordinates": [-57.037407, -25.60747]}, "properties": {"estimated_density_class": 3, "density_label": "mid", "method": "NDVI-class-density-sampled-from-raster-UTM21S", "source": "Sentinel-2 S2B_21JVM_20260512_0_L2A"}}, {"type": "Feature", "geometry": {"type": "Point", "coordinates": [-57.034988, -25.609347]}, "properties": {"estimated_density_class": 3, "density_label": "mid", "method": "NDVI-class-density-sampled-from-raster-UTM21S", "source": "Sentinel-2 S2B_21JVM_20260512_0_L2A"}}, {"type": "Feature", "geometry": {"type": "Point", "coordinates": [-57.033494, -25.611334]}, "properties": {"estimated_density_class": 3, "density_label": "mid", "method": "NDVI-class-density-sampled-from-raster-UTM21S", "source": "Sentinel-2 S2B_21JVM_20260512_0_L2A"}}, {"type": "Feature", "geometry": {"type": "Point", "coordinates": [-57.035576, -25.608471]}, "properties": {"estimated_density_class": 3, "density_label": "mid", "method": "NDVI-class-density-sampled-from-raster-UTM21S", "source": "Sentinel-2 S2B_21JVM_20260512_0_L2A"}}, {"type": "Feature", "geometry": {"type": "Point", "coordinates": [-57.03432, -25.610071]}, "properties": {"estimated_density_class": 3, "density_label": "mid", "method": "NDVI-class-density-sampled-from-raster-UTM21S", "source": "Sentinel-2 S2B_21JVM_20260512_0_L2A"}}, {"type": "Feature", "geometry": {"type": "Point", "coordinates": [-57.0369, -25.607482]}, "properties": {"estimated_density_class": 3, "density_label": "mid", "method": "NDVI-class-density-sampled-from-raster-UTM21S", "source": "Sentinel-2 S2B_21JVM_20260512_0_L2A"}}, {"type": "Feature", "geometry": {"type": "Point", "coordinates": [-57.033187, -25.610899]}, "properties": {"estimated_density_class": 3, "density_label": "mid", "method": "NDVI-class-density-sampled-from-raster-UTM21S", "source": "Sentinel-2 S2B_21JVM_20260512_0_L2A"}}, {"type": "Feature", "geometry": {"type": "Point", "coordinates": [-57.035983, -25.60693]}, "properties": {"estimated_density_class": 3, "density_label": "mid", "method": "NDVI-class-density-sampled-from-raster-UTM21S", "source": "Sentinel-2 S2B_21JVM_20260512_0_L2A"}}, {"type": "Feature", "geometry": {"type": "Point", "coordinates": [-57.036306, -25.607984]}, "properties": {"estimated_density_class": 3, "density_label": "mid", "method": "NDVI-class-density-sampled-from-raster-UTM21S", "source": "Sentinel-2 S2B_21JVM_20260512_0_L2A"}}, {"type": "Feature", "geometry": {"type": "Point", "coordinates": [-57.035718, -25.608447]}, "properties": {"estimated_density_class": 3, "density_label": "mid", "method": "NDVI-class-density-sampled-from-raster-UTM21S", "source": "Sentinel-2 S2B_21JVM_20260512_0_L2A"}}, {"type": "Feature", "geometry": {"type": "Point", "coordinates": [-57.034818, -25.605499]}, "properties": {"estimated_density_class": 3, "density_label": "mid", "method": "NDVI-class-density-sampled-from-raster-UTM21S", "source": "Sentinel-2 S2B_21JVM_20260512_0_L2A"}}, {"type": "Feature", "geometry": {"type": "Point", "coordinates": [-57.036683, -25.607902]}, "properties": {"estimated_density_class": 3, "density_label": "mid", "method": "NDVI-class-density-sampled-from-raster-UTM21S", "source": "Sentinel-2 S2B_21JVM_20260512_0_L2A"}}, {"type": "Feature", "geometry": {"type": "Point", "coordinates": [-57.035535, -25.608529]}, "properties": {"estimated_density_class": 3, "density_label": "mid", "method": "NDVI-class-density-sampled-from-raster-UTM21S", "source": "Sentinel-2 S2B_21JVM_20260512_0_L2A"}}, {"type": "Feature", "geometry": {"type": "Point", "coordinates": [-57.033699, -25.610997]}, "properties": {"estimated_density_class": 3, "density_label": "mid", "method": "NDVI-class-density-sampled-from-raster-UTM21S", "source": "Sentinel-2 S2B_21JVM_20260512_0_L2A"}}, {"type": "Feature", "geometry": {"type": "Point", "coordinates": [-57.033391, -25.611555]}, "properties": {"estimated_density_class": 3, "density_label": "mid", "method": "NDVI-class-density-sampled-from-raster-UTM21S", "source": "Sentinel-2 S2B_21JVM_20260512_0_L2A"}}, {"type": "Feature", "geometry": {"type": "Point", "coordinates": [-57.033699, -25.610431]}, "properties": {"estimated_density_class": 3, "density_label": "mid", "method": "NDVI-class-density-sampled-from-raster-UTM21S", "source": "Sentinel-2 S2B_21JVM_20260512_0_L2A"}}, {"type": "Feature", "geometry": {"type": "Point", "coordinates": [-57.034138, -25.610423]}, "properties": {"estimated_density_class": 3, "density_label": "mid", "method": "NDVI-class-density-sampled-from-raster-UTM21S", "source": "Sentinel-2 S2B_21JVM_20260512_0_L2A"}}, {"type": "Feature", "geometry": {"type": "Point", "coordinates": [-57.036374, -25.608197]}, "properties": {"estimated_density_class": 3, "density_label": "mid", "method": "NDVI-class-density-sampled-from-raster-UTM21S", "source": "Sentinel-2 S2B_21JVM_20260512_0_L2A"}}, {"type": "Feature", "geometry": {"type": "Point", "coordinates": [-57.034812, -25.609791]}, "properties": {"estimated_density_class": 3, "density_label": "mid", "method": "NDVI-class-density-sampled-from-raster-UTM21S", "source": "Sentinel-2 S2B_21JVM_20260512_0_L2A"}}, {"type": "Feature", "geometry": {"type": "Point", "coordinates": [-57.033808, -25.609829]}, "properties": {"estimated_density_class": 3, "density_label": "mid", "method": "NDVI-class-density-sampled-from-raster-UTM21S", "source": "Sentinel-2 S2B_21JVM_20260512_0_L2A"}}, {"type": "Feature", "geometry": {"type": "Point", "coordinates": [-57.035397, -25.608802]}, "properties": {"estimated_density_class": 3, "density_label": "mid", "method": "NDVI-class-density-sampled-from-raster-UTM21S", "source": "Sentinel-2 S2B_21JVM_20260512_0_L2A"}}, {"type": "Feature", "geometry": {"type": "Point", "coordinates": [-57.032998, -25.610919]}, "properties": {"estimated_density_class": 3, "density_label": "mid", "method": "NDVI-class-density-sampled-from-raster-UTM21S", "source": "Sentinel-2 S2B_21JVM_20260512_0_L2A"}}, {"type": "Feature", "geometry": {"type": "Point", "coordinates": [-57.035522, -25.605567]}, "properties": {"estimated_density_class": 3, "density_label": "mid", "method": "NDVI-class-density-sampled-from-raster-UTM21S", "source": "Sentinel-2 S2B_21JVM_20260512_0_L2A"}}, {"type": "Feature", "geometry": {"type": "Point", "coordinates": [-57.033199, -25.611067]}, "properties": {"estimated_density_class": 3, "density_label": "mid", "method": "NDVI-class-density-sampled-from-raster-UTM21S", "source": "Sentinel-2 S2B_21JVM_20260512_0_L2A"}}, {"type": "Feature", "geometry": {"type": "Point", "coordinates": [-57.037126, -25.60765]}, "properties": {"estimated_density_class": 3, "density_label": "mid", "method": "NDVI-class-density-sampled-from-raster-UTM21S", "source": "Sentinel-2 S2B_21JVM_20260512_0_L2A"}}, {"type": "Feature", "geometry": {"type": "Point", "coordinates": [-57.036487, -25.606008]}, "properties": {"estimated_density_class": 3, "density_label": "mid", "method": "NDVI-class-density-sampled-from-raster-UTM21S", "source": "Sentinel-2 S2B_21JVM_20260512_0_L2A"}}, {"type": "Feature", "geometry": {"type": "Point", "coordinates": [-57.033497, -25.610723]}, "properties": {"estimated_density_class": 3, "density_label": "mid", "method": "NDVI-class-density-sampled-from-raster-UTM21S", "source": "Sentinel-2 S2B_21JVM_20260512_0_L2A"}}, {"type": "Feature", "geometry": {"type": "Point", "coordinates": [-57.037319, -25.607298]}, "properties": {"estimated_density_class": 3, "density_label": "mid", "method": "NDVI-class-density-sampled-from-raster-UTM21S", "source": "Sentinel-2 S2B_21JVM_20260512_0_L2A"}}, {"type": "Feature", "geometry": {"type": "Point", "coordinates": [-57.036929, -25.605663]}, "properties": {"estimated_density_class": 3, "density_label": "mid", "method": "NDVI-class-density-sampled-from-raster-UTM21S", "source": "Sentinel-2 S2B_21JVM_20260512_0_L2A"}}, {"type": "Feature", "geometry": {"type": "Point", "coordinates": [-57.037789, -25.606999]}, "properties": {"estimated_density_class": 3, "density_label": "mid", "method": "NDVI-class-density-sampled-from-raster-UTM21S", "source": "Sentinel-2 S2B_21JVM_20260512_0_L2A"}}, {"type": "Feature", "geometry": {"type": "Point", "coordinates": [-57.036017, -25.605727]}, "properties": {"estimated_density_class": 3, "density_label": "mid", "method": "NDVI-class-density-sampled-from-raster-UTM21S", "source": "Sentinel-2 S2B_21JVM_20260512_0_L2A"}}, {"type": "Feature", "geometry": {"type": "Point", "coordinates": [-57.035414, -25.609029]}, "properties": {"estimated_density_class": 3, "density_label": "mid", "method": "NDVI-class-density-sampled-from-raster-UTM21S", "source": "Sentinel-2 S2B_21JVM_20260512_0_L2A"}}, {"type": "Feature", "geometry": {"type": "Point", "coordinates": [-57.036813, -25.605549]}, "properties": {"estimated_density_class": 3, "density_label": "mid", "method": "NDVI-class-density-sampled-from-raster-UTM21S", "source": "Sentinel-2 S2B_21JVM_20260512_0_L2A"}}, {"type": "Feature", "geometry": {"type": "Point", "coordinates": [-57.0338, -25.610542]}, "properties": {"estimated_density_class": 3, "density_label": "mid", "method": "NDVI-class-density-sampled-from-raster-UTM21S", "source": "Sentinel-2 S2B_21JVM_20260512_0_L2A"}}, {"type": "Feature", "geometry": {"type": "Point", "coordinates": [-57.033431, -25.610788]}, "properties": {"estimated_density_class": 3, "density_label": "mid", "method": "NDVI-class-density-sampled-from-raster-UTM21S", "source": "Sentinel-2 S2B_21JVM_20260512_0_L2A"}}, {"type": "Feature", "geometry": {"type": "Point", "coordinates": [-57.037312, -25.605376]}, "properties": {"estimated_density_class": 3, "density_label": "mid", "method": "NDVI-class-density-sampled-from-raster-UTM21S", "source": "Sentinel-2 S2B_21JVM_20260512_0_L2A"}}, {"type": "Feature", "geometry": {"type": "Point", "coordinates": [-57.032405, -25.610197]}, "properties": {"estimated_density_class": 3, "density_label": "mid", "method": "NDVI-class-density-sampled-from-raster-UTM21S", "source": "Sentinel-2 S2B_21JVM_20260512_0_L2A"}}, {"type": "Feature", "geometry": {"type": "Point", "coordinates": [-57.036498, -25.607542]}, "properties": {"estimated_density_class": 3, "density_label": "mid", "method": "NDVI-class-density-sampled-from-raster-UTM21S", "source": "Sentinel-2 S2B_21JVM_20260512_0_L2A"}}, {"type": "Feature", "geometry": {"type": "Point", "coordinates": [-57.035632, -25.608364]}, "properties": {"estimated_density_class": 3, "density_label": "mid", "method": "NDVI-class-density-sampled-from-raster-UTM21S", "source": "Sentinel-2 S2B_21JVM_20260512_0_L2A"}}, {"type": "Feature", "geometry": {"type": "Point", "coordinates": [-57.036473, -25.607737]}, "properties": {"estimated_density_class": 3, "density_label": "mid", "method": "NDVI-class-density-sampled-from-raster-UTM21S", "source": "Sentinel-2 S2B_21JVM_20260512_0_L2A"}}, {"type": "Feature", "geometry": {"type": "Point", "coordinates": [-57.036772, -25.606138]}, "properties": {"estimated_density_class": 3, "density_label": "mid", "method": "NDVI-class-density-sampled-from-raster-UTM21S", "source": "Sentinel-2 S2B_21JVM_20260512_0_L2A"}}, {"type": "Feature", "geometry": {"type": "Point", "coordinates": [-57.036409, -25.605838]}, "properties": {"estimated_density_class": 3, "density_label": "mid", "method": "NDVI-class-density-sampled-from-raster-UTM21S", "source": "Sentinel-2 S2B_21JVM_20260512_0_L2A"}}, {"type": "Feature", "geometry": {"type": "Point", "coordinates": [-57.035896, -25.605562]}, "properties": {"estimated_density_class": 3, "density_label": "mid", "method": "NDVI-class-density-sampled-from-raster-UTM21S", "source": "Sentinel-2 S2B_21JVM_20260512_0_L2A"}}, {"type": "Feature", "geometry": {"type": "Point", "coordinates": [-57.034302, -25.609382]}, "properties": {"estimated_density_class": 3, "density_label": "mid", "method": "NDVI-class-density-sampled-from-raster-UTM21S", "source": "Sentinel-2 S2B_21JVM_20260512_0_L2A"}}, {"type": "Feature", "geometry": {"type": "Point", "coordinates": [-57.035777, -25.606312]}, "properties": {"estimated_density_class": 3, "density_label": "mid", "method": "NDVI-class-density-sampled-from-raster-UTM21S", "source": "Sentinel-2 S2B_21JVM_20260512_0_L2A"}}, {"type": "Feature", "geometry": {"type": "Point", "coordinates": [-57.036388, -25.606561]}, "properties": {"estimated_density_class": 3, "density_label": "mid", "method": "NDVI-class-density-sampled-from-raster-UTM21S", "source": "Sentinel-2 S2B_21JVM_20260512_0_L2A"}}, {"type": "Feature", "geometry": {"type": "Point", "coordinates": [-57.035321, -25.608986]}, "properties": {"estimated_density_class": 3, "density_label": "mid", "method": "NDVI-class-density-sampled-from-raster-UTM21S", "source": "Sentinel-2 S2B_21JVM_20260512_0_L2A"}}, {"type": "Feature", "geometry": {"type": "Point", "coordinates": [-57.034819, -25.609616]}, "properties": {"estimated_density_class": 3, "density_label": "mid", "method": "NDVI-class-density-sampled-from-raster-UTM21S", "source": "Sentinel-2 S2B_21JVM_20260512_0_L2A"}}, {"type": "Feature", "geometry": {"type": "Point", "coordinates": [-57.03688, -25.607375]}, "properties": {"estimated_density_class": 3, "density_label": "mid", "method": "NDVI-class-density-sampled-from-raster-UTM21S", "source": "Sentinel-2 S2B_21JVM_20260512_0_L2A"}}, {"type": "Feature", "geometry": {"type": "Point", "coordinates": [-57.037024, -25.607723]}, "properties": {"estimated_density_class": 3, "density_label": "mid", "method": "NDVI-class-density-sampled-from-raster-UTM21S", "source": "Sentinel-2 S2B_21JVM_20260512_0_L2A"}}, {"type": "Feature", "geometry": {"type": "Point", "coordinates": [-57.037125, -25.607386]}, "properties": {"estimated_density_class": 3, "density_label": "mid", "method": "NDVI-class-density-sampled-from-raster-UTM21S", "source": "Sentinel-2 S2B_21JVM_20260512_0_L2A"}}, {"type": "Feature", "geometry": {"type": "Point", "coordinates": [-57.033015, -25.610544]}, "properties": {"estimated_density_class": 3, "density_label": "mid", "method": "NDVI-class-density-sampled-from-raster-UTM21S", "source": "Sentinel-2 S2B_21JVM_20260512_0_L2A"}}, {"type": "Feature", "geometry": {"type": "Point", "coordinates": [-57.033598, -25.61137]}, "properties": {"estimated_density_class": 3, "density_label": "mid", "method": "NDVI-class-density-sampled-from-raster-UTM21S", "source": "Sentinel-2 S2B_21JVM_20260512_0_L2A"}}, {"type": "Feature", "geometry": {"type": "Point", "coordinates": [-57.036706, -25.606086]}, "properties": {"estimated_density_class": 3, "density_label": "mid", "method": "NDVI-class-density-sampled-from-raster-UTM21S", "source": "Sentinel-2 S2B_21JVM_20260512_0_L2A"}}, {"type": "Feature", "geometry": {"type": "Point", "coordinates": [-57.037215, -25.607298]}, "properties": {"estimated_density_class": 3, "density_label": "mid", "method": "NDVI-class-density-sampled-from-raster-UTM21S", "source": "Sentinel-2 S2B_21JVM_20260512_0_L2A"}}, {"type": "Feature", "geometry": {"type": "Point", "coordinates": [-57.036526, -25.606469]}, "properties": {"estimated_density_class": 3, "density_label": "mid", "method": "NDVI-class-density-sampled-from-raster-UTM21S", "source": "Sentinel-2 S2B_21JVM_20260512_0_L2A"}}, {"type": "Feature", "geometry": {"type": "Point", "coordinates": [-57.034407, -25.609348]}, "properties": {"estimated_density_class": 3, "density_label": "mid", "method": "NDVI-class-density-sampled-from-raster-UTM21S", "source": "Sentinel-2 S2B_21JVM_20260512_0_L2A"}}, {"type": "Feature", "geometry": {"type": "Point", "coordinates": [-57.036974, -25.605949]}, "properties": {"estimated_density_class": 3, "density_label": "mid", "method": "NDVI-class-density-sampled-from-raster-UTM21S", "source": "Sentinel-2 S2B_21JVM_20260512_0_L2A"}}, {"type": "Feature", "geometry": {"type": "Point", "coordinates": [-57.034608, -25.610069]}, "properties": {"estimated_density_class": 3, "density_label": "mid", "method": "NDVI-class-density-sampled-from-raster-UTM21S", "source": "Sentinel-2 S2B_21JVM_20260512_0_L2A"}}, {"type": "Feature", "geometry": {"type": "Point", "coordinates": [-57.033443, -25.610521]}, "properties": {"estimated_density_class": 3, "density_label": "mid", "method": "NDVI-class-density-sampled-from-raster-UTM21S", "source": "Sentinel-2 S2B_21JVM_20260512_0_L2A"}}, {"type": "Feature", "geometry": {"type": "Point", "coordinates": [-57.033341, -25.611015]}, "properties": {"estimated_density_class": 3, "density_label": "mid", "method": "NDVI-class-density-sampled-from-raster-UTM21S", "source": "Sentinel-2 S2B_21JVM_20260512_0_L2A"}}, {"type": "Feature", "geometry": {"type": "Point", "coordinates": [-57.036781, -25.60628]}, "properties": {"estimated_density_class": 3, "density_label": "mid", "method": "NDVI-class-density-sampled-from-raster-UTM21S", "source": "Sentinel-2 S2B_21JVM_20260512_0_L2A"}}, {"type": "Feature", "geometry": {"type": "Point", "coordinates": [-57.036901, -25.607765]}, "properties": {"estimated_density_class": 3, "density_label": "mid", "method": "NDVI-class-density-sampled-from-raster-UTM21S", "source": "Sentinel-2 S2B_21JVM_20260512_0_L2A"}}, {"type": "Feature", "geometry": {"type": "Point", "coordinates": [-57.035827, -25.605668]}, "properties": {"estimated_density_class": 3, "density_label": "mid", "method": "NDVI-class-density-sampled-from-raster-UTM21S", "source": "Sentinel-2 S2B_21JVM_20260512_0_L2A"}}, {"type": "Feature", "geometry": {"type": "Point", "coordinates": [-57.034493, -25.609903]}, "properties": {"estimated_density_class": 3, "density_label": "mid", "method": "NDVI-class-density-sampled-from-raster-UTM21S", "source": "Sentinel-2 S2B_21JVM_20260512_0_L2A"}}, {"type": "Feature", "geometry": {"type": "Point", "coordinates": [-57.033636, -25.610434]}, "properties": {"estimated_density_class": 3, "density_label": "mid", "method": "NDVI-class-density-sampled-from-raster-UTM21S", "source": "Sentinel-2 S2B_21JVM_20260512_0_L2A"}}, {"type": "Feature", "geometry": {"type": "Point", "coordinates": [-57.034027, -25.610368]}, "properties": {"estimated_density_class": 3, "density_label": "mid", "method": "NDVI-class-density-sampled-from-raster-UTM21S", "source": "Sentinel-2 S2B_21JVM_20260512_0_L2A"}}, {"type": "Feature", "geometry": {"type": "Point", "coordinates": [-57.034897, -25.609609]}, "properties": {"estimated_density_class": 3, "density_label": "mid", "method": "NDVI-class-density-sampled-from-raster-UTM21S", "source": "Sentinel-2 S2B_21JVM_20260512_0_L2A"}}, {"type": "Feature", "geometry": {"type": "Point", "coordinates": [-57.036698, -25.606005]}, "properties": {"estimated_density_class": 3, "density_label": "mid", "method": "NDVI-class-density-sampled-from-raster-UTM21S", "source": "Sentinel-2 S2B_21JVM_20260512_0_L2A"}}, {"type": "Feature", "geometry": {"type": "Point", "coordinates": [-57.036703, -25.607983]}, "properties": {"estimated_density_class": 3, "density_label": "mid", "method": "NDVI-class-density-sampled-from-raster-UTM21S", "source": "Sentinel-2 S2B_21JVM_20260512_0_L2A"}}, {"type": "Feature", "geometry": {"type": "Point", "coordinates": [-57.035976, -25.60839]}, "properties": {"estimated_density_class": 3, "density_label": "mid", "method": "NDVI-class-density-sampled-from-raster-UTM21S", "source": "Sentinel-2 S2B_21JVM_20260512_0_L2A"}}, {"type": "Feature", "geometry": {"type": "Point", "coordinates": [-57.037621, -25.605274]}, "properties": {"estimated_density_class": 3, "density_label": "mid", "method": "NDVI-class-density-sampled-from-raster-UTM21S", "source": "Sentinel-2 S2B_21JVM_20260512_0_L2A"}}, {"type": "Feature", "geometry": {"type": "Point", "coordinates": [-57.033732, -25.611162]}, "properties": {"estimated_density_class": 3, "density_label": "mid", "method": "NDVI-class-density-sampled-from-raster-UTM21S", "source": "Sentinel-2 S2B_21JVM_20260512_0_L2A"}}, {"type": "Feature", "geometry": {"type": "Point", "coordinates": [-57.03708, -25.605503]}, "properties": {"estimated_density_class": 3, "density_label": "mid", "method": "NDVI-class-density-sampled-from-raster-UTM21S", "source": "Sentinel-2 S2B_21JVM_20260512_0_L2A"}}, {"type": "Feature", "geometry": {"type": "Point", "coordinates": [-57.032991, -25.610655]}, "properties": {"estimated_density_class": 3, "density_label": "mid", "method": "NDVI-class-density-sampled-from-raster-UTM21S", "source": "Sentinel-2 S2B_21JVM_20260512_0_L2A"}}, {"type": "Feature", "geometry": {"type": "Point", "coordinates": [-57.036101, -25.605758]}, "properties": {"estimated_density_class": 3, "density_label": "mid", "method": "NDVI-class-density-sampled-from-raster-UTM21S", "source": "Sentinel-2 S2B_21JVM_20260512_0_L2A"}}, {"type": "Feature", "geometry": {"type": "Point", "coordinates": [-57.036606, -25.606553]}, "properties": {"estimated_density_class": 3, "density_label": "mid", "method": "NDVI-class-density-sampled-from-raster-UTM21S", "source": "Sentinel-2 S2B_21JVM_20260512_0_L2A"}}, {"type": "Feature", "geometry": {"type": "Point", "coordinates": [-57.034085, -25.610354]}, "properties": {"estimated_density_class": 3, "density_label": "mid", "method": "NDVI-class-density-sampled-from-raster-UTM21S", "source": "Sentinel-2 S2B_21JVM_20260512_0_L2A"}}, {"type": "Feature", "geometry": {"type": "Point", "coordinates": [-57.035911, -25.606489]}, "properties": {"estimated_density_class": 3, "density_label": "mid", "method": "NDVI-class-density-sampled-from-raster-UTM21S", "source": "Sentinel-2 S2B_21JVM_20260512_0_L2A"}}, {"type": "Feature", "geometry": {"type": "Point", "coordinates": [-57.032887, -25.610832]}, "properties": {"estimated_density_class": 3, "density_label": "mid", "method": "NDVI-class-density-sampled-from-raster-UTM21S", "source": "Sentinel-2 S2B_21JVM_20260512_0_L2A"}}, {"type": "Feature", "geometry": {"type": "Point", "coordinates": [-57.033714, -25.610529]}, "properties": {"estimated_density_class": 3, "density_label": "mid", "method": "NDVI-class-density-sampled-from-raster-UTM21S", "source": "Sentinel-2 S2B_21JVM_20260512_0_L2A"}}, {"type": "Feature", "geometry": {"type": "Point", "coordinates": [-57.036029, -25.608287]}, "properties": {"estimated_density_class": 3, "density_label": "mid", "method": "NDVI-class-density-sampled-from-raster-UTM21S", "source": "Sentinel-2 S2B_21JVM_20260512_0_L2A"}}, {"type": "Feature", "geometry": {"type": "Point", "coordinates": [-57.035422, -25.605569]}, "properties": {"estimated_density_class": 3, "density_label": "mid", "method": "NDVI-class-density-sampled-from-raster-UTM21S", "source": "Sentinel-2 S2B_21JVM_20260512_0_L2A"}}, {"type": "Feature", "geometry": {"type": "Point", "coordinates": [-57.036792, -25.606177]}, "properties": {"estimated_density_class": 3, "density_label": "mid", "method": "NDVI-class-density-sampled-from-raster-UTM21S", "source": "Sentinel-2 S2B_21JVM_20260512_0_L2A"}}, {"type": "Feature", "geometry": {"type": "Point", "coordinates": [-57.03798, -25.606572]}, "properties": {"estimated_density_class": 3, "density_label": "mid", "method": "NDVI-class-density-sampled-from-raster-UTM21S", "source": "Sentinel-2 S2B_21JVM_20260512_0_L2A"}}, {"type": "Feature", "geometry": {"type": "Point", "coordinates": [-57.034493, -25.60982]}, "properties": {"estimated_density_class": 3, "density_label": "mid", "method": "NDVI-class-density-sampled-from-raster-UTM21S", "source": "Sentinel-2 S2B_21JVM_20260512_0_L2A"}}, {"type": "Feature", "geometry": {"type": "Point", "coordinates": [-57.034817, -25.605417]}, "properties": {"estimated_density_class": 3, "density_label": "mid", "method": "NDVI-class-density-sampled-from-raster-UTM21S", "source": "Sentinel-2 S2B_21JVM_20260512_0_L2A"}}, {"type": "Feature", "geometry": {"type": "Point", "coordinates": [-57.03289, -25.610922]}, "properties": {"estimated_density_class": 3, "density_label": "mid", "method": "NDVI-class-density-sampled-from-raster-UTM21S", "source": "Sentinel-2 S2B_21JVM_20260512_0_L2A"}}, {"type": "Feature", "geometry": {"type": "Point", "coordinates": [-57.037104, -25.606128]}, "properties": {"estimated_density_class": 3, "density_label": "mid", "method": "NDVI-class-density-sampled-from-raster-UTM21S", "source": "Sentinel-2 S2B_21JVM_20260512_0_L2A"}}, {"type": "Feature", "geometry": {"type": "Point", "coordinates": [-57.036028, -25.606387]}, "properties": {"estimated_density_class": 3, "density_label": "mid", "method": "NDVI-class-density-sampled-from-raster-UTM21S", "source": "Sentinel-2 S2B_21JVM_20260512_0_L2A"}}, {"type": "Feature", "geometry": {"type": "Point", "coordinates": [-57.036719, -25.607467]}, "properties": {"estimated_density_class": 3, "density_label": "mid", "method": "NDVI-class-density-sampled-from-raster-UTM21S", "source": "Sentinel-2 S2B_21JVM_20260512_0_L2A"}}, {"type": "Feature", "geometry": {"type": "Point", "coordinates": [-57.034009, -25.60936]}, "properties": {"estimated_density_class": 3, "density_label": "mid", "method": "NDVI-class-density-sampled-from-raster-UTM21S", "source": "Sentinel-2 S2B_21JVM_20260512_0_L2A"}}, {"type": "Feature", "geometry": {"type": "Point", "coordinates": [-57.037214, -25.605774]}, "properties": {"estimated_density_class": 3, "density_label": "mid", "method": "NDVI-class-density-sampled-from-raster-UTM21S", "source": "Sentinel-2 S2B_21JVM_20260512_0_L2A"}}, {"type": "Feature", "geometry": {"type": "Point", "coordinates": [-57.037106, -25.607734]}, "properties": {"estimated_density_class": 3, "density_label": "mid", "method": "NDVI-class-density-sampled-from-raster-UTM21S", "source": "Sentinel-2 S2B_21JVM_20260512_0_L2A"}}, {"type": "Feature", "geometry": {"type": "Point", "coordinates": [-57.036313, -25.60695]}, "properties": {"estimated_density_class": 3, "density_label": "mid", "method": "NDVI-class-density-sampled-from-raster-UTM21S", "source": "Sentinel-2 S2B_21JVM_20260512_0_L2A"}}, {"type": "Feature", "geometry": {"type": "Point", "coordinates": [-57.034433, -25.610168]}, "properties": {"estimated_density_class": 3, "density_label": "mid", "method": "NDVI-class-density-sampled-from-raster-UTM21S", "source": "Sentinel-2 S2B_21JVM_20260512_0_L2A"}}, {"type": "Feature", "geometry": {"type": "Point", "coordinates": [-57.036284, -25.606408]}, "properties": {"estimated_density_class": 3, "density_label": "mid", "method": "NDVI-class-density-sampled-from-raster-UTM21S", "source": "Sentinel-2 S2B_21JVM_20260512_0_L2A"}}, {"type": "Feature", "geometry": {"type": "Point", "coordinates": [-57.036372, -25.606291]}, "properties": {"estimated_density_class": 3, "density_label": "mid", "method": "NDVI-class-density-sampled-from-raster-UTM21S", "source": "Sentinel-2 S2B_21JVM_20260512_0_L2A"}}, {"type": "Feature", "geometry": {"type": "Point", "coordinates": [-57.037692, -25.605318]}, "properties": {"estimated_density_class": 3, "density_label": "mid", "method": "NDVI-class-density-sampled-from-raster-UTM21S", "source": "Sentinel-2 S2B_21JVM_20260512_0_L2A"}}, {"type": "Feature", "geometry": {"type": "Point", "coordinates": [-57.032688, -25.61064]}, "properties": {"estimated_density_class": 3, "density_label": "mid", "method": "NDVI-class-density-sampled-from-raster-UTM21S", "source": "Sentinel-2 S2B_21JVM_20260512_0_L2A"}}, {"type": "Feature", "geometry": {"type": "Point", "coordinates": [-57.034708, -25.609632]}, "properties": {"estimated_density_class": 3, "density_label": "mid", "method": "NDVI-class-density-sampled-from-raster-UTM21S", "source": "Sentinel-2 S2B_21JVM_20260512_0_L2A"}}, {"type": "Feature", "geometry": {"type": "Point", "coordinates": [-57.036974, -25.605824]}, "properties": {"estimated_density_class": 3, "density_label": "mid", "method": "NDVI-class-density-sampled-from-raster-UTM21S", "source": "Sentinel-2 S2B_21JVM_20260512_0_L2A"}}, {"type": "Feature", "geometry": {"type": "Point", "coordinates": [-57.034692, -25.605577]}, "properties": {"estimated_density_class": 3, "density_label": "mid", "method": "NDVI-class-density-sampled-from-raster-UTM21S", "source": "Sentinel-2 S2B_21JVM_20260512_0_L2A"}}, {"type": "Feature", "geometry": {"type": "Point", "coordinates": [-57.035524, -25.608454]}, "properties": {"estimated_density_class": 3, "density_label": "mid", "method": "NDVI-class-density-sampled-from-raster-UTM21S", "source": "Sentinel-2 S2B_21JVM_20260512_0_L2A"}}, {"type": "Feature", "geometry": {"type": "Point", "coordinates": [-57.036824, -25.607736]}, "properties": {"estimated_density_class": 3, "density_label": "mid", "method": "NDVI-class-density-sampled-from-raster-UTM21S", "source": "Sentinel-2 S2B_21JVM_20260512_0_L2A"}}, {"type": "Feature", "geometry": {"type": "Point", "coordinates": [-57.037805, -25.605409]}, "properties": {"estimated_density_class": 3, "density_label": "mid", "method": "NDVI-class-density-sampled-from-raster-UTM21S", "source": "Sentinel-2 S2B_21JVM_20260512_0_L2A"}}, {"type": "Feature", "geometry": {"type": "Point", "coordinates": [-57.037278, -25.605868]}, "properties": {"estimated_density_class": 3, "density_label": "mid", "method": "NDVI-class-density-sampled-from-raster-UTM21S", "source": "Sentinel-2 S2B_21JVM_20260512_0_L2A"}}, {"type": "Feature", "geometry": {"type": "Point", "coordinates": [-57.032692, -25.610704]}, "properties": {"estimated_density_class": 3, "density_label": "mid", "method": "NDVI-class-density-sampled-from-raster-UTM21S", "source": "Sentinel-2 S2B_21JVM_20260512_0_L2A"}}, {"type": "Feature", "geometry": {"type": "Point", "coordinates": [-57.037098, -25.607217]}, "properties": {"estimated_density_class": 3, "density_label": "mid", "method": "NDVI-class-density-sampled-from-raster-UTM21S", "source": "Sentinel-2 S2B_21JVM_20260512_0_L2A"}}, {"type": "Feature", "geometry": {"type": "Point", "coordinates": [-57.030046, -25.609718]}, "properties": {"estimated_density_class": 4, "density_label": "dense", "method": "NDVI-class-density-sampled-from-raster-UTM21S", "source": "Sentinel-2 S2B_21JVM_20260512_0_L2A"}}, {"type": "Feature", "geometry": {"type": "Point", "coordinates": [-57.033398, -25.607125]}, "properties": {"estimated_density_class": 4, "density_label": "dense", "method": "NDVI-class-density-sampled-from-raster-UTM21S", "source": "Sentinel-2 S2B_21JVM_20260512_0_L2A"}}, {"type": "Feature", "geometry": {"type": "Point", "coordinates": [-57.029816, -25.60935]}, "properties": {"estimated_density_class": 4, "density_label": "dense", "method": "NDVI-class-density-sampled-from-raster-UTM21S", "source": "Sentinel-2 S2B_21JVM_20260512_0_L2A"}}, {"type": "Feature", "geometry": {"type": "Point", "coordinates": [-57.03044, -25.609613]}, "properties": {"estimated_density_class": 4, "density_label": "dense", "method": "NDVI-class-density-sampled-from-raster-UTM21S", "source": "Sentinel-2 S2B_21JVM_20260512_0_L2A"}}, {"type": "Feature", "geometry": {"type": "Point", "coordinates": [-57.035899, -25.606847]}, "properties": {"estimated_density_class": 4, "density_label": "dense", "method": "NDVI-class-density-sampled-from-raster-UTM21S", "source": "Sentinel-2 S2B_21JVM_20260512_0_L2A"}}, {"type": "Feature", "geometry": {"type": "Point", "coordinates": [-57.035, -25.607823]}, "properties": {"estimated_density_class": 4, "density_label": "dense", "method": "NDVI-class-density-sampled-from-raster-UTM21S", "source": "Sentinel-2 S2B_21JVM_20260512_0_L2A"}}, {"type": "Feature", "geometry": {"type": "Point", "coordinates": [-57.035602, -25.60731]}, "properties": {"estimated_density_class": 4, "density_label": "dense", "method": "NDVI-class-density-sampled-from-raster-UTM21S", "source": "Sentinel-2 S2B_21JVM_20260512_0_L2A"}}, {"type": "Feature", "geometry": {"type": "Point", "coordinates": [-57.034699, -25.607538]}, "properties": {"estimated_density_class": 4, "density_label": "dense", "method": "NDVI-class-density-sampled-from-raster-UTM21S", "source": "Sentinel-2 S2B_21JVM_20260512_0_L2A"}}, {"type": "Feature", "geometry": {"type": "Point", "coordinates": [-57.03192, -25.608727]}, "properties": {"estimated_density_class": 4, "density_label": "dense", "method": "NDVI-class-density-sampled-from-raster-UTM21S", "source": "Sentinel-2 S2B_21JVM_20260512_0_L2A"}}, {"type": "Feature", "geometry": {"type": "Point", "coordinates": [-57.034129, -25.60773]}, "properties": {"estimated_density_class": 4, "density_label": "dense", "method": "NDVI-class-density-sampled-from-raster-UTM21S", "source": "Sentinel-2 S2B_21JVM_20260512_0_L2A"}}, {"type": "Feature", "geometry": {"type": "Point", "coordinates": [-57.037817, -25.606383]}, "properties": {"estimated_density_class": 4, "density_label": "dense", "method": "NDVI-class-density-sampled-from-raster-UTM21S", "source": "Sentinel-2 S2B_21JVM_20260512_0_L2A"}}, {"type": "Feature", "geometry": {"type": "Point", "coordinates": [-57.031244, -25.610364]}, "properties": {"estimated_density_class": 4, "density_label": "dense", "method": "NDVI-class-density-sampled-from-raster-UTM21S", "source": "Sentinel-2 S2B_21JVM_20260512_0_L2A"}}, {"type": "Feature", "geometry": {"type": "Point", "coordinates": [-57.032716, -25.608808]}, "properties": {"estimated_density_class": 4, "density_label": "dense", "method": "NDVI-class-density-sampled-from-raster-UTM21S", "source": "Sentinel-2 S2B_21JVM_20260512_0_L2A"}}, {"type": "Feature", "geometry": {"type": "Point", "coordinates": [-57.034686, -25.606304]}, "properties": {"estimated_density_class": 4, "density_label": "dense", "method": "NDVI-class-density-sampled-from-raster-UTM21S", "source": "Sentinel-2 S2B_21JVM_20260512_0_L2A"}}, {"type": "Feature", "geometry": {"type": "Point", "coordinates": [-57.032944, -25.607759]}, "properties": {"estimated_density_class": 4, "density_label": "dense", "method": "NDVI-class-density-sampled-from-raster-UTM21S", "source": "Sentinel-2 S2B_21JVM_20260512_0_L2A"}}, {"type": "Feature", "geometry": {"type": "Point", "coordinates": [-57.032996, -25.609733]}, "properties": {"estimated_density_class": 4, "density_label": "dense", "method": "NDVI-class-density-sampled-from-raster-UTM21S", "source": "Sentinel-2 S2B_21JVM_20260512_0_L2A"}}, {"type": "Feature", "geometry": {"type": "Point", "coordinates": [-57.032817, -25.609258]}, "properties": {"estimated_density_class": 4, "density_label": "dense", "method": "NDVI-class-density-sampled-from-raster-UTM21S", "source": "Sentinel-2 S2B_21JVM_20260512_0_L2A"}}, {"type": "Feature", "geometry": {"type": "Point", "coordinates": [-57.032492, -25.60928]}, "properties": {"estimated_density_class": 4, "density_label": "dense", "method": "NDVI-class-density-sampled-from-raster-UTM21S", "source": "Sentinel-2 S2B_21JVM_20260512_0_L2A"}}, {"type": "Feature", "geometry": {"type": "Point", "coordinates": [-57.03442, -25.607178]}, "properties": {"estimated_density_class": 4, "density_label": "dense", "method": "NDVI-class-density-sampled-from-raster-UTM21S", "source": "Sentinel-2 S2B_21JVM_20260512_0_L2A"}}, {"type": "Feature", "geometry": {"type": "Point", "coordinates": [-57.033739, -25.608933]}, "properties": {"estimated_density_class": 4, "density_label": "dense", "method": "NDVI-class-density-sampled-from-raster-UTM21S", "source": "Sentinel-2 S2B_21JVM_20260512_0_L2A"}}, {"type": "Feature", "geometry": {"type": "Point", "coordinates": [-57.034496, -25.606011]}, "properties": {"estimated_density_class": 4, "density_label": "dense", "method": "NDVI-class-density-sampled-from-raster-UTM21S", "source": "Sentinel-2 S2B_21JVM_20260512_0_L2A"}}, {"type": "Feature", "geometry": {"type": "Point", "coordinates": [-57.034697, -25.605937]}, "properties": {"estimated_density_class": 4, "density_label": "dense", "method": "NDVI-class-density-sampled-from-raster-UTM21S", "source": "Sentinel-2 S2B_21JVM_20260512_0_L2A"}}, {"type": "Feature", "geometry": {"type": "Point", "coordinates": [-57.037694, -25.606458]}, "properties": {"estimated_density_class": 4, "density_label": "dense", "method": "NDVI-class-density-sampled-from-raster-UTM21S", "source": "Sentinel-2 S2B_21JVM_20260512_0_L2A"}}, {"type": "Feature", "geometry": {"type": "Point", "coordinates": [-57.033039, -25.609361]}, "properties": {"estimated_density_class": 4, "density_label": "dense", "method": "NDVI-class-density-sampled-from-raster-UTM21S", "source": "Sentinel-2 S2B_21JVM_20260512_0_L2A"}}, {"type": "Feature", "geometry": {"type": "Point", "coordinates": [-57.03193, -25.609121]}, "properties": {"estimated_density_class": 4, "density_label": "dense", "method": "NDVI-class-density-sampled-from-raster-UTM21S", "source": "Sentinel-2 S2B_21JVM_20260512_0_L2A"}}, {"type": "Feature", "geometry": {"type": "Point", "coordinates": [-57.030218, -25.60911]}, "properties": {"estimated_density_class": 4, "density_label": "dense", "method": "NDVI-class-density-sampled-from-raster-UTM21S", "source": "Sentinel-2 S2B_21JVM_20260512_0_L2A"}}, {"type": "Feature", "geometry": {"type": "Point", "coordinates": [-57.034198, -25.609074]}, "properties": {"estimated_density_class": 4, "density_label": "dense", "method": "NDVI-class-density-sampled-from-raster-UTM21S", "source": "Sentinel-2 S2B_21JVM_20260512_0_L2A"}}, {"type": "Feature", "geometry": {"type": "Point", "coordinates": [-57.032214, -25.609198]}, "properties": {"estimated_density_class": 4, "density_label": "dense", "method": "NDVI-class-density-sampled-from-raster-UTM21S", "source": "Sentinel-2 S2B_21JVM_20260512_0_L2A"}}, {"type": "Feature", "geometry": {"type": "Point", "coordinates": [-57.035696, -25.607919]}, "properties": {"estimated_density_class": 4, "density_label": "dense", "method": "NDVI-class-density-sampled-from-raster-UTM21S", "source": "Sentinel-2 S2B_21JVM_20260512_0_L2A"}}, {"type": "Feature", "geometry": {"type": "Point", "coordinates": [-57.033189, -25.608211]}, "properties": {"estimated_density_class": 4, "density_label": "dense", "method": "NDVI-class-density-sampled-from-raster-UTM21S", "source": "Sentinel-2 S2B_21JVM_20260512_0_L2A"}}, {"type": "Feature", "geometry": {"type": "Point", "coordinates": [-57.035211, -25.606404]}, "properties": {"estimated_density_class": 4, "density_label": "dense", "method": "NDVI-class-density-sampled-from-raster-UTM21S", "source": "Sentinel-2 S2B_21JVM_20260512_0_L2A"}}, {"type": "Feature", "geometry": {"type": "Point", "coordinates": [-57.029426, -25.609358]}, "properties": {"estimated_density_class": 4, "density_label": "dense", "method": "NDVI-class-density-sampled-from-raster-UTM21S", "source": "Sentinel-2 S2B_21JVM_20260512_0_L2A"}}, {"type": "Feature", "geometry": {"type": "Point", "coordinates": [-57.035213, -25.605574]}, "properties": {"estimated_density_class": 4, "density_label": "dense", "method": "NDVI-class-density-sampled-from-raster-UTM21S", "source": "Sentinel-2 S2B_21JVM_20260512_0_L2A"}}, {"type": "Feature", "geometry": {"type": "Point", "coordinates": [-57.035377, -25.606565]}, "properties": {"estimated_density_class": 4, "density_label": "dense", "method": "NDVI-class-density-sampled-from-raster-UTM21S", "source": "Sentinel-2 S2B_21JVM_20260512_0_L2A"}}, {"type": "Feature", "geometry": {"type": "Point", "coordinates": [-57.031127, -25.609914]}, "properties": {"estimated_density_class": 4, "density_label": "dense", "method": "NDVI-class-density-sampled-from-raster-UTM21S", "source": "Sentinel-2 S2B_21JVM_20260512_0_L2A"}}, {"type": "Feature", "geometry": {"type": "Point", "coordinates": [-57.030937, -25.608991]}, "properties": {"estimated_density_class": 4, "density_label": "dense", "method": "NDVI-class-density-sampled-from-raster-UTM21S", "source": "Sentinel-2 S2B_21JVM_20260512_0_L2A"}}, {"type": "Feature", "geometry": {"type": "Point", "coordinates": [-57.031198, -25.610264]}, "properties": {"estimated_density_class": 4, "density_label": "dense", "method": "NDVI-class-density-sampled-from-raster-UTM21S", "source": "Sentinel-2 S2B_21JVM_20260512_0_L2A"}}, {"type": "Feature", "geometry": {"type": "Point", "coordinates": [-57.033998, -25.606743]}, "properties": {"estimated_density_class": 4, "density_label": "dense", "method": "NDVI-class-density-sampled-from-raster-UTM21S", "source": "Sentinel-2 S2B_21JVM_20260512_0_L2A"}}, {"type": "Feature", "geometry": {"type": "Point", "coordinates": [-57.033123, -25.608845]}, "properties": {"estimated_density_class": 4, "density_label": "dense", "method": "NDVI-class-density-sampled-from-raster-UTM21S", "source": "Sentinel-2 S2B_21JVM_20260512_0_L2A"}}, {"type": "Feature", "geometry": {"type": "Point", "coordinates": [-57.033128, -25.609806]}, "properties": {"estimated_density_class": 4, "density_label": "dense", "method": "NDVI-class-density-sampled-from-raster-UTM21S", "source": "Sentinel-2 S2B_21JVM_20260512_0_L2A"}}, {"type": "Feature", "geometry": {"type": "Point", "coordinates": [-57.033319, -25.609453]}, "properties": {"estimated_density_class": 4, "density_label": "dense", "method": "NDVI-class-density-sampled-from-raster-UTM21S", "source": "Sentinel-2 S2B_21JVM_20260512_0_L2A"}}, {"type": "Feature", "geometry": {"type": "Point", "coordinates": [-57.036782, -25.606836]}, "properties": {"estimated_density_class": 4, "density_label": "dense", "method": "NDVI-class-density-sampled-from-raster-UTM21S", "source": "Sentinel-2 S2B_21JVM_20260512_0_L2A"}}, {"type": "Feature", "geometry": {"type": "Point", "coordinates": [-57.033386, -25.607903]}, "properties": {"estimated_density_class": 4, "density_label": "dense", "method": "NDVI-class-density-sampled-from-raster-UTM21S", "source": "Sentinel-2 S2B_21JVM_20260512_0_L2A"}}, {"type": "Feature", "geometry": {"type": "Point", "coordinates": [-57.035205, -25.605277]}, "properties": {"estimated_density_class": 4, "density_label": "dense", "method": "NDVI-class-density-sampled-from-raster-UTM21S", "source": "Sentinel-2 S2B_21JVM_20260512_0_L2A"}}, {"type": "Feature", "geometry": {"type": "Point", "coordinates": [-57.032897, -25.609269]}, "properties": {"estimated_density_class": 4, "density_label": "dense", "method": "NDVI-class-density-sampled-from-raster-UTM21S", "source": "Sentinel-2 S2B_21JVM_20260512_0_L2A"}}, {"type": "Feature", "geometry": {"type": "Point", "coordinates": [-57.03362, -25.609547]}, "properties": {"estimated_density_class": 4, "density_label": "dense", "method": "NDVI-class-density-sampled-from-raster-UTM21S", "source": "Sentinel-2 S2B_21JVM_20260512_0_L2A"}}, {"type": "Feature", "geometry": {"type": "Point", "coordinates": [-57.032618, -25.60748]}, "properties": {"estimated_density_class": 4, "density_label": "dense", "method": "NDVI-class-density-sampled-from-raster-UTM21S", "source": "Sentinel-2 S2B_21JVM_20260512_0_L2A"}}, {"type": "Feature", "geometry": {"type": "Point", "coordinates": [-57.037582, -25.606679]}, "properties": {"estimated_density_class": 4, "density_label": "dense", "method": "NDVI-class-density-sampled-from-raster-UTM21S", "source": "Sentinel-2 S2B_21JVM_20260512_0_L2A"}}, {"type": "Feature", "geometry": {"type": "Point", "coordinates": [-57.031736, -25.609645]}, "properties": {"estimated_density_class": 4, "density_label": "dense", "method": "NDVI-class-density-sampled-from-raster-UTM21S", "source": "Sentinel-2 S2B_21JVM_20260512_0_L2A"}}, {"type": "Feature", "geometry": {"type": "Point", "coordinates": [-57.032346, -25.60765]}, "properties": {"estimated_density_class": 4, "density_label": "dense", "method": "NDVI-class-density-sampled-from-raster-UTM21S", "source": "Sentinel-2 S2B_21JVM_20260512_0_L2A"}}, {"type": "Feature", "geometry": {"type": "Point", "coordinates": [-57.032788, -25.608301]}, "properties": {"estimated_density_class": 4, "density_label": "dense", "method": "NDVI-class-density-sampled-from-raster-UTM21S", "source": "Sentinel-2 S2B_21JVM_20260512_0_L2A"}}, {"type": "Feature", "geometry": {"type": "Point", "coordinates": [-57.03519, -25.606926]}, "properties": {"estimated_density_class": 4, "density_label": "dense", "method": "NDVI-class-density-sampled-from-raster-UTM21S", "source": "Sentinel-2 S2B_21JVM_20260512_0_L2A"}}, {"type": "Feature", "geometry": {"type": "Point", "coordinates": [-57.03802, -25.605645]}, "properties": {"estimated_density_class": 4, "density_label": "dense", "method": "NDVI-class-density-sampled-from-raster-UTM21S", "source": "Sentinel-2 S2B_21JVM_20260512_0_L2A"}}, {"type": "Feature", "geometry": {"type": "Point", "coordinates": [-57.03562, -25.60675]}, "properties": {"estimated_density_class": 4, "density_label": "dense", "method": "NDVI-class-density-sampled-from-raster-UTM21S", "source": "Sentinel-2 S2B_21JVM_20260512_0_L2A"}}, {"type": "Feature", "geometry": {"type": "Point", "coordinates": [-57.035193, -25.60609]}, "properties": {"estimated_density_class": 4, "density_label": "dense", "method": "NDVI-class-density-sampled-from-raster-UTM21S", "source": "Sentinel-2 S2B_21JVM_20260512_0_L2A"}}, {"type": "Feature", "geometry": {"type": "Point", "coordinates": [-57.037284, -25.606319]}, "properties": {"estimated_density_class": 4, "density_label": "dense", "method": "NDVI-class-density-sampled-from-raster-UTM21S", "source": "Sentinel-2 S2B_21JVM_20260512_0_L2A"}}, {"type": "Feature", "geometry": {"type": "Point", "coordinates": [-57.02974, -25.609159]}, "properties": {"estimated_density_class": 4, "density_label": "dense", "method": "NDVI-class-density-sampled-from-raster-UTM21S", "source": "Sentinel-2 S2B_21JVM_20260512_0_L2A"}}, {"type": "Feature", "geometry": {"type": "Point", "coordinates": [-57.033414, -25.609744]}, "properties": {"estimated_density_class": 4, "density_label": "dense", "method": "NDVI-class-density-sampled-from-raster-UTM21S", "source": "Sentinel-2 S2B_21JVM_20260512_0_L2A"}}, {"type": "Feature", "geometry": {"type": "Point", "coordinates": [-57.031948, -25.608832]}, "properties": {"estimated_density_class": 4, "density_label": "dense", "method": "NDVI-class-density-sampled-from-raster-UTM21S", "source": "Sentinel-2 S2B_21JVM_20260512_0_L2A"}}, {"type": "Feature", "geometry": {"type": "Point", "coordinates": [-57.031501, -25.608083]}, "properties": {"estimated_density_class": 4, "density_label": "dense", "method": "NDVI-class-density-sampled-from-raster-UTM21S", "source": "Sentinel-2 S2B_21JVM_20260512_0_L2A"}}, {"type": "Feature", "geometry": {"type": "Point", "coordinates": [-57.032802, -25.607116]}, "properties": {"estimated_density_class": 4, "density_label": "dense", "method": "NDVI-class-density-sampled-from-raster-UTM21S", "source": "Sentinel-2 S2B_21JVM_20260512_0_L2A"}}, {"type": "Feature", "geometry": {"type": "Point", "coordinates": [-57.032604, -25.608553]}, "properties": {"estimated_density_class": 4, "density_label": "dense", "method": "NDVI-class-density-sampled-from-raster-UTM21S", "source": "Sentinel-2 S2B_21JVM_20260512_0_L2A"}}, {"type": "Feature", "geometry": {"type": "Point", "coordinates": [-57.033832, -25.606925]}, "properties": {"estimated_density_class": 4, "density_label": "dense", "method": "NDVI-class-density-sampled-from-raster-UTM21S", "source": "Sentinel-2 S2B_21JVM_20260512_0_L2A"}}, {"type": "Feature", "geometry": {"type": "Point", "coordinates": [-57.035023, -25.60773]}, "properties": {"estimated_density_class": 4, "density_label": "dense", "method": "NDVI-class-density-sampled-from-raster-UTM21S", "source": "Sentinel-2 S2B_21JVM_20260512_0_L2A"}}, {"type": "Feature", "geometry": {"type": "Point", "coordinates": [-57.034191, -25.606559]}, "properties": {"estimated_density_class": 4, "density_label": "dense", "method": "NDVI-class-density-sampled-from-raster-UTM21S", "source": "Sentinel-2 S2B_21JVM_20260512_0_L2A"}}, {"type": "Feature", "geometry": {"type": "Point", "coordinates": [-57.030226, -25.609462]}, "properties": {"estimated_density_class": 4, "density_label": "dense", "method": "NDVI-class-density-sampled-from-raster-UTM21S", "source": "Sentinel-2 S2B_21JVM_20260512_0_L2A"}}, {"type": "Feature", "geometry": {"type": "Point", "coordinates": [-57.031912, -25.608109]}, "properties": {"estimated_density_class": 4, "density_label": "dense", "method": "NDVI-class-density-sampled-from-raster-UTM21S", "source": "Sentinel-2 S2B_21JVM_20260512_0_L2A"}}, {"type": "Feature", "geometry": {"type": "Point", "coordinates": [-57.03291, -25.611145]}, "properties": {"estimated_density_class": 4, "density_label": "dense", "method": "NDVI-class-density-sampled-from-raster-UTM21S", "source": "Sentinel-2 S2B_21JVM_20260512_0_L2A"}}, {"type": "Feature", "geometry": {"type": "Point", "coordinates": [-57.034985, -25.60758]}, "properties": {"estimated_density_class": 4, "density_label": "dense", "method": "NDVI-class-density-sampled-from-raster-UTM21S", "source": "Sentinel-2 S2B_21JVM_20260512_0_L2A"}}, {"type": "Feature", "geometry": {"type": "Point", "coordinates": [-57.033732, -25.610086]}, "properties": {"estimated_density_class": 4, "density_label": "dense", "method": "NDVI-class-density-sampled-from-raster-UTM21S", "source": "Sentinel-2 S2B_21JVM_20260512_0_L2A"}}, {"type": "Feature", "geometry": {"type": "Point", "coordinates": [-57.037982, -25.606193]}, "properties": {"estimated_density_class": 4, "density_label": "dense", "method": "NDVI-class-density-sampled-from-raster-UTM21S", "source": "Sentinel-2 S2B_21JVM_20260512_0_L2A"}}, {"type": "Feature", "geometry": {"type": "Point", "coordinates": [-57.034122, -25.605939]}, "properties": {"estimated_density_class": 4, "density_label": "dense", "method": "NDVI-class-density-sampled-from-raster-UTM21S", "source": "Sentinel-2 S2B_21JVM_20260512_0_L2A"}}, {"type": "Feature", "geometry": {"type": "Point", "coordinates": [-57.035003, -25.606395]}, "properties": {"estimated_density_class": 4, "density_label": "dense", "method": "NDVI-class-density-sampled-from-raster-UTM21S", "source": "Sentinel-2 S2B_21JVM_20260512_0_L2A"}}, {"type": "Feature", "geometry": {"type": "Point", "coordinates": [-57.029849, -25.609641]}, "properties": {"estimated_density_class": 4, "density_label": "dense", "method": "NDVI-class-density-sampled-from-raster-UTM21S", "source": "Sentinel-2 S2B_21JVM_20260512_0_L2A"}}, {"type": "Feature", "geometry": {"type": "Point", "coordinates": [-57.032023, -25.608255]}, "properties": {"estimated_density_class": 4, "density_label": "dense", "method": "NDVI-class-density-sampled-from-raster-UTM21S", "source": "Sentinel-2 S2B_21JVM_20260512_0_L2A"}}, {"type": "Feature", "geometry": {"type": "Point", "coordinates": [-57.031709, -25.607934]}, "properties": {"estimated_density_class": 4, "density_label": "dense", "method": "NDVI-class-density-sampled-from-raster-UTM21S", "source": "Sentinel-2 S2B_21JVM_20260512_0_L2A"}}, {"type": "Feature", "geometry": {"type": "Point", "coordinates": [-57.034937, -25.608649]}, "properties": {"estimated_density_class": 4, "density_label": "dense", "method": "NDVI-class-density-sampled-from-raster-UTM21S", "source": "Sentinel-2 S2B_21JVM_20260512_0_L2A"}}, {"type": "Feature", "geometry": {"type": "Point", "coordinates": [-57.031701, -25.609797]}, "properties": {"estimated_density_class": 4, "density_label": "dense", "method": "NDVI-class-density-sampled-from-raster-UTM21S", "source": "Sentinel-2 S2B_21JVM_20260512_0_L2A"}}, {"type": "Feature", "geometry": {"type": "Point", "coordinates": [-57.030815, -25.610113]}, "properties": {"estimated_density_class": 4, "density_label": "dense", "method": "NDVI-class-density-sampled-from-raster-UTM21S", "source": "Sentinel-2 S2B_21JVM_20260512_0_L2A"}}, {"type": "Feature", "geometry": {"type": "Point", "coordinates": [-57.035305, -25.60775]}, "properties": {"estimated_density_class": 4, "density_label": "dense", "method": "NDVI-class-density-sampled-from-raster-UTM21S", "source": "Sentinel-2 S2B_21JVM_20260512_0_L2A"}}, {"type": "Feature", "geometry": {"type": "Point", "coordinates": [-57.035521, -25.607035]}, "properties": {"estimated_density_class": 4, "density_label": "dense", "method": "NDVI-class-density-sampled-from-raster-UTM21S", "source": "Sentinel-2 S2B_21JVM_20260512_0_L2A"}}, {"type": "Feature", "geometry": {"type": "Point", "coordinates": [-57.034485, -25.605663]}, "properties": {"estimated_density_class": 4, "density_label": "dense", "method": "NDVI-class-density-sampled-from-raster-UTM21S", "source": "Sentinel-2 S2B_21JVM_20260512_0_L2A"}}, {"type": "Feature", "geometry": {"type": "Point", "coordinates": [-57.036278, -25.607006]}, "properties": {"estimated_density_class": 4, "density_label": "dense", "method": "NDVI-class-density-sampled-from-raster-UTM21S", "source": "Sentinel-2 S2B_21JVM_20260512_0_L2A"}}, {"type": "Feature", "geometry": {"type": "Point", "coordinates": [-57.030529, -25.609804]}, "properties": {"estimated_density_class": 4, "density_label": "dense", "method": "NDVI-class-density-sampled-from-raster-UTM21S", "source": "Sentinel-2 S2B_21JVM_20260512_0_L2A"}}, {"type": "Feature", "geometry": {"type": "Point", "coordinates": [-57.034336, -25.606916]}, "properties": {"estimated_density_class": 4, "density_label": "dense", "method": "NDVI-class-density-sampled-from-raster-UTM21S", "source": "Sentinel-2 S2B_21JVM_20260512_0_L2A"}}, {"type": "Feature", "geometry": {"type": "Point", "coordinates": [-57.035522, -25.606671]}, "properties": {"estimated_density_class": 4, "density_label": "dense", "method": "NDVI-class-density-sampled-from-raster-UTM21S", "source": "Sentinel-2 S2B_21JVM_20260512_0_L2A"}}, {"type": "Feature", "geometry": {"type": "Point", "coordinates": [-57.035007, -25.609084]}, "properties": {"estimated_density_class": 4, "density_label": "dense", "method": "NDVI-class-density-sampled-from-raster-UTM21S", "source": "Sentinel-2 S2B_21JVM_20260512_0_L2A"}}, {"type": "Feature", "geometry": {"type": "Point", "coordinates": [-57.036101, -25.607288]}, "properties": {"estimated_density_class": 4, "density_label": "dense", "method": "NDVI-class-density-sampled-from-raster-UTM21S", "source": "Sentinel-2 S2B_21JVM_20260512_0_L2A"}}, {"type": "Feature", "geometry": {"type": "Point", "coordinates": [-57.034981, -25.606676]}, "properties": {"estimated_density_class": 4, "density_label": "dense", "method": "NDVI-class-density-sampled-from-raster-UTM21S", "source": "Sentinel-2 S2B_21JVM_20260512_0_L2A"}}, {"type": "Feature", "geometry": {"type": "Point", "coordinates": [-57.036402, -25.606004]}, "properties": {"estimated_density_class": 4, "density_label": "dense", "method": "NDVI-class-density-sampled-from-raster-UTM21S", "source": "Sentinel-2 S2B_21JVM_20260512_0_L2A"}}, {"type": "Feature", "geometry": {"type": "Point", "coordinates": [-57.037423, -25.605293]}, "properties": {"estimated_density_class": 4, "density_label": "dense", "method": "NDVI-class-density-sampled-from-raster-UTM21S", "source": "Sentinel-2 S2B_21JVM_20260512_0_L2A"}}, {"type": "Feature", "geometry": {"type": "Point", "coordinates": [-57.035384, -25.608282]}, "properties": {"estimated_density_class": 4, "density_label": "dense", "method": "NDVI-class-density-sampled-from-raster-UTM21S", "source": "Sentinel-2 S2B_21JVM_20260512_0_L2A"}}, {"type": "Feature", "geometry": {"type": "Point", "coordinates": [-57.035919, -25.606282]}, "properties": {"estimated_density_class": 4, "density_label": "dense", "method": "NDVI-class-density-sampled-from-raster-UTM21S", "source": "Sentinel-2 S2B_21JVM_20260512_0_L2A"}}, {"type": "Feature", "geometry": {"type": "Point", "coordinates": [-57.032824, -25.611151]}, "properties": {"estimated_density_class": 4, "density_label": "dense", "method": "NDVI-class-density-sampled-from-raster-UTM21S", "source": "Sentinel-2 S2B_21JVM_20260512_0_L2A"}}, {"type": "Feature", "geometry": {"type": "Point", "coordinates": [-57.033233, -25.608802]}, "properties": {"estimated_density_class": 4, "density_label": "dense", "method": "NDVI-class-density-sampled-from-raster-UTM21S", "source": "Sentinel-2 S2B_21JVM_20260512_0_L2A"}}, {"type": "Feature", "geometry": {"type": "Point", "coordinates": [-57.036898, -25.607111]}, "properties": {"estimated_density_class": 4, "density_label": "dense", "method": "NDVI-class-density-sampled-from-raster-UTM21S", "source": "Sentinel-2 S2B_21JVM_20260512_0_L2A"}}, {"type": "Feature", "geometry": {"type": "Point", "coordinates": [-57.033635, -25.609824]}, "properties": {"estimated_density_class": 4, "density_label": "dense", "method": "NDVI-class-density-sampled-from-raster-UTM21S", "source": "Sentinel-2 S2B_21JVM_20260512_0_L2A"}}, {"type": "Feature", "geometry": {"type": "Point", "coordinates": [-57.033134, -25.608911]}, "properties": {"estimated_density_class": 4, "density_label": "dense", "method": "NDVI-class-density-sampled-from-raster-UTM21S", "source": "Sentinel-2 S2B_21JVM_20260512_0_L2A"}}, {"type": "Feature", "geometry": {"type": "Point", "coordinates": [-57.033205, -25.60682]}, "properties": {"estimated_density_class": 4, "density_label": "dense", "method": "NDVI-class-density-sampled-from-raster-UTM21S", "source": "Sentinel-2 S2B_21JVM_20260512_0_L2A"}}, {"type": "Feature", "geometry": {"type": "Point", "coordinates": [-57.030933, -25.60973]}, "properties": {"estimated_density_class": 4, "density_label": "dense", "method": "NDVI-class-density-sampled-from-raster-UTM21S", "source": "Sentinel-2 S2B_21JVM_20260512_0_L2A"}}, {"type": "Feature", "geometry": {"type": "Point", "coordinates": [-57.03274, -25.609166]}, "properties": {"estimated_density_class": 4, "density_label": "dense", "method": "NDVI-class-density-sampled-from-raster-UTM21S", "source": "Sentinel-2 S2B_21JVM_20260512_0_L2A"}}, {"type": "Feature", "geometry": {"type": "Point", "coordinates": [-57.034722, -25.606861]}, "properties": {"estimated_density_class": 4, "density_label": "dense", "method": "NDVI-class-density-sampled-from-raster-UTM21S", "source": "Sentinel-2 S2B_21JVM_20260512_0_L2A"}}, {"type": "Feature", "geometry": {"type": "Point", "coordinates": [-57.032811, -25.609449]}, "properties": {"estimated_density_class": 4, "density_label": "dense", "method": "NDVI-class-density-sampled-from-raster-UTM21S", "source": "Sentinel-2 S2B_21JVM_20260512_0_L2A"}}, {"type": "Feature", "geometry": {"type": "Point", "coordinates": [-57.035228, -25.605839]}, "properties": {"estimated_density_class": 4, "density_label": "dense", "method": "NDVI-class-density-sampled-from-raster-UTM21S", "source": "Sentinel-2 S2B_21JVM_20260512_0_L2A"}}, {"type": "Feature", "geometry": {"type": "Point", "coordinates": [-57.036793, -25.606027]}, "properties": {"estimated_density_class": 4, "density_label": "dense", "method": "NDVI-class-density-sampled-from-raster-UTM21S", "source": "Sentinel-2 S2B_21JVM_20260512_0_L2A"}}, {"type": "Feature", "geometry": {"type": "Point", "coordinates": [-57.033697, -25.60792]}, "properties": {"estimated_density_class": 4, "density_label": "dense", "method": "NDVI-class-density-sampled-from-raster-UTM21S", "source": "Sentinel-2 S2B_21JVM_20260512_0_L2A"}}, {"type": "Feature", "geometry": {"type": "Point", "coordinates": [-57.029847, -25.609211]}, "properties": {"estimated_density_class": 4, "density_label": "dense", "method": "NDVI-class-density-sampled-from-raster-UTM21S", "source": "Sentinel-2 S2B_21JVM_20260512_0_L2A"}}, {"type": "Feature", "geometry": {"type": "Point", "coordinates": [-57.036191, -25.606197]}, "properties": {"estimated_density_class": 4, "density_label": "dense", "method": "NDVI-class-density-sampled-from-raster-UTM21S", "source": "Sentinel-2 S2B_21JVM_20260512_0_L2A"}}, {"type": "Feature", "geometry": {"type": "Point", "coordinates": [-57.032037, -25.610348]}, "properties": {"estimated_density_class": 4, "density_label": "dense", "method": "NDVI-class-density-sampled-from-raster-UTM21S", "source": "Sentinel-2 S2B_21JVM_20260512_0_L2A"}}, {"type": "Feature", "geometry": {"type": "Point", "coordinates": [-57.036972, -25.606303]}, "properties": {"estimated_density_class": 4, "density_label": "dense", "method": "NDVI-class-density-sampled-from-raster-UTM21S", "source": "Sentinel-2 S2B_21JVM_20260512_0_L2A"}}, {"type": "Feature", "geometry": {"type": "Point", "coordinates": [-57.033418, -25.606836]}, "properties": {"estimated_density_class": 4, "density_label": "dense", "method": "NDVI-class-density-sampled-from-raster-UTM21S", "source": "Sentinel-2 S2B_21JVM_20260512_0_L2A"}}, {"type": "Feature", "geometry": {"type": "Point", "coordinates": [-57.037597, -25.605922]}, "properties": {"estimated_density_class": 4, "density_label": "dense", "method": "NDVI-class-density-sampled-from-raster-UTM21S", "source": "Sentinel-2 S2B_21JVM_20260512_0_L2A"}}, {"type": "Feature", "geometry": {"type": "Point", "coordinates": [-57.030701, -25.609628]}, "properties": {"estimated_density_class": 4, "density_label": "dense", "method": "NDVI-class-density-sampled-from-raster-UTM21S", "source": "Sentinel-2 S2B_21JVM_20260512_0_L2A"}}, {"type": "Feature", "geometry": {"type": "Point", "coordinates": [-57.033809, -25.60702]}, "properties": {"estimated_density_class": 4, "density_label": "dense", "method": "NDVI-class-density-sampled-from-raster-UTM21S", "source": "Sentinel-2 S2B_21JVM_20260512_0_L2A"}}, {"type": "Feature", "geometry": {"type": "Point", "coordinates": [-57.032048, -25.608384]}, "properties": {"estimated_density_class": 4, "density_label": "dense", "method": "NDVI-class-density-sampled-from-raster-UTM21S", "source": "Sentinel-2 S2B_21JVM_20260512_0_L2A"}}, {"type": "Feature", "geometry": {"type": "Point", "coordinates": [-57.030401, -25.609837]}, "properties": {"estimated_density_class": 4, "density_label": "dense", "method": "NDVI-class-density-sampled-from-raster-UTM21S", "source": "Sentinel-2 S2B_21JVM_20260512_0_L2A"}}, {"type": "Feature", "geometry": {"type": "Point", "coordinates": [-57.03518, -25.608077]}, "properties": {"estimated_density_class": 4, "density_label": "dense", "method": "NDVI-class-density-sampled-from-raster-UTM21S", "source": "Sentinel-2 S2B_21JVM_20260512_0_L2A"}}, {"type": "Feature", "geometry": {"type": "Point", "coordinates": [-57.029758, -25.609636]}, "properties": {"estimated_density_class": 4, "density_label": "dense", "method": "NDVI-class-density-sampled-from-raster-UTM21S", "source": "Sentinel-2 S2B_21JVM_20260512_0_L2A"}}, {"type": "Feature", "geometry": {"type": "Point", "coordinates": [-57.034314, -25.607098]}, "properties": {"estimated_density_class": 4, "density_label": "dense", "method": "NDVI-class-density-sampled-from-raster-UTM21S", "source": "Sentinel-2 S2B_21JVM_20260512_0_L2A"}}, {"type": "Feature", "geometry": {"type": "Point", "coordinates": [-57.034586, -25.610171]}, "properties": {"estimated_density_class": 4, "density_label": "dense", "method": "NDVI-class-density-sampled-from-raster-UTM21S", "source": "Sentinel-2 S2B_21JVM_20260512_0_L2A"}}, {"type": "Feature", "geometry": {"type": "Point", "coordinates": [-57.035223, -25.607674]}, "properties": {"estimated_density_class": 4, "density_label": "dense", "method": "NDVI-class-density-sampled-from-raster-UTM21S", "source": "Sentinel-2 S2B_21JVM_20260512_0_L2A"}}, {"type": "Feature", "geometry": {"type": "Point", "coordinates": [-57.032712, -25.608904]}, "properties": {"estimated_density_class": 4, "density_label": "dense", "method": "NDVI-class-density-sampled-from-raster-UTM21S", "source": "Sentinel-2 S2B_21JVM_20260512_0_L2A"}}, {"type": "Feature", "geometry": {"type": "Point", "coordinates": [-57.034007, -25.6071]}, "properties": {"estimated_density_class": 4, "density_label": "dense", "method": "NDVI-class-density-sampled-from-raster-UTM21S", "source": "Sentinel-2 S2B_21JVM_20260512_0_L2A"}}, {"type": "Feature", "geometry": {"type": "Point", "coordinates": [-57.035481, -25.606469]}, "properties": {"estimated_density_class": 4, "density_label": "dense", "method": "NDVI-class-density-sampled-from-raster-UTM21S", "source": "Sentinel-2 S2B_21JVM_20260512_0_L2A"}}, {"type": "Feature", "geometry": {"type": "Point", "coordinates": [-57.032198, -25.610189]}, "properties": {"estimated_density_class": 4, "density_label": "dense", "method": "NDVI-class-density-sampled-from-raster-UTM21S", "source": "Sentinel-2 S2B_21JVM_20260512_0_L2A"}}, {"type": "Feature", "geometry": {"type": "Point", "coordinates": [-57.035106, -25.605206]}, "properties": {"estimated_density_class": 4, "density_label": "dense", "method": "NDVI-class-density-sampled-from-raster-UTM21S", "source": "Sentinel-2 S2B_21JVM_20260512_0_L2A"}}, {"type": "Feature", "geometry": {"type": "Point", "coordinates": [-57.033988, -25.607668]}, "properties": {"estimated_density_class": 4, "density_label": "dense", "method": "NDVI-class-density-sampled-from-raster-UTM21S", "source": "Sentinel-2 S2B_21JVM_20260512_0_L2A"}}, {"type": "Feature", "geometry": {"type": "Point", "coordinates": [-57.033338, -25.606999]}, "properties": {"estimated_density_class": 4, "density_label": "dense", "method": "NDVI-class-density-sampled-from-raster-UTM21S", "source": "Sentinel-2 S2B_21JVM_20260512_0_L2A"}}, {"type": "Feature", "geometry": {"type": "Point", "coordinates": [-57.034531, -25.608092]}, "properties": {"estimated_density_class": 4, "density_label": "dense", "method": "NDVI-class-density-sampled-from-raster-UTM21S", "source": "Sentinel-2 S2B_21JVM_20260512_0_L2A"}}, {"type": "Feature", "geometry": {"type": "Point", "coordinates": [-57.037012, -25.607288]}, "properties": {"estimated_density_class": 4, "density_label": "dense", "method": "NDVI-class-density-sampled-from-raster-UTM21S", "source": "Sentinel-2 S2B_21JVM_20260512_0_L2A"}}, {"type": "Feature", "geometry": {"type": "Point", "coordinates": [-57.035618, -25.606129]}, "properties": {"estimated_density_class": 4, "density_label": "dense", "method": "NDVI-class-density-sampled-from-raster-UTM21S", "source": "Sentinel-2 S2B_21JVM_20260512_0_L2A"}}, {"type": "Feature", "geometry": {"type": "Point", "coordinates": [-57.035133, -25.607482]}, "properties": {"estimated_density_class": 4, "density_label": "dense", "method": "NDVI-class-density-sampled-from-raster-UTM21S", "source": "Sentinel-2 S2B_21JVM_20260512_0_L2A"}}, {"type": "Feature", "geometry": {"type": "Point", "coordinates": [-57.034486, -25.607559]}, "properties": {"estimated_density_class": 4, "density_label": "dense", "method": "NDVI-class-density-sampled-from-raster-UTM21S", "source": "Sentinel-2 S2B_21JVM_20260512_0_L2A"}}, {"type": "Feature", "geometry": {"type": "Point", "coordinates": [-57.035708, -25.607187]}, "properties": {"estimated_density_class": 4, "density_label": "dense", "method": "NDVI-class-density-sampled-from-raster-UTM21S", "source": "Sentinel-2 S2B_21JVM_20260512_0_L2A"}}, {"type": "Feature", "geometry": {"type": "Point", "coordinates": [-57.030703, -25.609171]}, "properties": {"estimated_density_class": 4, "density_label": "dense", "method": "NDVI-class-density-sampled-from-raster-UTM21S", "source": "Sentinel-2 S2B_21JVM_20260512_0_L2A"}}, {"type": "Feature", "geometry": {"type": "Point", "coordinates": [-57.034982, -25.605765]}, "properties": {"estimated_density_class": 4, "density_label": "dense", "method": "NDVI-class-density-sampled-from-raster-UTM21S", "source": "Sentinel-2 S2B_21JVM_20260512_0_L2A"}}, {"type": "Feature", "geometry": {"type": "Point", "coordinates": [-57.030999, -25.609095]}, "properties": {"estimated_density_class": 4, "density_label": "dense", "method": "NDVI-class-density-sampled-from-raster-UTM21S", "source": "Sentinel-2 S2B_21JVM_20260512_0_L2A"}}, {"type": "Feature", "geometry": {"type": "Point", "coordinates": [-57.033218, -25.606761]}, "properties": {"estimated_density_class": 4, "density_label": "dense", "method": "NDVI-class-density-sampled-from-raster-UTM21S", "source": "Sentinel-2 S2B_21JVM_20260512_0_L2A"}}, {"type": "Feature", "geometry": {"type": "Point", "coordinates": [-57.034899, -25.606946]}, "properties": {"estimated_density_class": 4, "density_label": "dense", "method": "NDVI-class-density-sampled-from-raster-UTM21S", "source": "Sentinel-2 S2B_21JVM_20260512_0_L2A"}}, {"type": "Feature", "geometry": {"type": "Point", "coordinates": [-57.032149, -25.608361]}, "properties": {"estimated_density_class": 4, "density_label": "dense", "method": "NDVI-class-density-sampled-from-raster-UTM21S", "source": "Sentinel-2 S2B_21JVM_20260512_0_L2A"}}, {"type": "Feature", "geometry": {"type": "Point", "coordinates": [-57.036405, -25.605958]}, "properties": {"estimated_density_class": 4, "density_label": "dense", "method": "NDVI-class-density-sampled-from-raster-UTM21S", "source": "Sentinel-2 S2B_21JVM_20260512_0_L2A"}}, {"type": "Feature", "geometry": {"type": "Point", "coordinates": [-57.035532, -25.605928]}, "properties": {"estimated_density_class": 4, "density_label": "dense", "method": "NDVI-class-density-sampled-from-raster-UTM21S", "source": "Sentinel-2 S2B_21JVM_20260512_0_L2A"}}, {"type": "Feature", "geometry": {"type": "Point", "coordinates": [-57.033486, -25.607043]}, "properties": {"estimated_density_class": 4, "density_label": "dense", "method": "NDVI-class-density-sampled-from-raster-UTM21S", "source": "Sentinel-2 S2B_21JVM_20260512_0_L2A"}}, {"type": "Feature", "geometry": {"type": "Point", "coordinates": [-57.032729, -25.609546]}, "properties": {"estimated_density_class": 4, "density_label": "dense", "method": "NDVI-class-density-sampled-from-raster-UTM21S", "source": "Sentinel-2 S2B_21JVM_20260512_0_L2A"}}, {"type": "Feature", "geometry": {"type": "Point", "coordinates": [-57.036685, -25.607403]}, "properties": {"estimated_density_class": 4, "density_label": "dense", "method": "NDVI-class-density-sampled-from-raster-UTM21S", "source": "Sentinel-2 S2B_21JVM_20260512_0_L2A"}}, {"type": "Feature", "geometry": {"type": "Point", "coordinates": [-57.034788, -25.60839]}, "properties": {"estimated_density_class": 4, "density_label": "dense", "method": "NDVI-class-density-sampled-from-raster-UTM21S", "source": "Sentinel-2 S2B_21JVM_20260512_0_L2A"}}, {"type": "Feature", "geometry": {"type": "Point", "coordinates": [-57.036684, -25.605664]}, "properties": {"estimated_density_class": 4, "density_label": "dense", "method": "NDVI-class-density-sampled-from-raster-UTM21S", "source": "Sentinel-2 S2B_21JVM_20260512_0_L2A"}}, {"type": "Feature", "geometry": {"type": "Point", "coordinates": [-57.036024, -25.607131]}, "properties": {"estimated_density_class": 4, "density_label": "dense", "method": "NDVI-class-density-sampled-from-raster-UTM21S", "source": "Sentinel-2 S2B_21JVM_20260512_0_L2A"}}], "metadata": {"method": "Random sampling of NDVI pixel centroids (10m Sentinel-2 native) reprojected UTM21S to WGS84, density-weighted", "source_raster": "polygon_ndvi.tif (Sentinel-2 S2B_21JVM_20260512_0_L2A, 10m pixels)", "lqv_area_ha": 30.915, "raster_dimensions": "104x86", "trees_per_density_pixel": {"2": 0.77, "3": 0.33, "4": 0.058}, "tree_density_per_ha": 11.2, "caveat": "Tree positions are ESTIMATED from NDVI density, NOT measured crowns. Real tree locations require drone survey or Wes photo captures. NDVI sees canopy density, not individual tree positions - each point represents ~10m x 10m of forest. The visual rendering shows DISTRIBUTION, not exact placement."}}